<?xml version="1.0" encoding="UTF-8"?>
<gpx version="1.1" creator="gpx2reel" xmlns="http://www.topografix.com/GPX/1/1">
  <trk><name>Day 7</name>
    <trkseg>
      <trkpt lat="31.887567" lon="130.965719"><ele>336.4</ele><time>2026-09-26T22:16:01Z</time></trkpt>
      <trkpt lat="31.887906" lon="130.965325"><ele>339.0</ele><time>2026-09-26T22:17:01Z</time></trkpt>
      <trkpt lat="31.887908" lon="130.965143"><ele>340.6</ele><time>2026-09-26T22:17:19Z</time></trkpt>
      <trkpt lat="31.888103" lon="130.964769"><ele>343.0</ele><time>2026-09-26T22:18:08Z</time></trkpt>
      <trkpt lat="31.888054" lon="130.964645"><ele>343.8</ele><time>2026-09-26T22:18:32Z</time></trkpt>
      <trkpt lat="31.888129" lon="130.964194"><ele>346.2</ele><time>2026-09-26T22:19:21Z</time></trkpt>
      <trkpt lat="31.888103" lon="130.963642"><ele>349.0</ele><time>2026-09-26T22:20:15Z</time></trkpt>
      <trkpt lat="31.888233" lon="130.963517"><ele>352.2</ele><time>2026-09-26T22:20:48Z</time></trkpt>
      <trkpt lat="31.888402" lon="130.963582"><ele>355.8</ele><time>2026-09-26T22:21:20Z</time></trkpt>
      <trkpt lat="31.888637" lon="130.963896"><ele>362.0</ele><time>2026-09-26T22:22:42Z</time></trkpt>
      <trkpt lat="31.888621" lon="130.964212"><ele>365.0</ele><time>2026-09-26T22:23:23Z</time></trkpt>
      <trkpt lat="31.888461" lon="130.964673"><ele>367.6</ele><time>2026-09-26T22:24:27Z</time></trkpt>
      <trkpt lat="31.888427" lon="130.965468"><ele>369.2</ele><time>2026-09-26T22:25:09Z</time></trkpt>
      <trkpt lat="31.888068" lon="130.965970"><ele>372.2</ele><time>2026-09-26T22:25:48Z</time></trkpt>
      <trkpt lat="31.887983" lon="130.966454"><ele>375.4</ele><time>2026-09-26T22:26:39Z</time></trkpt>
      <trkpt lat="31.888029" lon="130.966992"><ele>379.4</ele><time>2026-09-26T22:27:21Z</time></trkpt>
      <trkpt lat="31.888227" lon="130.967634"><ele>381.4</ele><time>2026-09-26T22:28:01Z</time></trkpt>
      <trkpt lat="31.888662" lon="130.968419"><ele>378.0</ele><time>2026-09-26T22:28:28Z</time></trkpt>
      <trkpt lat="31.888844" lon="130.969066"><ele>374.8</ele><time>2026-09-26T22:28:35Z</time></trkpt>
      <trkpt lat="31.888932" lon="130.971217"><ele>368.0</ele><time>2026-09-26T22:28:56Z</time></trkpt>
      <trkpt lat="31.888895" lon="130.971823"><ele>363.4</ele><time>2026-09-26T22:29:01Z</time></trkpt>
      <trkpt lat="31.888710" lon="130.972800"><ele>357.0</ele><time>2026-09-26T22:29:08Z</time></trkpt>
      <trkpt lat="31.888468" lon="130.973407"><ele>354.2</ele><time>2026-09-26T22:29:13Z</time></trkpt>
      <trkpt lat="31.887574" lon="130.974620"><ele>357.4</ele><time>2026-09-26T22:29:39Z</time></trkpt>
      <trkpt lat="31.887129" lon="130.974989"><ele>358.6</ele><time>2026-09-26T22:29:58Z</time></trkpt>
      <trkpt lat="31.886689" lon="130.975636"><ele>360.4</ele><time>2026-09-26T22:30:25Z</time></trkpt>
      <trkpt lat="31.885796" lon="130.976635"><ele>357.8</ele><time>2026-09-26T22:30:56Z</time></trkpt>
      <trkpt lat="31.884279" lon="130.977232"><ele>346.8</ele><time>2026-09-26T22:31:23Z</time></trkpt>
      <trkpt lat="31.883860" lon="130.976990"><ele>348.6</ele><time>2026-09-26T22:31:48Z</time></trkpt>
      <trkpt lat="31.883521" lon="130.976570"><ele>350.0</ele><time>2026-09-26T22:32:11Z</time></trkpt>
      <trkpt lat="31.883343" lon="130.976597"><ele>349.4</ele><time>2026-09-26T22:32:21Z</time></trkpt>
      <trkpt lat="31.883329" lon="130.976721"><ele>349.4</ele><time>2026-09-26T22:32:35Z</time></trkpt>
      <trkpt lat="31.883632" lon="130.976807"><ele>349.2</ele><time>2026-09-26T22:32:51Z</time></trkpt>
      <trkpt lat="31.882661" lon="130.976998"><ele>350.2</ele><time>2026-09-26T22:33:23Z</time></trkpt>
      <trkpt lat="31.882251" lon="130.976955"><ele>350.4</ele><time>2026-09-26T22:33:36Z</time></trkpt>
      <trkpt lat="31.882065" lon="130.976854"><ele>350.8</ele><time>2026-09-26T22:33:43Z</time></trkpt>
      <trkpt lat="31.881808" lon="130.976548"><ele>351.2</ele><time>2026-09-26T22:33:55Z</time></trkpt>
      <trkpt lat="31.880874" lon="130.975205"><ele>355.8</ele><time>2026-09-26T22:34:54Z</time></trkpt>
      <trkpt lat="31.880215" lon="130.974447"><ele>360.6</ele><time>2026-09-26T22:35:51Z</time></trkpt>
      <trkpt lat="31.879813" lon="130.974263"><ele>362.6</ele><time>2026-09-26T22:36:20Z</time></trkpt>
      <trkpt lat="31.879214" lon="130.974256"><ele>365.0</ele><time>2026-09-26T22:37:01Z</time></trkpt>
      <trkpt lat="31.878181" lon="130.974476"><ele>367.6</ele><time>2026-09-26T22:37:53Z</time></trkpt>
      <trkpt lat="31.877798" lon="130.974318"><ele>368.4</ele><time>2026-09-26T22:38:12Z</time></trkpt>
      <trkpt lat="31.877113" lon="130.973503"><ele>370.4</ele><time>2026-09-26T22:38:52Z</time></trkpt>
      <trkpt lat="31.876958" lon="130.973080"><ele>371.4</ele><time>2026-09-26T22:39:04Z</time></trkpt>
      <trkpt lat="31.877546" lon="130.971930"><ele>374.2</ele><time>2026-09-26T22:39:44Z</time></trkpt>
      <trkpt lat="31.877596" lon="130.971430"><ele>375.4</ele><time>2026-09-26T22:40:01Z</time></trkpt>
      <trkpt lat="31.876669" lon="130.969000"><ele>379.0</ele><time>2026-09-26T22:41:21Z</time></trkpt>
      <trkpt lat="31.876153" lon="130.968219"><ele>377.6</ele><time>2026-09-26T22:41:34Z</time></trkpt>
      <trkpt lat="31.876103" lon="130.967947"><ele>377.4</ele><time>2026-09-26T22:41:37Z</time></trkpt>
      <trkpt lat="31.876151" lon="130.967691"><ele>377.6</ele><time>2026-09-26T22:41:40Z</time></trkpt>
      <trkpt lat="31.876656" lon="130.966610"><ele>380.4</ele><time>2026-09-26T22:42:01Z</time></trkpt>
      <trkpt lat="31.876831" lon="130.964319"><ele>389.0</ele><time>2026-09-26T22:43:42Z</time></trkpt>
      <trkpt lat="31.876831" lon="130.963232"><ele>392.8</ele><time>2026-09-26T22:44:33Z</time></trkpt>
      <trkpt lat="31.876606" lon="130.962886"><ele>394.4</ele><time>2026-09-26T22:44:52Z</time></trkpt>
      <trkpt lat="31.876322" lon="130.962768"><ele>395.8</ele><time>2026-09-26T22:45:09Z</time></trkpt>
      <trkpt lat="31.874888" lon="130.962902"><ele>402.8</ele><time>2026-09-26T22:46:44Z</time></trkpt>
      <trkpt lat="31.874579" lon="130.962819"><ele>404.6</ele><time>2026-09-26T22:47:10Z</time></trkpt>
      <trkpt lat="31.873836" lon="130.961966"><ele>411.0</ele><time>2026-09-26T22:48:52Z</time></trkpt>
      <trkpt lat="31.873756" lon="130.961710"><ele>412.4</ele><time>2026-09-26T22:49:11Z</time></trkpt>
      <trkpt lat="31.873749" lon="130.961184"><ele>415.0</ele><time>2026-09-26T22:49:42Z</time></trkpt>
      <trkpt lat="31.874745" lon="130.958628"><ele>427.6</ele><time>2026-09-26T22:52:18Z</time></trkpt>
      <trkpt lat="31.874873" lon="130.957992"><ele>430.8</ele><time>2026-09-26T22:52:57Z</time></trkpt>
      <trkpt lat="31.875110" lon="130.955469"><ele>444.2</ele><time>2026-09-26T22:55:33Z</time></trkpt>
      <trkpt lat="31.875081" lon="130.954998"><ele>446.2</ele><time>2026-09-26T22:56:02Z</time></trkpt>
      <trkpt lat="31.874831" lon="130.954504"><ele>448.6</ele><time>2026-09-26T22:56:32Z</time></trkpt>
      <trkpt lat="31.873577" lon="130.952476"><ele>457.6</ele><time>2026-09-26T22:59:33Z</time></trkpt>
      <trkpt lat="31.872472" lon="130.952200"><ele>463.4</ele><time>2026-09-26T23:00:44Z</time></trkpt>
      <trkpt lat="31.872359" lon="130.951961"><ele>464.4</ele><time>2026-09-26T23:00:59Z</time></trkpt>
      <trkpt lat="31.872327" lon="130.951609"><ele>466.0</ele><time>2026-09-26T23:01:19Z</time></trkpt>
      <trkpt lat="31.872407" lon="130.950992"><ele>468.0</ele><time>2026-09-26T23:01:51Z</time></trkpt>
      <trkpt lat="31.872303" lon="130.950499"><ele>470.2</ele><time>2026-09-26T23:02:17Z</time></trkpt>
      <trkpt lat="31.872129" lon="130.950170"><ele>471.8</ele><time>2026-09-26T23:02:38Z</time></trkpt>
      <trkpt lat="31.871194" lon="130.949601"><ele>476.0</ele><time>2026-09-26T23:03:31Z</time></trkpt>
      <trkpt lat="31.870819" lon="130.949218"><ele>477.6</ele><time>2026-09-26T23:03:55Z</time></trkpt>
      <trkpt lat="31.870285" lon="130.949039"><ele>480.0</ele><time>2026-09-26T23:04:29Z</time></trkpt>
      <trkpt lat="31.869898" lon="130.948749"><ele>482.4</ele><time>2026-09-26T23:04:55Z</time></trkpt>
      <trkpt lat="31.869406" lon="130.948784"><ele>485.2</ele><time>2026-09-26T23:05:27Z</time></trkpt>
      <trkpt lat="31.868667" lon="130.949248"><ele>489.8</ele><time>2026-09-26T23:06:23Z</time></trkpt>
      <trkpt lat="31.868546" lon="130.949645"><ele>492.4</ele><time>2026-09-26T23:07:14Z</time></trkpt>
      <trkpt lat="31.868584" lon="130.950500"><ele>496.4</ele><time>2026-09-26T23:09:33Z</time></trkpt>
      <trkpt lat="31.868369" lon="130.950730"><ele>497.2</ele><time>2026-09-26T23:09:54Z</time></trkpt>
      <trkpt lat="31.867437" lon="130.950390"><ele>500.8</ele><time>2026-09-26T23:10:51Z</time></trkpt>
      <trkpt lat="31.866536" lon="130.950328"><ele>504.0</ele><time>2026-09-26T23:11:37Z</time></trkpt>
      <trkpt lat="31.866218" lon="130.950233"><ele>505.4</ele><time>2026-09-26T23:11:53Z</time></trkpt>
      <trkpt lat="31.865498" lon="130.949409"><ele>508.8</ele><time>2026-09-26T23:12:32Z</time></trkpt>
      <trkpt lat="31.865037" lon="130.949161"><ele>511.0</ele><time>2026-09-26T23:12:53Z</time></trkpt>
      <trkpt lat="31.864473" lon="130.949352"><ele>514.0</ele><time>2026-09-26T23:13:27Z</time></trkpt>
      <trkpt lat="31.863985" lon="130.949171"><ele>517.4</ele><time>2026-09-26T23:14:04Z</time></trkpt>
      <trkpt lat="31.863866" lon="130.948840"><ele>518.4</ele><time>2026-09-26T23:14:22Z</time></trkpt>
      <trkpt lat="31.863961" lon="130.947975"><ele>522.0</ele><time>2026-09-26T23:15:33Z</time></trkpt>
      <trkpt lat="31.863795" lon="130.947196"><ele>525.2</ele><time>2026-09-26T23:16:06Z</time></trkpt>
      <trkpt lat="31.863780" lon="130.946735"><ele>526.2</ele><time>2026-09-26T23:16:22Z</time></trkpt>
      <trkpt lat="31.863959" lon="130.945833"><ele>527.6</ele><time>2026-09-26T23:16:55Z</time></trkpt>
      <trkpt lat="31.863957" lon="130.945401"><ele>528.0</ele><time>2026-09-26T23:17:12Z</time></trkpt>
      <trkpt lat="31.864245" lon="130.945468"><ele>528.2</ele><time>2026-09-26T23:17:23Z</time></trkpt>
      <trkpt lat="31.864338" lon="130.945595"><ele>530.2</ele><time>2026-09-26T23:17:52Z</time></trkpt>
      <trkpt lat="31.864357" lon="130.945509"><ele>528.4</ele><time>2026-09-26T23:18:08Z</time></trkpt>
      <trkpt lat="31.864055" lon="130.945357"><ele>528.4</ele><time>2026-09-26T23:18:21Z</time></trkpt>
      <trkpt lat="31.864034" lon="130.945227"><ele>528.4</ele><time>2026-09-26T23:18:25Z</time></trkpt>
      <trkpt lat="31.864290" lon="130.943509"><ele>530.0</ele><time>2026-09-26T23:19:16Z</time></trkpt>
      <trkpt lat="31.864363" lon="130.941519"><ele>531.4</ele><time>2026-09-26T23:20:04Z</time></trkpt>
      <trkpt lat="31.864314" lon="130.940674"><ele>532.2</ele><time>2026-09-26T23:20:25Z</time></trkpt>
      <trkpt lat="31.864105" lon="130.940239"><ele>532.4</ele><time>2026-09-26T23:20:36Z</time></trkpt>
      <trkpt lat="31.863690" lon="130.939846"><ele>533.0</ele><time>2026-09-26T23:20:53Z</time></trkpt>
      <trkpt lat="31.863162" lon="130.939035"><ele>533.6</ele><time>2026-09-26T23:21:16Z</time></trkpt>
      <trkpt lat="31.862582" lon="130.937885"><ele>534.8</ele><time>2026-09-26T23:21:47Z</time></trkpt>
      <trkpt lat="31.862045" lon="130.937472"><ele>535.6</ele><time>2026-09-26T23:22:08Z</time></trkpt>
      <trkpt lat="31.861306" lon="130.936653"><ele>531.8</ele><time>2026-09-26T23:22:24Z</time></trkpt>
      <trkpt lat="31.860153" lon="130.935906"><ele>523.6</ele><time>2026-09-26T23:22:36Z</time></trkpt>
      <trkpt lat="31.859718" lon="130.935498"><ele>520.8</ele><time>2026-09-26T23:22:41Z</time></trkpt>
      <trkpt lat="31.859570" lon="130.935275"><ele>519.6</ele><time>2026-09-26T23:22:43Z</time></trkpt>
      <trkpt lat="31.859180" lon="130.933978"><ele>511.8</ele><time>2026-09-26T23:22:53Z</time></trkpt>
      <trkpt lat="31.859033" lon="130.933761"><ele>510.2</ele><time>2026-09-26T23:22:55Z</time></trkpt>
      <trkpt lat="31.858748" lon="130.933608"><ele>508.0</ele><time>2026-09-26T23:22:58Z</time></trkpt>
      <trkpt lat="31.858349" lon="130.933643"><ele>506.2</ele><time>2026-09-26T23:23:02Z</time></trkpt>
      <trkpt lat="31.858021" lon="130.934214"><ele>504.0</ele><time>2026-09-26T23:23:08Z</time></trkpt>
      <trkpt lat="31.857724" lon="130.934567"><ele>502.8</ele><time>2026-09-26T23:23:13Z</time></trkpt>
      <trkpt lat="31.857296" lon="130.934665"><ele>501.8</ele><time>2026-09-26T23:23:18Z</time></trkpt>
      <trkpt lat="31.856683" lon="130.934642"><ele>500.8</ele><time>2026-09-26T23:23:26Z</time></trkpt>
      <trkpt lat="31.856292" lon="130.934175"><ele>500.6</ele><time>2026-09-26T23:23:33Z</time></trkpt>
      <trkpt lat="31.856133" lon="130.933599"><ele>500.4</ele><time>2026-09-26T23:23:39Z</time></trkpt>
      <trkpt lat="31.856111" lon="130.932875"><ele>499.4</ele><time>2026-09-26T23:23:47Z</time></trkpt>
      <trkpt lat="31.856265" lon="130.932079"><ele>498.8</ele><time>2026-09-26T23:23:57Z</time></trkpt>
      <trkpt lat="31.856549" lon="130.931377"><ele>498.4</ele><time>2026-09-26T23:24:08Z</time></trkpt>
      <trkpt lat="31.856603" lon="130.931048"><ele>498.4</ele><time>2026-09-26T23:24:13Z</time></trkpt>
      <trkpt lat="31.855826" lon="130.928193"><ele>498.6</ele><time>2026-09-26T23:25:02Z</time></trkpt>
      <trkpt lat="31.855657" lon="130.927972"><ele>498.6</ele><time>2026-09-26T23:25:07Z</time></trkpt>
      <trkpt lat="31.853743" lon="130.927302"><ele>495.8</ele><time>2026-09-26T23:25:37Z</time></trkpt>
      <trkpt lat="31.853253" lon="130.927260"><ele>495.0</ele><time>2026-09-26T23:25:43Z</time></trkpt>
      <trkpt lat="31.851471" lon="130.927419"><ele>492.6</ele><time>2026-09-26T23:26:10Z</time></trkpt>
      <trkpt lat="31.851173" lon="130.927270"><ele>493.0</ele><time>2026-09-26T23:26:16Z</time></trkpt>
      <trkpt lat="31.850517" lon="130.926363"><ele>493.8</ele><time>2026-09-26T23:26:33Z</time></trkpt>
      <trkpt lat="31.850159" lon="130.926244"><ele>494.2</ele><time>2026-09-26T23:26:41Z</time></trkpt>
      <trkpt lat="31.849383" lon="130.926175"><ele>495.0</ele><time>2026-09-26T23:27:02Z</time></trkpt>
      <trkpt lat="31.849260" lon="130.926011"><ele>495.4</ele><time>2026-09-26T23:27:07Z</time></trkpt>
      <trkpt lat="31.849220" lon="130.925750"><ele>495.6</ele><time>2026-09-26T23:27:13Z</time></trkpt>
      <trkpt lat="31.849367" lon="130.923861"><ele>494.4</ele><time>2026-09-26T23:27:52Z</time></trkpt>
      <trkpt lat="31.849518" lon="130.923525"><ele>494.4</ele><time>2026-09-26T23:28:00Z</time></trkpt>
      <trkpt lat="31.850017" lon="130.923185"><ele>493.8</ele><time>2026-09-26T23:28:12Z</time></trkpt>
      <trkpt lat="31.850181" lon="130.922952"><ele>494.4</ele><time>2026-09-26T23:28:17Z</time></trkpt>
      <trkpt lat="31.850303" lon="130.921976"><ele>494.4</ele><time>2026-09-26T23:28:35Z</time></trkpt>
      <trkpt lat="31.850389" lon="130.920847"><ele>493.4</ele><time>2026-09-26T23:28:54Z</time></trkpt>
      <trkpt lat="31.850344" lon="130.920423"><ele>493.6</ele><time>2026-09-26T23:29:01Z</time></trkpt>
      <trkpt lat="31.849902" lon="130.919662"><ele>495.4</ele><time>2026-09-26T23:29:21Z</time></trkpt>
      <trkpt lat="31.849819" lon="130.919449"><ele>496.2</ele><time>2026-09-26T23:29:29Z</time></trkpt>
      <trkpt lat="31.849833" lon="130.919249"><ele>496.2</ele><time>2026-09-26T23:29:36Z</time></trkpt>
      <trkpt lat="31.850135" lon="130.918919"><ele>497.4</ele><time>2026-09-26T23:29:52Z</time></trkpt>
      <trkpt lat="31.850840" lon="130.918743"><ele>499.2</ele><time>2026-09-26T23:30:33Z</time></trkpt>
      <trkpt lat="31.850926" lon="130.918645"><ele>500.2</ele><time>2026-09-26T23:31:03Z</time></trkpt>
      <trkpt lat="31.850862" lon="130.918593"><ele>500.4</ele><time>2026-09-26T23:31:20Z</time></trkpt>
      <trkpt lat="31.851052" lon="130.918676"><ele>499.6</ele><time>2026-09-26T23:32:22Z</time></trkpt>
      <trkpt lat="31.851450" lon="130.918588"><ele>501.0</ele><time>2026-09-26T23:32:41Z</time></trkpt>
      <trkpt lat="31.851704" lon="130.918439"><ele>501.6</ele><time>2026-09-26T23:32:53Z</time></trkpt>
      <trkpt lat="31.851827" lon="130.918253"><ele>502.6</ele><time>2026-09-26T23:33:01Z</time></trkpt>
      <trkpt lat="31.851812" lon="130.917085"><ele>508.8</ele><time>2026-09-26T23:33:51Z</time></trkpt>
      <trkpt lat="31.851687" lon="130.916108"><ele>508.2</ele><time>2026-09-26T23:34:24Z</time></trkpt>
      <trkpt lat="31.852038" lon="130.915110"><ele>504.6</ele><time>2026-09-26T23:34:38Z</time></trkpt>
      <trkpt lat="31.852047" lon="130.914537"><ele>502.2</ele><time>2026-09-26T23:34:43Z</time></trkpt>
      <trkpt lat="31.851299" lon="130.913548"><ele>498.2</ele><time>2026-09-26T23:34:56Z</time></trkpt>
      <trkpt lat="31.851255" lon="130.913368"><ele>497.8</ele><time>2026-09-26T23:34:58Z</time></trkpt>
      <trkpt lat="31.851557" lon="130.912767"><ele>494.2</ele><time>2026-09-26T23:35:06Z</time></trkpt>
      <trkpt lat="31.852032" lon="130.912212"><ele>491.0</ele><time>2026-09-26T23:35:12Z</time></trkpt>
      <trkpt lat="31.852231" lon="130.911029"><ele>487.6</ele><time>2026-09-26T23:35:22Z</time></trkpt>
      <trkpt lat="31.852146" lon="130.910873"><ele>487.0</ele><time>2026-09-26T23:35:24Z</time></trkpt>
      <trkpt lat="31.851262" lon="130.910676"><ele>484.4</ele><time>2026-09-26T23:35:33Z</time></trkpt>
      <trkpt lat="31.850829" lon="130.910411"><ele>483.0</ele><time>2026-09-26T23:35:39Z</time></trkpt>
      <trkpt lat="31.850659" lon="130.909965"><ele>481.8</ele><time>2026-09-26T23:35:43Z</time></trkpt>
      <trkpt lat="31.850529" lon="130.908965"><ele>479.6</ele><time>2026-09-26T23:35:51Z</time></trkpt>
      <trkpt lat="31.850419" lon="130.908699"><ele>478.2</ele><time>2026-09-26T23:35:54Z</time></trkpt>
      <trkpt lat="31.850220" lon="130.908472"><ele>476.8</ele><time>2026-09-26T23:35:57Z</time></trkpt>
      <trkpt lat="31.848855" lon="130.908021"><ele>473.2</ele><time>2026-09-26T23:36:14Z</time></trkpt>
      <trkpt lat="31.848542" lon="130.908089"><ele>472.8</ele><time>2026-09-26T23:36:17Z</time></trkpt>
      <trkpt lat="31.848090" lon="130.908037"><ele>472.6</ele><time>2026-09-26T23:36:22Z</time></trkpt>
      <trkpt lat="31.847654" lon="130.907733"><ele>471.8</ele><time>2026-09-26T23:36:28Z</time></trkpt>
      <trkpt lat="31.847825" lon="130.907135"><ele>470.2</ele><time>2026-09-26T23:36:33Z</time></trkpt>
      <trkpt lat="31.848220" lon="130.906607"><ele>467.0</ele><time>2026-09-26T23:36:38Z</time></trkpt>
      <trkpt lat="31.848485" lon="130.906561"><ele>465.8</ele><time>2026-09-26T23:36:40Z</time></trkpt>
      <trkpt lat="31.848993" lon="130.906285"><ele>462.6</ele><time>2026-09-26T23:36:45Z</time></trkpt>
      <trkpt lat="31.849214" lon="130.905984"><ele>461.0</ele><time>2026-09-26T23:36:48Z</time></trkpt>
      <trkpt lat="31.849286" lon="130.905471"><ele>461.0</ele><time>2026-09-26T23:36:53Z</time></trkpt>
      <trkpt lat="31.849803" lon="130.903947"><ele>454.0</ele><time>2026-09-26T23:37:08Z</time></trkpt>
      <trkpt lat="31.849693" lon="130.903697"><ele>452.8</ele><time>2026-09-26T23:37:11Z</time></trkpt>
      <trkpt lat="31.848950" lon="130.902764"><ele>450.6</ele><time>2026-09-26T23:37:24Z</time></trkpt>
      <trkpt lat="31.848437" lon="130.901541"><ele>448.0</ele><time>2026-09-26T23:37:38Z</time></trkpt>
      <trkpt lat="31.848145" lon="130.901285"><ele>446.4</ele><time>2026-09-26T23:37:42Z</time></trkpt>
      <trkpt lat="31.847523" lon="130.900979"><ele>444.2</ele><time>2026-09-26T23:37:50Z</time></trkpt>
      <trkpt lat="31.847352" lon="130.900733"><ele>442.6</ele><time>2026-09-26T23:37:53Z</time></trkpt>
      <trkpt lat="31.847290" lon="130.900534"><ele>442.0</ele><time>2026-09-26T23:37:55Z</time></trkpt>
      <trkpt lat="31.847329" lon="130.899697"><ele>439.2</ele><time>2026-09-26T23:38:03Z</time></trkpt>
      <trkpt lat="31.847622" lon="130.898336"><ele>433.6</ele><time>2026-09-26T23:38:16Z</time></trkpt>
      <trkpt lat="31.847436" lon="130.898016"><ele>432.0</ele><time>2026-09-26T23:38:24Z</time></trkpt>
      <trkpt lat="31.847468" lon="130.897798"><ele>432.2</ele><time>2026-09-26T23:38:28Z</time></trkpt>
      <trkpt lat="31.848809" lon="130.896027"><ele>434.6</ele><time>2026-09-26T23:39:17Z</time></trkpt>
      <trkpt lat="31.849743" lon="130.895479"><ele>439.6</ele><time>2026-09-26T23:41:16Z</time></trkpt>
      <trkpt lat="31.849952" lon="130.895234"><ele>440.8</ele><time>2026-09-26T23:41:35Z</time></trkpt>
      <trkpt lat="31.850001" lon="130.894154"><ele>445.6</ele><time>2026-09-26T23:42:27Z</time></trkpt>
      <trkpt lat="31.850126" lon="130.893585"><ele>447.2</ele><time>2026-09-26T23:42:56Z</time></trkpt>
      <trkpt lat="31.850592" lon="130.892659"><ele>451.8</ele><time>2026-09-26T23:43:58Z</time></trkpt>
      <trkpt lat="31.850621" lon="130.892783"><ele>451.6</ele><time>2026-09-26T23:44:18Z</time></trkpt>
      <trkpt lat="31.850555" lon="130.892568"><ele>452.2</ele><time>2026-09-26T23:45:16Z</time></trkpt>
      <trkpt lat="31.850588" lon="130.892633"><ele>452.2</ele><time>2026-09-26T23:45:40Z</time></trkpt>
      <trkpt lat="31.850766" lon="130.892302"><ele>453.4</ele><time>2026-09-26T23:46:08Z</time></trkpt>
      <trkpt lat="31.850998" lon="130.891626"><ele>457.6</ele><time>2026-09-26T23:46:49Z</time></trkpt>
      <trkpt lat="31.851127" lon="130.890139"><ele>466.4</ele><time>2026-09-26T23:48:23Z</time></trkpt>
      <trkpt lat="31.850997" lon="130.889267"><ele>470.6</ele><time>2026-09-26T23:49:11Z</time></trkpt>
      <trkpt lat="31.851063" lon="130.888899"><ele>471.0</ele><time>2026-09-26T23:49:22Z</time></trkpt>
      <trkpt lat="31.851248" lon="130.888859"><ele>471.8</ele><time>2026-09-26T23:49:45Z</time></trkpt>
      <trkpt lat="31.851116" lon="130.888884"><ele>471.0</ele><time>2026-09-26T23:50:02Z</time></trkpt>
      <trkpt lat="31.850955" lon="130.889263"><ele>470.6</ele><time>2026-09-26T23:50:12Z</time></trkpt>
      <trkpt lat="31.850850" lon="130.889248"><ele>470.4</ele><time>2026-09-26T23:50:14Z</time></trkpt>
      <trkpt lat="31.848429" lon="130.888065"><ele>479.6</ele><time>2026-09-26T23:52:29Z</time></trkpt>
      <trkpt lat="31.846793" lon="130.885449"><ele>480.2</ele><time>2026-09-26T23:54:05Z</time></trkpt>
      <trkpt lat="31.845662" lon="130.884356"><ele>481.8</ele><time>2026-09-26T23:54:58Z</time></trkpt>
      <trkpt lat="31.845565" lon="130.883364"><ele>481.2</ele><time>2026-09-26T23:55:17Z</time></trkpt>
      <trkpt lat="31.845260" lon="130.882653"><ele>482.4</ele><time>2026-09-26T23:55:35Z</time></trkpt>
      <trkpt lat="31.844877" lon="130.881428"><ele>481.8</ele><time>2026-09-26T23:56:21Z</time></trkpt>
      <trkpt lat="31.845017" lon="130.878897"><ele>477.4</ele><time>2026-09-26T23:57:17Z</time></trkpt>
      <trkpt lat="31.844626" lon="130.877402"><ele>476.6</ele><time>2026-09-26T23:57:51Z</time></trkpt>
      <trkpt lat="31.844350" lon="130.877494"><ele>475.8</ele><time>2026-09-26T23:57:57Z</time></trkpt>
      <trkpt lat="31.842988" lon="130.877516"><ele>478.0</ele><time>2026-09-26T23:58:19Z</time></trkpt>
      <trkpt lat="31.842454" lon="130.877363"><ele>481.6</ele><time>2026-09-26T23:59:18Z</time></trkpt>
      <trkpt lat="31.842500" lon="130.877327"><ele>481.4</ele><time>2026-09-26T23:59:42Z</time></trkpt>
      <trkpt lat="31.842450" lon="130.877300"><ele>482.4</ele><time>2026-09-27T00:00:15Z</time></trkpt>
      <trkpt lat="31.842548" lon="130.877439"><ele>482.6</ele><time>2026-09-27T00:00:43Z</time></trkpt>
      <trkpt lat="31.842247" lon="130.876978"><ele>484.8</ele><time>2026-09-27T00:03:10Z</time></trkpt>
      <trkpt lat="31.841909" lon="130.876865"><ele>486.8</ele><time>2026-09-27T00:03:45Z</time></trkpt>
      <trkpt lat="31.841663" lon="130.876888"><ele>490.4</ele><time>2026-09-27T00:04:46Z</time></trkpt>
      <trkpt lat="31.841550" lon="130.876698"><ele>493.0</ele><time>2026-09-27T00:05:28Z</time></trkpt>
      <trkpt lat="31.841515" lon="130.876902"><ele>493.4</ele><time>2026-09-27T00:05:52Z</time></trkpt>
      <trkpt lat="31.841345" lon="130.876917"><ele>492.6</ele><time>2026-09-27T00:06:48Z</time></trkpt>
      <trkpt lat="31.841462" lon="130.876901"><ele>492.6</ele><time>2026-09-27T00:08:16Z</time></trkpt>
      <trkpt lat="31.841365" lon="130.876810"><ele>492.6</ele><time>2026-09-27T00:08:32Z</time></trkpt>
      <trkpt lat="31.841415" lon="130.876894"><ele>492.6</ele><time>2026-09-27T00:09:20Z</time></trkpt>
      <trkpt lat="31.841423" lon="130.876814"><ele>495.0</ele><time>2026-09-27T00:10:44Z</time></trkpt>
      <trkpt lat="31.841371" lon="130.876868"><ele>495.6</ele><time>2026-09-27T00:11:16Z</time></trkpt>
      <trkpt lat="31.841457" lon="130.876894"><ele>494.6</ele><time>2026-09-27T00:12:07Z</time></trkpt>
      <trkpt lat="31.841400" lon="130.876907"><ele>494.6</ele><time>2026-09-27T00:12:52Z</time></trkpt>
      <trkpt lat="31.841539" lon="130.877141"><ele>494.4</ele><time>2026-09-27T00:13:32Z</time></trkpt>
      <trkpt lat="31.841498" lon="130.877165"><ele>494.4</ele><time>2026-09-27T00:13:37Z</time></trkpt>
      <trkpt lat="31.841383" lon="130.876879"><ele>494.4</ele><time>2026-09-27T00:13:53Z</time></trkpt>
      <trkpt lat="31.841293" lon="130.876905"><ele>494.4</ele><time>2026-09-27T00:15:43Z</time></trkpt>
      <trkpt lat="31.841347" lon="130.876804"><ele>494.4</ele><time>2026-09-27T00:16:02Z</time></trkpt>
      <trkpt lat="31.841417" lon="130.876920"><ele>494.4</ele><time>2026-09-27T00:16:43Z</time></trkpt>
      <trkpt lat="31.841351" lon="130.876876"><ele>494.4</ele><time>2026-09-27T00:17:01Z</time></trkpt>
      <trkpt lat="31.841456" lon="130.876813"><ele>494.4</ele><time>2026-09-27T00:18:18Z</time></trkpt>
      <trkpt lat="31.841351" lon="130.876772"><ele>495.2</ele><time>2026-09-27T00:18:39Z</time></trkpt>
      <trkpt lat="31.841333" lon="130.876875"><ele>494.8</ele><time>2026-09-27T00:19:32Z</time></trkpt>
      <trkpt lat="31.841463" lon="130.877152"><ele>493.4</ele><time>2026-09-27T00:20:43Z</time></trkpt>
      <trkpt lat="31.841471" lon="130.877399"><ele>495.2</ele><time>2026-09-27T00:21:06Z</time></trkpt>
      <trkpt lat="31.841303" lon="130.877255"><ele>493.6</ele><time>2026-09-27T00:21:44Z</time></trkpt>
      <trkpt lat="31.841134" lon="130.877313"><ele>493.6</ele><time>2026-09-27T00:22:06Z</time></trkpt>
      <trkpt lat="31.841162" lon="130.877229"><ele>493.4</ele><time>2026-09-27T00:22:18Z</time></trkpt>
      <trkpt lat="31.841187" lon="130.877352"><ele>493.4</ele><time>2026-09-27T00:22:46Z</time></trkpt>
      <trkpt lat="31.841089" lon="130.877336"><ele>493.8</ele><time>2026-09-27T00:23:04Z</time></trkpt>
      <trkpt lat="31.840834" lon="130.877666"><ele>493.2</ele><time>2026-09-27T00:23:52Z</time></trkpt>
      <trkpt lat="31.841317" lon="130.877196"><ele>493.6</ele><time>2026-09-27T00:25:22Z</time></trkpt>
      <trkpt lat="31.841299" lon="130.877100"><ele>493.4</ele><time>2026-09-27T00:25:33Z</time></trkpt>
      <trkpt lat="31.841329" lon="130.877164"><ele>493.0</ele><time>2026-09-27T00:25:49Z</time></trkpt>
      <trkpt lat="31.841101" lon="130.877253"><ele>493.4</ele><time>2026-09-27T00:26:16Z</time></trkpt>
      <trkpt lat="31.841227" lon="130.877365"><ele>493.6</ele><time>2026-09-27T00:26:45Z</time></trkpt>
      <trkpt lat="31.841205" lon="130.877302"><ele>493.6</ele><time>2026-09-27T00:27:14Z</time></trkpt>
      <trkpt lat="31.841366" lon="130.877342"><ele>493.6</ele><time>2026-09-27T00:27:45Z</time></trkpt>
      <trkpt lat="31.841259" lon="130.877451"><ele>493.6</ele><time>2026-09-27T00:28:05Z</time></trkpt>
      <trkpt lat="31.841145" lon="130.877436"><ele>493.0</ele><time>2026-09-27T00:29:06Z</time></trkpt>
      <trkpt lat="31.841300" lon="130.877540"><ele>492.6</ele><time>2026-09-27T00:29:23Z</time></trkpt>
      <trkpt lat="31.841213" lon="130.877279"><ele>493.0</ele><time>2026-09-27T00:29:48Z</time></trkpt>
      <trkpt lat="31.840896" lon="130.877507"><ele>492.6</ele><time>2026-09-27T00:30:25Z</time></trkpt>
      <trkpt lat="31.840922" lon="130.877630"><ele>493.0</ele><time>2026-09-27T00:30:51Z</time></trkpt>
      <trkpt lat="31.841233" lon="130.877377"><ele>493.0</ele><time>2026-09-27T00:31:34Z</time></trkpt>
      <trkpt lat="31.841396" lon="130.877502"><ele>493.0</ele><time>2026-09-27T00:31:48Z</time></trkpt>
      <trkpt lat="31.841236" lon="130.877536"><ele>492.8</ele><time>2026-09-27T00:32:38Z</time></trkpt>
      <trkpt lat="31.841291" lon="130.877584"><ele>492.8</ele><time>2026-09-27T00:32:52Z</time></trkpt>
      <trkpt lat="31.841248" lon="130.877512"><ele>492.6</ele><time>2026-09-27T00:33:07Z</time></trkpt>
      <trkpt lat="31.841310" lon="130.877504"><ele>492.6</ele><time>2026-09-27T00:33:19Z</time></trkpt>
      <trkpt lat="31.841216" lon="130.877538"><ele>492.4</ele><time>2026-09-27T00:33:41Z</time></trkpt>
      <trkpt lat="31.841384" lon="130.877670"><ele>494.0</ele><time>2026-09-27T00:37:11Z</time></trkpt>
      <trkpt lat="31.841271" lon="130.877556"><ele>494.2</ele><time>2026-09-27T00:37:45Z</time></trkpt>
      <trkpt lat="31.841315" lon="130.877599"><ele>494.2</ele><time>2026-09-27T00:37:52Z</time></trkpt>
      <trkpt lat="31.841317" lon="130.877476"><ele>494.2</ele><time>2026-09-27T00:38:17Z</time></trkpt>
      <trkpt lat="31.841383" lon="130.877608"><ele>494.2</ele><time>2026-09-27T00:39:13Z</time></trkpt>
      <trkpt lat="31.841304" lon="130.877665"><ele>494.2</ele><time>2026-09-27T00:41:21Z</time></trkpt>
      <trkpt lat="31.841287" lon="130.877584"><ele>494.2</ele><time>2026-09-27T00:41:53Z</time></trkpt>
      <trkpt lat="31.841393" lon="130.877663"><ele>494.2</ele><time>2026-09-27T00:43:07Z</time></trkpt>
      <trkpt lat="31.841234" lon="130.877521"><ele>494.2</ele><time>2026-09-27T00:43:49Z</time></trkpt>
      <trkpt lat="31.841278" lon="130.877649"><ele>494.2</ele><time>2026-09-27T00:44:34Z</time></trkpt>
      <trkpt lat="31.841335" lon="130.877562"><ele>494.2</ele><time>2026-09-27T00:45:00Z</time></trkpt>
      <trkpt lat="31.841270" lon="130.877559"><ele>494.2</ele><time>2026-09-27T00:45:37Z</time></trkpt>
      <trkpt lat="31.841340" lon="130.877635"><ele>494.2</ele><time>2026-09-27T00:46:38Z</time></trkpt>
      <trkpt lat="31.841289" lon="130.877583"><ele>494.2</ele><time>2026-09-27T00:47:07Z</time></trkpt>
      <trkpt lat="31.841345" lon="130.877619"><ele>494.2</ele><time>2026-09-27T00:47:24Z</time></trkpt>
      <trkpt lat="31.841366" lon="130.877542"><ele>494.2</ele><time>2026-09-27T00:47:33Z</time></trkpt>
      <trkpt lat="31.841263" lon="130.877623"><ele>494.4</ele><time>2026-09-27T00:48:23Z</time></trkpt>
      <trkpt lat="31.841285" lon="130.877519"><ele>494.2</ele><time>2026-09-27T00:48:33Z</time></trkpt>
      <trkpt lat="31.841352" lon="130.877567"><ele>494.6</ele><time>2026-09-27T00:49:08Z</time></trkpt>
      <trkpt lat="31.841236" lon="130.877501"><ele>494.2</ele><time>2026-09-27T00:49:41Z</time></trkpt>
      <trkpt lat="31.841325" lon="130.877552"><ele>494.2</ele><time>2026-09-27T00:50:10Z</time></trkpt>
      <trkpt lat="31.841276" lon="130.877627"><ele>494.2</ele><time>2026-09-27T00:51:01Z</time></trkpt>
      <trkpt lat="31.841337" lon="130.877667"><ele>494.2</ele><time>2026-09-27T00:51:23Z</time></trkpt>
      <trkpt lat="31.841280" lon="130.877674"><ele>494.2</ele><time>2026-09-27T00:51:39Z</time></trkpt>
      <trkpt lat="31.841365" lon="130.877736"><ele>494.2</ele><time>2026-09-27T00:52:23Z</time></trkpt>
      <trkpt lat="31.841318" lon="130.877588"><ele>494.2</ele><time>2026-09-27T00:53:31Z</time></trkpt>
      <trkpt lat="31.841333" lon="130.877649"><ele>494.2</ele><time>2026-09-27T00:54:18Z</time></trkpt>
      <trkpt lat="31.841233" lon="130.877586"><ele>494.2</ele><time>2026-09-27T00:54:44Z</time></trkpt>
      <trkpt lat="31.841234" lon="130.877663"><ele>494.2</ele><time>2026-09-27T00:55:02Z</time></trkpt>
      <trkpt lat="31.841205" lon="130.877573"><ele>494.2</ele><time>2026-09-27T00:55:27Z</time></trkpt>
      <trkpt lat="31.841385" lon="130.877726"><ele>494.2</ele><time>2026-09-27T00:55:56Z</time></trkpt>
      <trkpt lat="31.841313" lon="130.877616"><ele>494.2</ele><time>2026-09-27T00:56:40Z</time></trkpt>
      <trkpt lat="31.841223" lon="130.877621"><ele>494.6</ele><time>2026-09-27T00:57:14Z</time></trkpt>
      <trkpt lat="31.841326" lon="130.877544"><ele>494.4</ele><time>2026-09-27T00:57:34Z</time></trkpt>
      <trkpt lat="31.841322" lon="130.877452"><ele>494.6</ele><time>2026-09-27T00:57:51Z</time></trkpt>
      <trkpt lat="31.841191" lon="130.877417"><ele>494.4</ele><time>2026-09-27T00:58:28Z</time></trkpt>
      <trkpt lat="31.841406" lon="130.877484"><ele>495.0</ele><time>2026-09-27T00:59:41Z</time></trkpt>
      <trkpt lat="31.841255" lon="130.877433"><ele>494.4</ele><time>2026-09-27T01:00:04Z</time></trkpt>
      <trkpt lat="31.841371" lon="130.877541"><ele>495.6</ele><time>2026-09-27T01:00:56Z</time></trkpt>
      <trkpt lat="31.841317" lon="130.877515"><ele>495.4</ele><time>2026-09-27T01:01:15Z</time></trkpt>
      <trkpt lat="31.841299" lon="130.877642"><ele>495.4</ele><time>2026-09-27T01:01:46Z</time></trkpt>
      <trkpt lat="31.841419" lon="130.877421"><ele>495.4</ele><time>2026-09-27T01:02:52Z</time></trkpt>
      <trkpt lat="31.841417" lon="130.877107"><ele>495.2</ele><time>2026-09-27T01:03:27Z</time></trkpt>
      <trkpt lat="31.841473" lon="130.877033"><ele>495.0</ele><time>2026-09-27T01:03:45Z</time></trkpt>
      <trkpt lat="31.841903" lon="130.876866"><ele>490.0</ele><time>2026-09-27T01:04:44Z</time></trkpt>
      <trkpt lat="31.842273" lon="130.877049"><ele>485.6</ele><time>2026-09-27T01:05:31Z</time></trkpt>
      <trkpt lat="31.842470" lon="130.877335"><ele>483.0</ele><time>2026-09-27T01:06:08Z</time></trkpt>
      <trkpt lat="31.842514" lon="130.877228"><ele>484.2</ele><time>2026-09-27T01:06:55Z</time></trkpt>
      <trkpt lat="31.842423" lon="130.877329"><ele>483.0</ele><time>2026-09-27T01:09:38Z</time></trkpt>
      <trkpt lat="31.842720" lon="130.877498"><ele>481.4</ele><time>2026-09-27T01:11:36Z</time></trkpt>
      <trkpt lat="31.844292" lon="130.877489"><ele>474.4</ele><time>2026-09-27T01:13:13Z</time></trkpt>
      <trkpt lat="31.844638" lon="130.877373"><ele>475.8</ele><time>2026-09-27T01:13:24Z</time></trkpt>
      <trkpt lat="31.843986" lon="130.874989"><ele>479.4</ele><time>2026-09-27T01:14:34Z</time></trkpt>
      <trkpt lat="31.843789" lon="130.873901"><ele>484.4</ele><time>2026-09-27T01:15:31Z</time></trkpt>
      <trkpt lat="31.843630" lon="130.872870"><ele>489.0</ele><time>2026-09-27T01:16:24Z</time></trkpt>
      <trkpt lat="31.843646" lon="130.871635"><ele>491.8</ele><time>2026-09-27T01:17:12Z</time></trkpt>
      <trkpt lat="31.843466" lon="130.871117"><ele>493.2</ele><time>2026-09-27T01:17:31Z</time></trkpt>
      <trkpt lat="31.843102" lon="130.870630"><ele>492.0</ele><time>2026-09-27T01:17:47Z</time></trkpt>
      <trkpt lat="31.842392" lon="130.870047"><ele>490.2</ele><time>2026-09-27T01:18:05Z</time></trkpt>
      <trkpt lat="31.841163" lon="130.870373"><ele>484.8</ele><time>2026-09-27T01:18:22Z</time></trkpt>
      <trkpt lat="31.840717" lon="130.870223"><ele>481.2</ele><time>2026-09-27T01:18:27Z</time></trkpt>
      <trkpt lat="31.840486" lon="130.870023"><ele>479.2</ele><time>2026-09-27T01:18:30Z</time></trkpt>
      <trkpt lat="31.840243" lon="130.869556"><ele>476.0</ele><time>2026-09-27T01:18:35Z</time></trkpt>
      <trkpt lat="31.840320" lon="130.869173"><ele>473.4</ele><time>2026-09-27T01:18:38Z</time></trkpt>
      <trkpt lat="31.840524" lon="130.868767"><ele>470.8</ele><time>2026-09-27T01:18:42Z</time></trkpt>
      <trkpt lat="31.840587" lon="130.868080"><ele>466.0</ele><time>2026-09-27T01:18:48Z</time></trkpt>
      <trkpt lat="31.840516" lon="130.867753"><ele>463.2</ele><time>2026-09-27T01:18:51Z</time></trkpt>
      <trkpt lat="31.838242" lon="130.865697"><ele>459.6</ele><time>2026-09-27T01:19:28Z</time></trkpt>
      <trkpt lat="31.837317" lon="130.865351"><ele>460.0</ele><time>2026-09-27T01:19:44Z</time></trkpt>
      <trkpt lat="31.836932" lon="130.865327"><ele>460.2</ele><time>2026-09-27T01:19:51Z</time></trkpt>
      <trkpt lat="31.835475" lon="130.865496"><ele>460.2</ele><time>2026-09-27T01:20:17Z</time></trkpt>
      <trkpt lat="31.834821" lon="130.865350"><ele>462.8</ele><time>2026-09-27T01:20:33Z</time></trkpt>
      <trkpt lat="31.833640" lon="130.864211"><ele>457.2</ele><time>2026-09-27T01:20:57Z</time></trkpt>
      <trkpt lat="31.833130" lon="130.863011"><ele>450.0</ele><time>2026-09-27T01:21:14Z</time></trkpt>
      <trkpt lat="31.832594" lon="130.862653"><ele>447.4</ele><time>2026-09-27T01:21:21Z</time></trkpt>
      <trkpt lat="31.832102" lon="130.862656"><ele>444.8</ele><time>2026-09-27T01:21:26Z</time></trkpt>
      <trkpt lat="31.831717" lon="130.863325"><ele>442.2</ele><time>2026-09-27T01:21:33Z</time></trkpt>
      <trkpt lat="31.831696" lon="130.863581"><ele>441.8</ele><time>2026-09-27T01:21:35Z</time></trkpt>
      <trkpt lat="31.831471" lon="130.864183"><ele>440.8</ele><time>2026-09-27T01:21:41Z</time></trkpt>
      <trkpt lat="31.831154" lon="130.864413"><ele>440.0</ele><time>2026-09-27T01:21:45Z</time></trkpt>
      <trkpt lat="31.830912" lon="130.864485"><ele>438.6</ele><time>2026-09-27T01:21:48Z</time></trkpt>
      <trkpt lat="31.830730" lon="130.864440"><ele>437.6</ele><time>2026-09-27T01:21:50Z</time></trkpt>
      <trkpt lat="31.830489" lon="130.864226"><ele>435.4</ele><time>2026-09-27T01:21:53Z</time></trkpt>
      <trkpt lat="31.830486" lon="130.863168"><ele>430.8</ele><time>2026-09-27T01:22:00Z</time></trkpt>
      <trkpt lat="31.830598" lon="130.862007"><ele>421.0</ele><time>2026-09-27T01:22:09Z</time></trkpt>
      <trkpt lat="31.830517" lon="130.861628"><ele>417.6</ele><time>2026-09-27T01:22:12Z</time></trkpt>
      <trkpt lat="31.830316" lon="130.861298"><ele>413.8</ele><time>2026-09-27T01:22:15Z</time></trkpt>
      <trkpt lat="31.830018" lon="130.861076"><ele>409.0</ele><time>2026-09-27T01:22:19Z</time></trkpt>
      <trkpt lat="31.829624" lon="130.861029"><ele>405.2</ele><time>2026-09-27T01:22:22Z</time></trkpt>
      <trkpt lat="31.827601" lon="130.861015"><ele>384.4</ele><time>2026-09-27T01:22:36Z</time></trkpt>
      <trkpt lat="31.827234" lon="130.860755"><ele>381.6</ele><time>2026-09-27T01:22:40Z</time></trkpt>
      <trkpt lat="31.826952" lon="130.860297"><ele>376.8</ele><time>2026-09-27T01:22:44Z</time></trkpt>
      <trkpt lat="31.825274" lon="130.856462"><ele>344.0</ele><time>2026-09-27T01:23:12Z</time></trkpt>
      <trkpt lat="31.824313" lon="130.855087"><ele>334.2</ele><time>2026-09-27T01:23:23Z</time></trkpt>
      <trkpt lat="31.823897" lon="130.854188"><ele>327.8</ele><time>2026-09-27T01:23:30Z</time></trkpt>
      <trkpt lat="31.823740" lon="130.853585"><ele>322.8</ele><time>2026-09-27T01:23:35Z</time></trkpt>
      <trkpt lat="31.823204" lon="130.852833"><ele>317.6</ele><time>2026-09-27T01:23:42Z</time></trkpt>
      <trkpt lat="31.822684" lon="130.851765"><ele>311.6</ele><time>2026-09-27T01:23:50Z</time></trkpt>
      <trkpt lat="31.822754" lon="130.850785"><ele>310.0</ele><time>2026-09-27T01:23:56Z</time></trkpt>
      <trkpt lat="31.823288" lon="130.848816"><ele>301.4</ele><time>2026-09-27T01:24:12Z</time></trkpt>
      <trkpt lat="31.823341" lon="130.848166"><ele>294.2</ele><time>2026-09-27T01:24:17Z</time></trkpt>
      <trkpt lat="31.823160" lon="130.847662"><ele>287.8</ele><time>2026-09-27T01:24:22Z</time></trkpt>
      <trkpt lat="31.822952" lon="130.847303"><ele>284.2</ele><time>2026-09-27T01:24:25Z</time></trkpt>
      <trkpt lat="31.822708" lon="130.847128"><ele>282.2</ele><time>2026-09-27T01:24:27Z</time></trkpt>
      <trkpt lat="31.822260" lon="130.846252"><ele>278.2</ele><time>2026-09-27T01:24:34Z</time></trkpt>
      <trkpt lat="31.822142" lon="130.845049"><ele>270.8</ele><time>2026-09-27T01:24:43Z</time></trkpt>
      <trkpt lat="31.822347" lon="130.844307"><ele>265.0</ele><time>2026-09-27T01:24:48Z</time></trkpt>
      <trkpt lat="31.822384" lon="130.843886"><ele>262.0</ele><time>2026-09-27T01:24:51Z</time></trkpt>
      <trkpt lat="31.822208" lon="130.843344"><ele>257.2</ele><time>2026-09-27T01:24:56Z</time></trkpt>
      <trkpt lat="31.821447" lon="130.842414"><ele>251.2</ele><time>2026-09-27T01:25:05Z</time></trkpt>
      <trkpt lat="31.820872" lon="130.841925"><ele>244.4</ele><time>2026-09-27T01:25:10Z</time></trkpt>
      <trkpt lat="31.819114" lon="130.840082"><ele>239.0</ele><time>2026-09-27T01:25:32Z</time></trkpt>
      <trkpt lat="31.818829" lon="130.839961"><ele>238.0</ele><time>2026-09-27T01:25:38Z</time></trkpt>
      <trkpt lat="31.818683" lon="130.840079"><ele>237.8</ele><time>2026-09-27T01:25:45Z</time></trkpt>
      <trkpt lat="31.818783" lon="130.840160"><ele>237.8</ele><time>2026-09-27T01:26:05Z</time></trkpt>
      <trkpt lat="31.818663" lon="130.839953"><ele>237.2</ele><time>2026-09-27T01:26:15Z</time></trkpt>
      <trkpt lat="31.818766" lon="130.839253"><ele>235.8</ele><time>2026-09-27T01:26:29Z</time></trkpt>
      <trkpt lat="31.819257" lon="130.838562"><ele>235.0</ele><time>2026-09-27T01:26:46Z</time></trkpt>
      <trkpt lat="31.819331" lon="130.837452"><ele>235.4</ele><time>2026-09-27T01:27:04Z</time></trkpt>
      <trkpt lat="31.819439" lon="130.837097"><ele>235.0</ele><time>2026-09-27T01:27:10Z</time></trkpt>
      <trkpt lat="31.820442" lon="130.834577"><ele>231.8</ele><time>2026-09-27T01:27:59Z</time></trkpt>
      <trkpt lat="31.820659" lon="130.834540"><ele>231.8</ele><time>2026-09-27T01:28:07Z</time></trkpt>
      <trkpt lat="31.820711" lon="130.834648"><ele>232.0</ele><time>2026-09-27T01:28:14Z</time></trkpt>
      <trkpt lat="31.820649" lon="130.834631"><ele>231.6</ele><time>2026-09-27T01:28:39Z</time></trkpt>
      <trkpt lat="31.820727" lon="130.834480"><ele>231.8</ele><time>2026-09-27T01:28:56Z</time></trkpt>
      <trkpt lat="31.820600" lon="130.834292"><ele>232.4</ele><time>2026-09-27T01:32:42Z</time></trkpt>
      <trkpt lat="31.820562" lon="130.834481"><ele>231.0</ele><time>2026-09-27T01:32:50Z</time></trkpt>
      <trkpt lat="31.820569" lon="130.834562"><ele>231.4</ele><time>2026-09-27T01:33:02Z</time></trkpt>
      <trkpt lat="31.820682" lon="130.834245"><ele>231.2</ele><time>2026-09-27T01:34:08Z</time></trkpt>
      <trkpt lat="31.820783" lon="130.834271"><ele>231.2</ele><time>2026-09-27T01:35:33Z</time></trkpt>
      <trkpt lat="31.820557" lon="130.834531"><ele>231.2</ele><time>2026-09-27T01:36:03Z</time></trkpt>
      <trkpt lat="31.820731" lon="130.834529"><ele>231.2</ele><time>2026-09-27T01:36:29Z</time></trkpt>
      <trkpt lat="31.820761" lon="130.834414"><ele>231.2</ele><time>2026-09-27T01:36:41Z</time></trkpt>
      <trkpt lat="31.820573" lon="130.834429"><ele>231.2</ele><time>2026-09-27T01:36:54Z</time></trkpt>
      <trkpt lat="31.820544" lon="130.834500"><ele>231.2</ele><time>2026-09-27T01:37:00Z</time></trkpt>
      <trkpt lat="31.820642" lon="130.834679"><ele>231.2</ele><time>2026-09-27T01:37:55Z</time></trkpt>
      <trkpt lat="31.820515" lon="130.833737"><ele>232.6</ele><time>2026-09-27T01:39:43Z</time></trkpt>
      <trkpt lat="31.820617" lon="130.834162"><ele>232.6</ele><time>2026-09-27T01:39:45Z</time></trkpt>
      <trkpt lat="31.820605" lon="130.834572"><ele>234.0</ele><time>2026-09-27T01:40:05Z</time></trkpt>
      <trkpt lat="31.820664" lon="130.834475"><ele>233.2</ele><time>2026-09-27T01:40:41Z</time></trkpt>
      <trkpt lat="31.820475" lon="130.834151"><ele>231.0</ele><time>2026-09-27T01:41:07Z</time></trkpt>
      <trkpt lat="31.819950" lon="130.833940"><ele>230.4</ele><time>2026-09-27T01:41:18Z</time></trkpt>
      <trkpt lat="31.819667" lon="130.833594"><ele>229.8</ele><time>2026-09-27T01:41:24Z</time></trkpt>
      <trkpt lat="31.819143" lon="130.832198"><ele>230.2</ele><time>2026-09-27T01:41:47Z</time></trkpt>
      <trkpt lat="31.819064" lon="130.831713"><ele>229.0</ele><time>2026-09-27T01:41:53Z</time></trkpt>
      <trkpt lat="31.818785" lon="130.830851"><ele>225.8</ele><time>2026-09-27T01:42:02Z</time></trkpt>
      <trkpt lat="31.818372" lon="130.829718"><ele>223.6</ele><time>2026-09-27T01:42:14Z</time></trkpt>
      <trkpt lat="31.818141" lon="130.829328"><ele>222.6</ele><time>2026-09-27T01:42:19Z</time></trkpt>
      <trkpt lat="31.817059" lon="130.827958"><ele>220.4</ele><time>2026-09-27T01:42:41Z</time></trkpt>
      <trkpt lat="31.816169" lon="130.828155"><ele>220.6</ele><time>2026-09-27T01:42:59Z</time></trkpt>
      <trkpt lat="31.815616" lon="130.828439"><ele>227.8</ele><time>2026-09-27T01:43:33Z</time></trkpt>
      <trkpt lat="31.815188" lon="130.828356"><ele>233.6</ele><time>2026-09-27T01:44:10Z</time></trkpt>
      <trkpt lat="31.814159" lon="130.828379"><ele>239.0</ele><time>2026-09-27T01:45:14Z</time></trkpt>
      <trkpt lat="31.813915" lon="130.828517"><ele>240.6</ele><time>2026-09-27T01:45:32Z</time></trkpt>
      <trkpt lat="31.813794" lon="130.828735"><ele>242.0</ele><time>2026-09-27T01:45:42Z</time></trkpt>
      <trkpt lat="31.813395" lon="130.829791"><ele>248.2</ele><time>2026-09-27T01:46:48Z</time></trkpt>
      <trkpt lat="31.813344" lon="130.830186"><ele>251.2</ele><time>2026-09-27T01:47:16Z</time></trkpt>
      <trkpt lat="31.812822" lon="130.830755"><ele>257.4</ele><time>2026-09-27T01:48:18Z</time></trkpt>
      <trkpt lat="31.812336" lon="130.831123"><ele>263.4</ele><time>2026-09-27T01:49:12Z</time></trkpt>
      <trkpt lat="31.812144" lon="130.831397"><ele>265.8</ele><time>2026-09-27T01:49:40Z</time></trkpt>
      <trkpt lat="31.811781" lon="130.831285"><ele>270.0</ele><time>2026-09-27T01:50:16Z</time></trkpt>
      <trkpt lat="31.811347" lon="130.830818"><ele>275.0</ele><time>2026-09-27T01:51:01Z</time></trkpt>
      <trkpt lat="31.810892" lon="130.830821"><ele>279.2</ele><time>2026-09-27T01:51:39Z</time></trkpt>
      <trkpt lat="31.810798" lon="130.830750"><ele>280.4</ele><time>2026-09-27T01:51:48Z</time></trkpt>
      <trkpt lat="31.810654" lon="130.830530"><ele>282.2</ele><time>2026-09-27T01:52:07Z</time></trkpt>
      <trkpt lat="31.810576" lon="130.830197"><ele>284.2</ele><time>2026-09-27T01:52:28Z</time></trkpt>
      <trkpt lat="31.810329" lon="130.829896"><ele>286.6</ele><time>2026-09-27T01:52:52Z</time></trkpt>
      <trkpt lat="31.810349" lon="130.829174"><ele>291.0</ele><time>2026-09-27T01:53:43Z</time></trkpt>
      <trkpt lat="31.810103" lon="130.828765"><ele>294.0</ele><time>2026-09-27T01:54:09Z</time></trkpt>
      <trkpt lat="31.809939" lon="130.828153"><ele>295.4</ele><time>2026-09-27T01:54:38Z</time></trkpt>
      <trkpt lat="31.808014" lon="130.825911"><ele>285.8</ele><time>2026-09-27T01:55:15Z</time></trkpt>
      <trkpt lat="31.807632" lon="130.824511"><ele>279.6</ele><time>2026-09-27T01:55:27Z</time></trkpt>
      <trkpt lat="31.807545" lon="130.824018"><ele>279.2</ele><time>2026-09-27T01:55:31Z</time></trkpt>
      <trkpt lat="31.807565" lon="130.823614"><ele>277.2</ele><time>2026-09-27T01:55:36Z</time></trkpt>
      <trkpt lat="31.807531" lon="130.823888"><ele>276.4</ele><time>2026-09-27T01:55:47Z</time></trkpt>
      <trkpt lat="31.807432" lon="130.824031"><ele>276.8</ele><time>2026-09-27T01:55:52Z</time></trkpt>
      <trkpt lat="31.807234" lon="130.823976"><ele>277.4</ele><time>2026-09-27T01:55:58Z</time></trkpt>
      <trkpt lat="31.807131" lon="130.823852"><ele>277.6</ele><time>2026-09-27T01:56:02Z</time></trkpt>
      <trkpt lat="31.806971" lon="130.822958"><ele>278.2</ele><time>2026-09-27T01:56:19Z</time></trkpt>
      <trkpt lat="31.806816" lon="130.822496"><ele>277.6</ele><time>2026-09-27T01:56:26Z</time></trkpt>
      <trkpt lat="31.806416" lon="130.821786"><ele>277.4</ele><time>2026-09-27T01:56:37Z</time></trkpt>
      <trkpt lat="31.805502" lon="130.818546"><ele>268.8</ele><time>2026-09-27T01:57:16Z</time></trkpt>
      <trkpt lat="31.805367" lon="130.818431"><ele>268.4</ele><time>2026-09-27T01:57:18Z</time></trkpt>
      <trkpt lat="31.804595" lon="130.818167"><ele>267.4</ele><time>2026-09-27T01:57:29Z</time></trkpt>
      <trkpt lat="31.803892" lon="130.817614"><ele>265.0</ele><time>2026-09-27T01:57:40Z</time></trkpt>
      <trkpt lat="31.803011" lon="130.817092"><ele>263.4</ele><time>2026-09-27T01:57:53Z</time></trkpt>
      <trkpt lat="31.802888" lon="130.816865"><ele>262.8</ele><time>2026-09-27T01:57:56Z</time></trkpt>
      <trkpt lat="31.802790" lon="130.816368"><ele>262.2</ele><time>2026-09-27T01:58:01Z</time></trkpt>
      <trkpt lat="31.802277" lon="130.815814"><ele>260.4</ele><time>2026-09-27T01:58:09Z</time></trkpt>
      <trkpt lat="31.801711" lon="130.814947"><ele>257.4</ele><time>2026-09-27T01:58:21Z</time></trkpt>
      <trkpt lat="31.801398" lon="130.814905"><ele>256.2</ele><time>2026-09-27T01:58:25Z</time></trkpt>
      <trkpt lat="31.800968" lon="130.815137"><ele>252.8</ele><time>2026-09-27T01:58:30Z</time></trkpt>
      <trkpt lat="31.800293" lon="130.815034"><ele>247.0</ele><time>2026-09-27T01:58:37Z</time></trkpt>
      <trkpt lat="31.799027" lon="130.813277"><ele>237.4</ele><time>2026-09-27T01:58:55Z</time></trkpt>
      <trkpt lat="31.798701" lon="130.812999"><ele>234.8</ele><time>2026-09-27T01:58:59Z</time></trkpt>
      <trkpt lat="31.798217" lon="130.812755"><ele>232.0</ele><time>2026-09-27T01:59:04Z</time></trkpt>
      <trkpt lat="31.797921" lon="130.812650"><ele>229.4</ele><time>2026-09-27T01:59:07Z</time></trkpt>
      <trkpt lat="31.797667" lon="130.812708"><ele>225.8</ele><time>2026-09-27T01:59:10Z</time></trkpt>
      <trkpt lat="31.797423" lon="130.812587"><ele>223.4</ele><time>2026-09-27T01:59:15Z</time></trkpt>
      <trkpt lat="31.796903" lon="130.811938"><ele>219.2</ele><time>2026-09-27T01:59:24Z</time></trkpt>
      <trkpt lat="31.796223" lon="130.810479"><ele>212.0</ele><time>2026-09-27T01:59:37Z</time></trkpt>
      <trkpt lat="31.796013" lon="130.809548"><ele>206.2</ele><time>2026-09-27T01:59:45Z</time></trkpt>
      <trkpt lat="31.795901" lon="130.809345"><ele>205.4</ele><time>2026-09-27T01:59:47Z</time></trkpt>
      <trkpt lat="31.795395" lon="130.808840"><ele>202.6</ele><time>2026-09-27T01:59:53Z</time></trkpt>
      <trkpt lat="31.795003" lon="130.808086"><ele>198.8</ele><time>2026-09-27T02:00:00Z</time></trkpt>
      <trkpt lat="31.795042" lon="130.805507"><ele>191.4</ele><time>2026-09-27T02:00:22Z</time></trkpt>
      <trkpt lat="31.795214" lon="130.804817"><ele>188.8</ele><time>2026-09-27T02:00:29Z</time></trkpt>
      <trkpt lat="31.795219" lon="130.804572"><ele>188.4</ele><time>2026-09-27T02:00:32Z</time></trkpt>
      <trkpt lat="31.795144" lon="130.804401"><ele>187.6</ele><time>2026-09-27T02:00:35Z</time></trkpt>
      <trkpt lat="31.794148" lon="130.803887"><ele>186.4</ele><time>2026-09-27T02:00:52Z</time></trkpt>
      <trkpt lat="31.793240" lon="130.803693"><ele>185.2</ele><time>2026-09-27T02:01:05Z</time></trkpt>
      <trkpt lat="31.792317" lon="130.803134"><ele>183.0</ele><time>2026-09-27T02:01:18Z</time></trkpt>
      <trkpt lat="31.791505" lon="130.803086"><ele>182.4</ele><time>2026-09-27T02:01:28Z</time></trkpt>
      <trkpt lat="31.789904" lon="130.802498"><ele>176.8</ele><time>2026-09-27T02:01:47Z</time></trkpt>
      <trkpt lat="31.789538" lon="130.802549"><ele>176.0</ele><time>2026-09-27T02:01:51Z</time></trkpt>
      <trkpt lat="31.788457" lon="130.803225"><ele>172.0</ele><time>2026-09-27T02:02:05Z</time></trkpt>
      <trkpt lat="31.788050" lon="130.803306"><ele>170.4</ele><time>2026-09-27T02:02:10Z</time></trkpt>
      <trkpt lat="31.785873" lon="130.803195"><ele>161.8</ele><time>2026-09-27T02:02:32Z</time></trkpt>
      <trkpt lat="31.785312" lon="130.802956"><ele>158.0</ele><time>2026-09-27T02:02:38Z</time></trkpt>
      <trkpt lat="31.785151" lon="130.802783"><ele>157.0</ele><time>2026-09-27T02:02:40Z</time></trkpt>
      <trkpt lat="31.784691" lon="130.801411"><ele>151.0</ele><time>2026-09-27T02:02:51Z</time></trkpt>
      <trkpt lat="31.784670" lon="130.801057"><ele>148.6</ele><time>2026-09-27T02:02:54Z</time></trkpt>
      <trkpt lat="31.784835" lon="130.799882"><ele>142.8</ele><time>2026-09-27T02:03:02Z</time></trkpt>
      <trkpt lat="31.784809" lon="130.799308"><ele>139.6</ele><time>2026-09-27T02:03:06Z</time></trkpt>
      <trkpt lat="31.784265" lon="130.797764"><ele>131.2</ele><time>2026-09-27T02:03:18Z</time></trkpt>
      <trkpt lat="31.783858" lon="130.796025"><ele>121.4</ele><time>2026-09-27T02:03:30Z</time></trkpt>
      <trkpt lat="31.783595" lon="130.795530"><ele>118.8</ele><time>2026-09-27T02:03:34Z</time></trkpt>
      <trkpt lat="31.783075" lon="130.794943"><ele>114.8</ele><time>2026-09-27T02:03:40Z</time></trkpt>
      <trkpt lat="31.782480" lon="130.793746"><ele>108.6</ele><time>2026-09-27T02:03:51Z</time></trkpt>
      <trkpt lat="31.782101" lon="130.793272"><ele>106.0</ele><time>2026-09-27T02:03:56Z</time></trkpt>
      <trkpt lat="31.780691" lon="130.791853"><ele>93.8</ele><time>2026-09-27T02:04:12Z</time></trkpt>
      <trkpt lat="31.779316" lon="130.790783"><ele>81.0</ele><time>2026-09-27T02:04:25Z</time></trkpt>
      <trkpt lat="31.778718" lon="130.790041"><ele>74.4</ele><time>2026-09-27T02:04:32Z</time></trkpt>
      <trkpt lat="31.777696" lon="130.788412"><ele>61.0</ele><time>2026-09-27T02:04:46Z</time></trkpt>
      <trkpt lat="31.777323" lon="130.788090"><ele>57.6</ele><time>2026-09-27T02:04:50Z</time></trkpt>
      <trkpt lat="31.776608" lon="130.787826"><ele>52.0</ele><time>2026-09-27T02:04:57Z</time></trkpt>
      <trkpt lat="31.775971" lon="130.787017"><ele>46.2</ele><time>2026-09-27T02:05:05Z</time></trkpt>
      <trkpt lat="31.775359" lon="130.786458"><ele>43.0</ele><time>2026-09-27T02:05:12Z</time></trkpt>
      <trkpt lat="31.771976" lon="130.783920"><ele>38.0</ele><time>2026-09-27T02:06:03Z</time></trkpt>
      <trkpt lat="31.767401" lon="130.779334"><ele>34.4</ele><time>2026-09-27T02:07:48Z</time></trkpt>
      <trkpt lat="31.766914" lon="130.779197"><ele>35.6</ele><time>2026-09-27T02:08:12Z</time></trkpt>
      <trkpt lat="31.766744" lon="130.779024"><ele>35.4</ele><time>2026-09-27T02:08:27Z</time></trkpt>
      <trkpt lat="31.765901" lon="130.777488"><ele>31.2</ele><time>2026-09-27T02:09:07Z</time></trkpt>
      <trkpt lat="31.765333" lon="130.777144"><ele>30.4</ele><time>2026-09-27T02:09:21Z</time></trkpt>
      <trkpt lat="31.765045" lon="130.776817"><ele>32.6</ele><time>2026-09-27T02:09:39Z</time></trkpt>
      <trkpt lat="31.764954" lon="130.776176"><ele>30.2</ele><time>2026-09-27T02:09:54Z</time></trkpt>
      <trkpt lat="31.765196" lon="130.775224"><ele>27.4</ele><time>2026-09-27T02:10:07Z</time></trkpt>
      <trkpt lat="31.765170" lon="130.774979"><ele>27.0</ele><time>2026-09-27T02:10:10Z</time></trkpt>
      <trkpt lat="31.765020" lon="130.774723"><ele>27.0</ele><time>2026-09-27T02:10:14Z</time></trkpt>
      <trkpt lat="31.764552" lon="130.774295"><ele>26.6</ele><time>2026-09-27T02:10:23Z</time></trkpt>
      <trkpt lat="31.764133" lon="130.774171"><ele>27.0</ele><time>2026-09-27T02:10:31Z</time></trkpt>
      <trkpt lat="31.763837" lon="130.774207"><ele>26.6</ele><time>2026-09-27T02:10:37Z</time></trkpt>
      <trkpt lat="31.762903" lon="130.774614"><ele>25.2</ele><time>2026-09-27T02:10:55Z</time></trkpt>
      <trkpt lat="31.762187" lon="130.774637"><ele>24.8</ele><time>2026-09-27T02:11:08Z</time></trkpt>
      <trkpt lat="31.761805" lon="130.774801"><ele>23.8</ele><time>2026-09-27T02:11:15Z</time></trkpt>
      <trkpt lat="31.760913" lon="130.774918"><ele>22.0</ele><time>2026-09-27T02:11:31Z</time></trkpt>
      <trkpt lat="31.760268" lon="130.774793"><ele>23.2</ele><time>2026-09-27T02:11:44Z</time></trkpt>
      <trkpt lat="31.759895" lon="130.774615"><ele>23.4</ele><time>2026-09-27T02:11:56Z</time></trkpt>
      <trkpt lat="31.759628" lon="130.774219"><ele>22.4</ele><time>2026-09-27T02:12:04Z</time></trkpt>
      <trkpt lat="31.759528" lon="130.773498"><ele>21.0</ele><time>2026-09-27T02:12:13Z</time></trkpt>
      <trkpt lat="31.759274" lon="130.772945"><ele>21.2</ele><time>2026-09-27T02:12:21Z</time></trkpt>
      <trkpt lat="31.757462" lon="130.771335"><ele>20.0</ele><time>2026-09-27T02:12:59Z</time></trkpt>
      <trkpt lat="31.757048" lon="130.771144"><ele>19.8</ele><time>2026-09-27T02:13:07Z</time></trkpt>
      <trkpt lat="31.755832" lon="130.771235"><ele>19.0</ele><time>2026-09-27T02:13:28Z</time></trkpt>
      <trkpt lat="31.755447" lon="130.770990"><ele>21.0</ele><time>2026-09-27T02:14:08Z</time></trkpt>
      <trkpt lat="31.754702" lon="130.769732"><ele>19.4</ele><time>2026-09-27T02:15:36Z</time></trkpt>
      <trkpt lat="31.754783" lon="130.769494"><ele>19.0</ele><time>2026-09-27T02:15:48Z</time></trkpt>
      <trkpt lat="31.754703" lon="130.769578"><ele>19.0</ele><time>2026-09-27T02:15:52Z</time></trkpt>
      <trkpt lat="31.754711" lon="130.769739"><ele>18.6</ele><time>2026-09-27T02:15:56Z</time></trkpt>
      <trkpt lat="31.754947" lon="130.770189"><ele>18.6</ele><time>2026-09-27T02:16:08Z</time></trkpt>
      <trkpt lat="31.755457" lon="130.770917"><ele>20.2</ele><time>2026-09-27T02:16:31Z</time></trkpt>
      <trkpt lat="31.756000" lon="130.769779"><ele>18.8</ele><time>2026-09-27T02:16:53Z</time></trkpt>
      <trkpt lat="31.755967" lon="130.769381"><ele>19.4</ele><time>2026-09-27T02:17:00Z</time></trkpt>
      <trkpt lat="31.755322" lon="130.768605"><ele>19.8</ele><time>2026-09-27T02:17:20Z</time></trkpt>
      <trkpt lat="31.754424" lon="130.767207"><ele>18.0</ele><time>2026-09-27T02:17:48Z</time></trkpt>
      <trkpt lat="31.753722" lon="130.765833"><ele>17.6</ele><time>2026-09-27T02:18:12Z</time></trkpt>
      <trkpt lat="31.751018" lon="130.761120"><ele>19.4</ele><time>2026-09-27T02:20:29Z</time></trkpt>
      <trkpt lat="31.749472" lon="130.758215"><ele>18.6</ele><time>2026-09-27T02:21:28Z</time></trkpt>
      <trkpt lat="31.749401" lon="130.758142"><ele>19.0</ele><time>2026-09-27T02:21:30Z</time></trkpt>
      <trkpt lat="31.748980" lon="130.758194"><ele>19.0</ele><time>2026-09-27T02:21:39Z</time></trkpt>
      <trkpt lat="31.748867" lon="130.758117"><ele>18.6</ele><time>2026-09-27T02:21:42Z</time></trkpt>
      <trkpt lat="31.748777" lon="130.757412"><ele>18.4</ele><time>2026-09-27T02:21:53Z</time></trkpt>
      <trkpt lat="31.748155" lon="130.755480"><ele>18.0</ele><time>2026-09-27T02:22:25Z</time></trkpt>
      <trkpt lat="31.747582" lon="130.752714"><ele>17.6</ele><time>2026-09-27T02:23:13Z</time></trkpt>
      <trkpt lat="31.747272" lon="130.751928"><ele>17.4</ele><time>2026-09-27T02:23:29Z</time></trkpt>
      <trkpt lat="31.746740" lon="130.751353"><ele>18.6</ele><time>2026-09-27T02:23:56Z</time></trkpt>
      <trkpt lat="31.747899" lon="130.749821"><ele>17.4</ele><time>2026-09-27T02:24:42Z</time></trkpt>
      <trkpt lat="31.747313" lon="130.749432"><ele>15.6</ele><time>2026-09-27T02:24:58Z</time></trkpt>
      <trkpt lat="31.747636" lon="130.748854"><ele>13.6</ele><time>2026-09-27T02:25:09Z</time></trkpt>
      <trkpt lat="31.746969" lon="130.748101"><ele>13.8</ele><time>2026-09-27T02:25:28Z</time></trkpt>
      <trkpt lat="31.745702" lon="130.746985"><ele>15.0</ele><time>2026-09-27T02:26:06Z</time></trkpt>
      <trkpt lat="31.745577" lon="130.746125"><ele>18.2</ele><time>2026-09-27T02:26:26Z</time></trkpt>
      <trkpt lat="31.742769" lon="130.742832"><ele>20.0</ele><time>2026-09-27T02:27:50Z</time></trkpt>
      <trkpt lat="31.741882" lon="130.742146"><ele>19.8</ele><time>2026-09-27T02:28:11Z</time></trkpt>
      <trkpt lat="31.739996" lon="130.741188"><ele>21.4</ele><time>2026-09-27T02:28:54Z</time></trkpt>
      <trkpt lat="31.739834" lon="130.741199"><ele>21.2</ele><time>2026-09-27T02:28:59Z</time></trkpt>
      <trkpt lat="31.739816" lon="130.741276"><ele>21.0</ele><time>2026-09-27T02:29:02Z</time></trkpt>
      <trkpt lat="31.739830" lon="130.741211"><ele>21.0</ele><time>2026-09-27T02:29:07Z</time></trkpt>
      <trkpt lat="31.739712" lon="130.741158"><ele>20.8</ele><time>2026-09-27T02:29:13Z</time></trkpt>
      <trkpt lat="31.739644" lon="130.740957"><ele>20.4</ele><time>2026-09-27T02:29:44Z</time></trkpt>
      <trkpt lat="31.739762" lon="130.740925"><ele>20.4</ele><time>2026-09-27T02:30:12Z</time></trkpt>
      <trkpt lat="31.739880" lon="130.740757"><ele>20.6</ele><time>2026-09-27T02:30:17Z</time></trkpt>
      <trkpt lat="31.739996" lon="130.739820"><ele>21.2</ele><time>2026-09-27T02:30:37Z</time></trkpt>
      <trkpt lat="31.740497" lon="130.737710"><ele>20.6</ele><time>2026-09-27T02:31:15Z</time></trkpt>
      <trkpt lat="31.740425" lon="130.737535"><ele>21.2</ele><time>2026-09-27T02:31:19Z</time></trkpt>
      <trkpt lat="31.739813" lon="130.737126"><ele>20.8</ele><time>2026-09-27T02:31:35Z</time></trkpt>
      <trkpt lat="31.739928" lon="130.736753"><ele>21.8</ele><time>2026-09-27T02:31:42Z</time></trkpt>
      <trkpt lat="31.739833" lon="130.736373"><ele>21.2</ele><time>2026-09-27T02:31:49Z</time></trkpt>
      <trkpt lat="31.738038" lon="130.735026"><ele>20.4</ele><time>2026-09-27T02:32:31Z</time></trkpt>
      <trkpt lat="31.735043" lon="130.733033"><ele>16.6</ele><time>2026-09-27T02:33:32Z</time></trkpt>
      <trkpt lat="31.732482" lon="130.730877"><ele>19.6</ele><time>2026-09-27T02:34:36Z</time></trkpt>
      <trkpt lat="31.732446" lon="130.730768"><ele>19.4</ele><time>2026-09-27T02:34:39Z</time></trkpt>
      <trkpt lat="31.732665" lon="130.729378"><ele>19.6</ele><time>2026-09-27T02:35:03Z</time></trkpt>
      <trkpt lat="31.733468" lon="130.725919"><ele>17.4</ele><time>2026-09-27T02:35:57Z</time></trkpt>
      <trkpt lat="31.733365" lon="130.725783"><ele>17.6</ele><time>2026-09-27T02:36:00Z</time></trkpt>
      <trkpt lat="31.731620" lon="130.725239"><ele>16.8</ele><time>2026-09-27T02:36:34Z</time></trkpt>
      <trkpt lat="31.732053" lon="130.723243"><ele>16.6</ele><time>2026-09-27T02:37:10Z</time></trkpt>
      <trkpt lat="31.732162" lon="130.721435"><ele>16.2</ele><time>2026-09-27T02:37:42Z</time></trkpt>
      <trkpt lat="31.732104" lon="130.721317"><ele>16.0</ele><time>2026-09-27T02:37:45Z</time></trkpt>
      <trkpt lat="31.731788" lon="130.721217"><ele>15.6</ele><time>2026-09-27T02:37:53Z</time></trkpt>
      <trkpt lat="31.730258" lon="130.721129"><ele>13.8</ele><time>2026-09-27T02:38:31Z</time></trkpt>
      <trkpt lat="31.729678" lon="130.720842"><ele>11.4</ele><time>2026-09-27T02:38:42Z</time></trkpt>
      <trkpt lat="31.729613" lon="130.720241"><ele>11.4</ele><time>2026-09-27T02:38:50Z</time></trkpt>
      <trkpt lat="31.729817" lon="130.719704"><ele>10.0</ele><time>2026-09-27T02:38:58Z</time></trkpt>
      <trkpt lat="31.729800" lon="130.719475"><ele>10.2</ele><time>2026-09-27T02:39:01Z</time></trkpt>
      <trkpt lat="31.729424" lon="130.719169"><ele>9.4</ele><time>2026-09-27T02:39:12Z</time></trkpt>
      <trkpt lat="31.729454" lon="130.718490"><ele>9.2</ele><time>2026-09-27T02:39:32Z</time></trkpt>
      <trkpt lat="31.729296" lon="130.717861"><ele>9.4</ele><time>2026-09-27T02:39:43Z</time></trkpt>
      <trkpt lat="31.728872" lon="130.716558"><ele>11.6</ele><time>2026-09-27T02:40:13Z</time></trkpt>
      <trkpt lat="31.728630" lon="130.716128"><ele>14.4</ele><time>2026-09-27T02:40:47Z</time></trkpt>
      <trkpt lat="31.728593" lon="130.715763"><ele>15.0</ele><time>2026-09-27T02:41:28Z</time></trkpt>
      <trkpt lat="31.727882" lon="130.713481"><ele>16.0</ele><time>2026-09-27T02:42:37Z</time></trkpt>
      <trkpt lat="31.727309" lon="130.711899"><ele>14.0</ele><time>2026-09-27T02:45:29Z</time></trkpt>
      <trkpt lat="31.727272" lon="130.711970"><ele>14.0</ele><time>2026-09-27T02:45:47Z</time></trkpt>
      <trkpt lat="31.727127" lon="130.711439"><ele>13.4</ele><time>2026-09-27T02:47:21Z</time></trkpt>
      <trkpt lat="31.726978" lon="130.710528"><ele>13.4</ele><time>2026-09-27T02:47:39Z</time></trkpt>
      <trkpt lat="31.727111" lon="130.709205"><ele>14.8</ele><time>2026-09-27T02:48:08Z</time></trkpt>
      <trkpt lat="31.727001" lon="130.708518"><ele>16.0</ele><time>2026-09-27T02:48:24Z</time></trkpt>
      <trkpt lat="31.726756" lon="130.707721"><ele>17.2</ele><time>2026-09-27T02:48:45Z</time></trkpt>
      <trkpt lat="31.726574" lon="130.707418"><ele>17.4</ele><time>2026-09-27T02:48:54Z</time></trkpt>
      <trkpt lat="31.725961" lon="130.706878"><ele>18.6</ele><time>2026-09-27T02:49:17Z</time></trkpt>
      <trkpt lat="31.725746" lon="130.706211"><ele>19.6</ele><time>2026-09-27T02:49:37Z</time></trkpt>
      <trkpt lat="31.725846" lon="130.705654"><ele>20.2</ele><time>2026-09-27T02:49:51Z</time></trkpt>
      <trkpt lat="31.725993" lon="130.705426"><ele>20.0</ele><time>2026-09-27T02:49:57Z</time></trkpt>
      <trkpt lat="31.726519" lon="130.705142"><ele>20.4</ele><time>2026-09-27T02:50:09Z</time></trkpt>
      <trkpt lat="31.726752" lon="130.704815"><ele>20.2</ele><time>2026-09-27T02:50:17Z</time></trkpt>
      <trkpt lat="31.727680" lon="130.702146"><ele>20.4</ele><time>2026-09-27T02:51:05Z</time></trkpt>
      <trkpt lat="31.728188" lon="130.701102"><ele>20.8</ele><time>2026-09-27T02:51:26Z</time></trkpt>
      <trkpt lat="31.729385" lon="130.698993"><ele>21.2</ele><time>2026-09-27T02:52:11Z</time></trkpt>
      <trkpt lat="31.729655" lon="130.697834"><ele>23.2</ele><time>2026-09-27T02:52:36Z</time></trkpt>
      <trkpt lat="31.729866" lon="130.695937"><ele>22.2</ele><time>2026-09-27T02:53:11Z</time></trkpt>
      <trkpt lat="31.730081" lon="130.695350"><ele>20.6</ele><time>2026-09-27T02:53:20Z</time></trkpt>
      <trkpt lat="31.730393" lon="130.694993"><ele>18.8</ele><time>2026-09-27T02:53:26Z</time></trkpt>
      <trkpt lat="31.730690" lon="130.694804"><ele>17.6</ele><time>2026-09-27T02:53:30Z</time></trkpt>
      <trkpt lat="31.733070" lon="130.693958"><ele>11.2</ele><time>2026-09-27T02:53:57Z</time></trkpt>
      <trkpt lat="31.734180" lon="130.693126"><ele>8.8</ele><time>2026-09-27T02:54:14Z</time></trkpt>
      <trkpt lat="31.737468" lon="130.687889"><ele>15.2</ele><time>2026-09-27T02:56:17Z</time></trkpt>
      <trkpt lat="31.738264" lon="130.686770"><ele>21.0</ele><time>2026-09-27T02:57:17Z</time></trkpt>
      <trkpt lat="31.738434" lon="130.686342"><ele>22.6</ele><time>2026-09-27T02:57:34Z</time></trkpt>
      <trkpt lat="31.738454" lon="130.685931"><ele>24.6</ele><time>2026-09-27T02:57:51Z</time></trkpt>
      <trkpt lat="31.738107" lon="130.684900"><ele>28.2</ele><time>2026-09-27T03:00:03Z</time></trkpt>
      <trkpt lat="31.738020" lon="130.684289"><ele>31.2</ele><time>2026-09-27T03:00:20Z</time></trkpt>
      <trkpt lat="31.738202" lon="130.682919"><ele>38.6</ele><time>2026-09-27T03:01:25Z</time></trkpt>
      <trkpt lat="31.737962" lon="130.682385"><ele>41.8</ele><time>2026-09-27T03:01:54Z</time></trkpt>
      <trkpt lat="31.737814" lon="130.682367"><ele>43.6</ele><time>2026-09-27T03:02:49Z</time></trkpt>
      <trkpt lat="31.737919" lon="130.682289"><ele>43.8</ele><time>2026-09-27T03:03:09Z</time></trkpt>
      <trkpt lat="31.738015" lon="130.682389"><ele>44.2</ele><time>2026-09-27T03:03:37Z</time></trkpt>
      <trkpt lat="31.737953" lon="130.682409"><ele>44.4</ele><time>2026-09-27T03:03:44Z</time></trkpt>
      <trkpt lat="31.737994" lon="130.682387"><ele>44.6</ele><time>2026-09-27T03:04:11Z</time></trkpt>
      <trkpt lat="31.737771" lon="130.682226"><ele>44.6</ele><time>2026-09-27T03:04:59Z</time></trkpt>
      <trkpt lat="31.737952" lon="130.682288"><ele>43.8</ele><time>2026-09-27T03:05:42Z</time></trkpt>
      <trkpt lat="31.737788" lon="130.682133"><ele>45.8</ele><time>2026-09-27T03:06:09Z</time></trkpt>
      <trkpt lat="31.737721" lon="130.681856"><ele>47.4</ele><time>2026-09-27T03:06:25Z</time></trkpt>
      <trkpt lat="31.737687" lon="130.680770"><ele>50.0</ele><time>2026-09-27T03:07:06Z</time></trkpt>
      <trkpt lat="31.737549" lon="130.679686"><ele>49.0</ele><time>2026-09-27T03:07:32Z</time></trkpt>
      <trkpt lat="31.737635" lon="130.678809"><ele>46.2</ele><time>2026-09-27T03:07:43Z</time></trkpt>
      <trkpt lat="31.737471" lon="130.677943"><ele>43.6</ele><time>2026-09-27T03:07:52Z</time></trkpt>
      <trkpt lat="31.736973" lon="130.677402"><ele>41.0</ele><time>2026-09-27T03:07:59Z</time></trkpt>
      <trkpt lat="31.734910" lon="130.675891"><ele>30.2</ele><time>2026-09-27T03:08:22Z</time></trkpt>
      <trkpt lat="31.734375" lon="130.675391"><ele>27.8</ele><time>2026-09-27T03:08:28Z</time></trkpt>
      <trkpt lat="31.733769" lon="130.674503"><ele>22.6</ele><time>2026-09-27T03:08:37Z</time></trkpt>
      <trkpt lat="31.733642" lon="130.674198"><ele>21.0</ele><time>2026-09-27T03:08:40Z</time></trkpt>
      <trkpt lat="31.735235" lon="130.667964"><ele>10.8</ele><time>2026-09-27T03:09:49Z</time></trkpt>
      <trkpt lat="31.735561" lon="130.664294"><ele>10.8</ele><time>2026-09-27T03:10:44Z</time></trkpt>
      <trkpt lat="31.735790" lon="130.663383"><ele>11.8</ele><time>2026-09-27T03:11:01Z</time></trkpt>
      <trkpt lat="31.735727" lon="130.663282"><ele>11.2</ele><time>2026-09-27T03:11:03Z</time></trkpt>
      <trkpt lat="31.733873" lon="130.662332"><ele>10.8</ele><time>2026-09-27T03:11:41Z</time></trkpt>
      <trkpt lat="31.733347" lon="130.661282"><ele>10.6</ele><time>2026-09-27T03:12:04Z</time></trkpt>
      <trkpt lat="31.728585" lon="130.660195"><ele>10.4</ele><time>2026-09-27T03:13:48Z</time></trkpt>
      <trkpt lat="31.727399" lon="130.658091"><ele>10.4</ele><time>2026-09-27T03:16:45Z</time></trkpt>
      <trkpt lat="31.727182" lon="130.657435"><ele>7.2</ele><time>2026-09-27T03:16:58Z</time></trkpt>
      <trkpt lat="31.727295" lon="130.657255"><ele>6.4</ele><time>2026-09-27T03:17:02Z</time></trkpt>
      <trkpt lat="31.729745" lon="130.655466"><ele>6.6</ele><time>2026-09-27T03:17:52Z</time></trkpt>
      <trkpt lat="31.727696" lon="130.651848"><ele>8.0</ele><time>2026-09-27T03:19:02Z</time></trkpt>
      <trkpt lat="31.728932" lon="130.650706"><ele>7.6</ele><time>2026-09-27T03:19:29Z</time></trkpt>
      <trkpt lat="31.730795" lon="130.648359"><ele>13.2</ele><time>2026-09-27T03:20:25Z</time></trkpt>
      <trkpt lat="31.731110" lon="130.648113"><ele>15.2</ele><time>2026-09-27T03:20:38Z</time></trkpt>
      <trkpt lat="31.731096" lon="130.647838"><ele>15.4</ele><time>2026-09-27T03:20:47Z</time></trkpt>
      <trkpt lat="31.731236" lon="130.647717"><ele>15.8</ele><time>2026-09-27T03:21:57Z</time></trkpt>
      <trkpt lat="31.731182" lon="130.647682"><ele>15.8</ele><time>2026-09-27T03:22:40Z</time></trkpt>
      <trkpt lat="31.731183" lon="130.647796"><ele>15.8</ele><time>2026-09-27T03:23:57Z</time></trkpt>
      <trkpt lat="31.731078" lon="130.647800"><ele>16.0</ele><time>2026-09-27T03:24:16Z</time></trkpt>
      <trkpt lat="31.730916" lon="130.647134"><ele>16.2</ele><time>2026-09-27T03:24:38Z</time></trkpt>
      <trkpt lat="31.730937" lon="130.645732"><ele>15.8</ele><time>2026-09-27T03:25:09Z</time></trkpt>
      <trkpt lat="31.731008" lon="130.645467"><ele>16.0</ele><time>2026-09-27T03:25:15Z</time></trkpt>
      <trkpt lat="31.731207" lon="130.644998"><ele>16.6</ele><time>2026-09-27T03:25:26Z</time></trkpt>
      <trkpt lat="31.732026" lon="130.643759"><ele>16.0</ele><time>2026-09-27T03:25:54Z</time></trkpt>
      <trkpt lat="31.733205" lon="130.642701"><ele>18.2</ele><time>2026-09-27T03:26:32Z</time></trkpt>
      <trkpt lat="31.733385" lon="130.642444"><ele>17.2</ele><time>2026-09-27T03:26:39Z</time></trkpt>
      <trkpt lat="31.733031" lon="130.641058"><ele>16.2</ele><time>2026-09-27T03:27:07Z</time></trkpt>
      <trkpt lat="31.732565" lon="130.636129"><ele>11.6</ele><time>2026-09-27T03:28:39Z</time></trkpt>
      <trkpt lat="31.731953" lon="130.635994"><ele>12.2</ele><time>2026-09-27T03:28:51Z</time></trkpt>
      <trkpt lat="31.731393" lon="130.635603"><ele>12.6</ele><time>2026-09-27T03:29:05Z</time></trkpt>
      <trkpt lat="31.727296" lon="130.631527"><ele>13.8</ele><time>2026-09-27T03:30:46Z</time></trkpt>
      <trkpt lat="31.726068" lon="130.629916"><ele>13.6</ele><time>2026-09-27T03:31:19Z</time></trkpt>
      <trkpt lat="31.725880" lon="130.629896"><ele>13.0</ele><time>2026-09-27T03:31:27Z</time></trkpt>
      <trkpt lat="31.724819" lon="130.628406"><ele>13.6</ele><time>2026-09-27T03:31:56Z</time></trkpt>
      <trkpt lat="31.723991" lon="130.627484"><ele>13.6</ele><time>2026-09-27T03:32:17Z</time></trkpt>
      <trkpt lat="31.723913" lon="130.627192"><ele>13.2</ele><time>2026-09-27T03:32:26Z</time></trkpt>
      <trkpt lat="31.723750" lon="130.627110"><ele>13.2</ele><time>2026-09-27T03:32:30Z</time></trkpt>
      <trkpt lat="31.723595" lon="130.626867"><ele>12.8</ele><time>2026-09-27T03:32:35Z</time></trkpt>
      <trkpt lat="31.722284" lon="130.625541"><ele>12.8</ele><time>2026-09-27T03:33:08Z</time></trkpt>
      <trkpt lat="31.722587" lon="130.624780"><ele>14.8</ele><time>2026-09-27T03:33:29Z</time></trkpt>
      <trkpt lat="31.722606" lon="130.624591"><ele>15.4</ele><time>2026-09-27T03:33:33Z</time></trkpt>
      <trkpt lat="31.722458" lon="130.624270"><ele>16.8</ele><time>2026-09-27T03:34:05Z</time></trkpt>
      <trkpt lat="31.722537" lon="130.624271"><ele>17.2</ele><time>2026-09-27T03:34:20Z</time></trkpt>
      <trkpt lat="31.722415" lon="130.624270"><ele>17.6</ele><time>2026-09-27T03:34:34Z</time></trkpt>
      <trkpt lat="31.722551" lon="130.624344"><ele>17.4</ele><time>2026-09-27T03:34:51Z</time></trkpt>
      <trkpt lat="31.722648" lon="130.623994"><ele>17.4</ele><time>2026-09-27T03:35:24Z</time></trkpt>
      <trkpt lat="31.722571" lon="130.624469"><ele>18.0</ele><time>2026-09-27T03:36:04Z</time></trkpt>
      <trkpt lat="31.722463" lon="130.624510"><ele>18.0</ele><time>2026-09-27T03:37:16Z</time></trkpt>
      <trkpt lat="31.722508" lon="130.624381"><ele>18.0</ele><time>2026-09-27T03:37:46Z</time></trkpt>
      <trkpt lat="31.722538" lon="130.624451"><ele>18.0</ele><time>2026-09-27T03:38:19Z</time></trkpt>
      <trkpt lat="31.722590" lon="130.624367"><ele>18.0</ele><time>2026-09-27T03:38:31Z</time></trkpt>
      <trkpt lat="31.721963" lon="130.623988"><ele>18.4</ele><time>2026-09-27T03:39:26Z</time></trkpt>
      <trkpt lat="31.716149" lon="130.621392"><ele>14.8</ele><time>2026-09-27T03:41:29Z</time></trkpt>
      <trkpt lat="31.715334" lon="130.621194"><ele>14.0</ele><time>2026-09-27T03:41:42Z</time></trkpt>
      <trkpt lat="31.714222" lon="130.621228"><ele>14.2</ele><time>2026-09-27T03:41:58Z</time></trkpt>
      <trkpt lat="31.713607" lon="130.621051"><ele>12.8</ele><time>2026-09-27T03:42:07Z</time></trkpt>
      <trkpt lat="31.710365" lon="130.618982"><ele>10.8</ele><time>2026-09-27T03:42:59Z</time></trkpt>
      <trkpt lat="31.707829" lon="130.616309"><ele>14.6</ele><time>2026-09-27T03:43:55Z</time></trkpt>
      <trkpt lat="31.707058" lon="130.616016"><ele>17.2</ele><time>2026-09-27T03:44:17Z</time></trkpt>
      <trkpt lat="31.705016" lon="130.616143"><ele>17.2</ele><time>2026-09-27T03:47:34Z</time></trkpt>
      <trkpt lat="31.704321" lon="130.615984"><ele>15.4</ele><time>2026-09-27T03:47:46Z</time></trkpt>
      <trkpt lat="31.702328" lon="130.615070"><ele>13.8</ele><time>2026-09-27T03:48:26Z</time></trkpt>
      <trkpt lat="31.700349" lon="130.613586"><ele>13.4</ele><time>2026-09-27T03:49:10Z</time></trkpt>
      <trkpt lat="31.699580" lon="130.613226"><ele>13.8</ele><time>2026-09-27T03:49:24Z</time></trkpt>
      <trkpt lat="31.698963" lon="130.613194"><ele>13.8</ele><time>2026-09-27T03:49:37Z</time></trkpt>
      <trkpt lat="31.697803" lon="130.613732"><ele>13.8</ele><time>2026-09-27T03:50:05Z</time></trkpt>
      <trkpt lat="31.694080" lon="130.614699"><ele>13.2</ele><time>2026-09-27T03:51:18Z</time></trkpt>
      <trkpt lat="31.693188" lon="130.614831"><ele>15.0</ele><time>2026-09-27T03:51:37Z</time></trkpt>
      <trkpt lat="31.692116" lon="130.614857"><ele>17.0</ele><time>2026-09-27T03:52:09Z</time></trkpt>
      <trkpt lat="31.691611" lon="130.614676"><ele>16.8</ele><time>2026-09-27T03:52:21Z</time></trkpt>
      <trkpt lat="31.691116" lon="130.614382"><ele>16.0</ele><time>2026-09-27T03:52:34Z</time></trkpt>
      <trkpt lat="31.689997" lon="130.613292"><ele>16.0</ele><time>2026-09-27T03:53:02Z</time></trkpt>
      <trkpt lat="31.687173" lon="130.611082"><ele>17.0</ele><time>2026-09-27T03:56:35Z</time></trkpt>
      <trkpt lat="31.685762" lon="130.610357"><ele>15.0</ele><time>2026-09-27T03:57:04Z</time></trkpt>
      <trkpt lat="31.683891" lon="130.609760"><ele>12.0</ele><time>2026-09-27T03:57:32Z</time></trkpt>
      <trkpt lat="31.680611" lon="130.609301"><ele>11.2</ele><time>2026-09-27T03:58:26Z</time></trkpt>
      <trkpt lat="31.679550" lon="130.609227"><ele>11.8</ele><time>2026-09-27T03:58:45Z</time></trkpt>
      <trkpt lat="31.677348" lon="130.609923"><ele>12.2</ele><time>2026-09-27T03:59:28Z</time></trkpt>
      <trkpt lat="31.676384" lon="130.610517"><ele>12.4</ele><time>2026-09-27T03:59:49Z</time></trkpt>
      <trkpt lat="31.675176" lon="130.611096"><ele>14.2</ele><time>2026-09-27T04:00:18Z</time></trkpt>
      <trkpt lat="31.674627" lon="130.611162"><ele>13.8</ele><time>2026-09-27T04:00:31Z</time></trkpt>
      <trkpt lat="31.673497" lon="130.611106"><ele>12.6</ele><time>2026-09-27T04:00:51Z</time></trkpt>
      <trkpt lat="31.673080" lon="130.611226"><ele>13.0</ele><time>2026-09-27T04:00:58Z</time></trkpt>
      <trkpt lat="31.671855" lon="130.611845"><ele>13.4</ele><time>2026-09-27T04:01:23Z</time></trkpt>
      <trkpt lat="31.669814" lon="130.612294"><ele>13.8</ele><time>2026-09-27T04:01:55Z</time></trkpt>
      <trkpt lat="31.668543" lon="130.612321"><ele>13.6</ele><time>2026-09-27T04:02:21Z</time></trkpt>
      <trkpt lat="31.666775" lon="130.612854"><ele>13.8</ele><time>2026-09-27T04:02:53Z</time></trkpt>
      <trkpt lat="31.665530" lon="130.612999"><ele>14.6</ele><time>2026-09-27T04:03:13Z</time></trkpt>
      <trkpt lat="31.665045" lon="130.613317"><ele>15.8</ele><time>2026-09-27T04:03:22Z</time></trkpt>
      <trkpt lat="31.664202" lon="130.614282"><ele>18.2</ele><time>2026-09-27T04:03:46Z</time></trkpt>
      <trkpt lat="31.663870" lon="130.614540"><ele>18.4</ele><time>2026-09-27T04:03:58Z</time></trkpt>
      <trkpt lat="31.662932" lon="130.614888"><ele>16.6</ele><time>2026-09-27T04:04:17Z</time></trkpt>
      <trkpt lat="31.662198" lon="130.615274"><ele>14.6</ele><time>2026-09-27T04:04:28Z</time></trkpt>
      <trkpt lat="31.661356" lon="130.615530"><ele>13.2</ele><time>2026-09-27T04:04:40Z</time></trkpt>
      <trkpt lat="31.660900" lon="130.615759"><ele>12.4</ele><time>2026-09-27T04:04:46Z</time></trkpt>
      <trkpt lat="31.660582" lon="130.616055"><ele>12.2</ele><time>2026-09-27T04:04:51Z</time></trkpt>
      <trkpt lat="31.660336" lon="130.616433"><ele>12.0</ele><time>2026-09-27T04:04:56Z</time></trkpt>
      <trkpt lat="31.659939" lon="130.617428"><ele>12.4</ele><time>2026-09-27T04:05:09Z</time></trkpt>
      <trkpt lat="31.659113" lon="130.619002"><ele>13.6</ele><time>2026-09-27T04:05:37Z</time></trkpt>
      <trkpt lat="31.658741" lon="130.619365"><ele>15.6</ele><time>2026-09-27T04:05:53Z</time></trkpt>
      <trkpt lat="31.658501" lon="130.619470"><ele>16.0</ele><time>2026-09-27T04:06:02Z</time></trkpt>
      <trkpt lat="31.658011" lon="130.619418"><ele>16.0</ele><time>2026-09-27T04:06:18Z</time></trkpt>
      <trkpt lat="31.656802" lon="130.618786"><ele>14.8</ele><time>2026-09-27T04:06:48Z</time></trkpt>
      <trkpt lat="31.656261" lon="130.618190"><ele>13.4</ele><time>2026-09-27T04:07:02Z</time></trkpt>
      <trkpt lat="31.656026" lon="130.617629"><ele>12.4</ele><time>2026-09-27T04:07:11Z</time></trkpt>
      <trkpt lat="31.655983" lon="130.617083"><ele>11.0</ele><time>2026-09-27T04:07:19Z</time></trkpt>
      <trkpt lat="31.656040" lon="130.616574"><ele>10.4</ele><time>2026-09-27T04:07:26Z</time></trkpt>
      <trkpt lat="31.656435" lon="130.615317"><ele>9.6</ele><time>2026-09-27T04:07:42Z</time></trkpt>
      <trkpt lat="31.656519" lon="130.614769"><ele>9.0</ele><time>2026-09-27T04:07:48Z</time></trkpt>
      <trkpt lat="31.656493" lon="130.614301"><ele>9.4</ele><time>2026-09-27T04:07:53Z</time></trkpt>
      <trkpt lat="31.655942" lon="130.612242"><ele>11.2</ele><time>2026-09-27T04:08:24Z</time></trkpt>
      <trkpt lat="31.655620" lon="130.611547"><ele>11.8</ele><time>2026-09-27T04:08:37Z</time></trkpt>
      <trkpt lat="31.654227" lon="130.609768"><ele>11.4</ele><time>2026-09-27T04:09:15Z</time></trkpt>
      <trkpt lat="31.653299" lon="130.608750"><ele>12.0</ele><time>2026-09-27T04:09:33Z</time></trkpt>
      <trkpt lat="31.650878" lon="130.607075"><ele>11.4</ele><time>2026-09-27T04:10:33Z</time></trkpt>
      <trkpt lat="31.649992" lon="130.606150"><ele>10.2</ele><time>2026-09-27T04:10:58Z</time></trkpt>
      <trkpt lat="31.647040" lon="130.604474"><ele>9.0</ele><time>2026-09-27T04:12:06Z</time></trkpt>
      <trkpt lat="31.645263" lon="130.603278"><ele>7.4</ele><time>2026-09-27T04:13:42Z</time></trkpt>
      <trkpt lat="31.644882" lon="130.603141"><ele>7.4</ele><time>2026-09-27T04:13:50Z</time></trkpt>
      <trkpt lat="31.643779" lon="130.603141"><ele>8.4</ele><time>2026-09-27T04:14:13Z</time></trkpt>
      <trkpt lat="31.642914" lon="130.602932"><ele>9.6</ele><time>2026-09-27T04:14:34Z</time></trkpt>
      <trkpt lat="31.642272" lon="130.602924"><ele>12.4</ele><time>2026-09-27T04:14:55Z</time></trkpt>
      <trkpt lat="31.640610" lon="130.602361"><ele>13.2</ele><time>2026-09-27T04:15:56Z</time></trkpt>
      <trkpt lat="31.639863" lon="130.602355"><ele>12.6</ele><time>2026-09-27T04:16:13Z</time></trkpt>
      <trkpt lat="31.638574" lon="130.602675"><ele>13.8</ele><time>2026-09-27T04:16:39Z</time></trkpt>
      <trkpt lat="31.637681" lon="130.602615"><ele>14.0</ele><time>2026-09-27T04:16:58Z</time></trkpt>
      <trkpt lat="31.634068" lon="130.601754"><ele>12.8</ele><time>2026-09-27T04:18:09Z</time></trkpt>
      <trkpt lat="31.632593" lon="130.602147"><ele>9.2</ele><time>2026-09-27T04:18:30Z</time></trkpt>
      <trkpt lat="31.631905" lon="130.602170"><ele>8.6</ele><time>2026-09-27T04:18:38Z</time></trkpt>
      <trkpt lat="31.631539" lon="130.601998"><ele>8.0</ele><time>2026-09-27T04:18:43Z</time></trkpt>
      <trkpt lat="31.631180" lon="130.601682"><ele>8.6</ele><time>2026-09-27T04:18:49Z</time></trkpt>
      <trkpt lat="31.629648" lon="130.599846"><ele>12.6</ele><time>2026-09-27T04:19:29Z</time></trkpt>
      <trkpt lat="31.629137" lon="130.598630"><ele>11.6</ele><time>2026-09-27T04:19:49Z</time></trkpt>
      <trkpt lat="31.628288" lon="130.597244"><ele>14.0</ele><time>2026-09-27T04:20:22Z</time></trkpt>
      <trkpt lat="31.626269" lon="130.595139"><ele>12.4</ele><time>2026-09-27T04:21:01Z</time></trkpt>
      <trkpt lat="31.625629" lon="130.594006"><ele>12.0</ele><time>2026-09-27T04:21:22Z</time></trkpt>
      <trkpt lat="31.625083" lon="130.592229"><ele>11.0</ele><time>2026-09-27T04:21:49Z</time></trkpt>
      <trkpt lat="31.623592" lon="130.589060"><ele>13.2</ele><time>2026-09-27T04:25:21Z</time></trkpt>
      <trkpt lat="31.623588" lon="130.588898"><ele>13.4</ele><time>2026-09-27T04:25:26Z</time></trkpt>
      <trkpt lat="31.623747" lon="130.588515"><ele>13.8</ele><time>2026-09-27T04:25:36Z</time></trkpt>
      <trkpt lat="31.623740" lon="130.588201"><ele>14.0</ele><time>2026-09-27T04:25:42Z</time></trkpt>
      <trkpt lat="31.622916" lon="130.586331"><ele>12.8</ele><time>2026-09-27T04:26:17Z</time></trkpt>
      <trkpt lat="31.622581" lon="130.585961"><ele>12.4</ele><time>2026-09-27T04:26:24Z</time></trkpt>
      <trkpt lat="31.620480" lon="130.584775"><ele>10.4</ele><time>2026-09-27T04:26:57Z</time></trkpt>
      <trkpt lat="31.619876" lon="130.584246"><ele>9.8</ele><time>2026-09-27T04:27:08Z</time></trkpt>
      <trkpt lat="31.618463" lon="130.581969"><ele>6.0</ele><time>2026-09-27T04:27:39Z</time></trkpt>
      <trkpt lat="31.618126" lon="130.581039"><ele>6.0</ele><time>2026-09-27T04:27:51Z</time></trkpt>
      <trkpt lat="31.617694" lon="130.578156"><ele>6.2</ele><time>2026-09-27T04:28:30Z</time></trkpt>
      <trkpt lat="31.617572" lon="130.577801"><ele>6.0</ele><time>2026-09-27T04:28:36Z</time></trkpt>
      <trkpt lat="31.617235" lon="130.577244"><ele>6.0</ele><time>2026-09-27T04:28:50Z</time></trkpt>
      <trkpt lat="31.617075" lon="130.577107"><ele>6.6</ele><time>2026-09-27T04:28:54Z</time></trkpt>
      <trkpt lat="31.616784" lon="130.576490"><ele>6.8</ele><time>2026-09-27T04:29:04Z</time></trkpt>
      <trkpt lat="31.616121" lon="130.574350"><ele>10.2</ele><time>2026-09-27T04:29:42Z</time></trkpt>
      <trkpt lat="31.615882" lon="130.573840"><ele>12.4</ele><time>2026-09-27T04:29:57Z</time></trkpt>
      <trkpt lat="31.615553" lon="130.573363"><ele>14.0</ele><time>2026-09-27T04:30:19Z</time></trkpt>
      <trkpt lat="31.612717" lon="130.570483"><ele>17.4</ele><time>2026-09-27T04:33:40Z</time></trkpt>
      <trkpt lat="31.610371" lon="130.570025"><ele>14.2</ele><time>2026-09-27T04:34:25Z</time></trkpt>
      <trkpt lat="31.610111" lon="130.569913"><ele>16.6</ele><time>2026-09-27T04:34:29Z</time></trkpt>
      <trkpt lat="31.609085" lon="130.569350"><ele>11.8</ele><time>2026-09-27T04:34:44Z</time></trkpt>
      <trkpt lat="31.606810" lon="130.567906"><ele>7.8</ele><time>2026-09-27T04:35:17Z</time></trkpt>
      <trkpt lat="31.606108" lon="130.567114"><ele>7.8</ele><time>2026-09-27T04:35:33Z</time></trkpt>
      <trkpt lat="31.605822" lon="130.567396"><ele>7.8</ele><time>2026-09-27T04:35:41Z</time></trkpt>
      <trkpt lat="31.605711" lon="130.567413"><ele>8.0</ele><time>2026-09-27T04:35:45Z</time></trkpt>
      <trkpt lat="31.605103" lon="130.566969"><ele>6.6</ele><time>2026-09-27T04:35:58Z</time></trkpt>
      <trkpt lat="31.602289" lon="130.563648"><ele>5.4</ele><time>2026-09-27T04:37:09Z</time></trkpt>
      <trkpt lat="31.601896" lon="130.563022"><ele>6.4</ele><time>2026-09-27T04:37:21Z</time></trkpt>
      <trkpt lat="31.601488" lon="130.561932"><ele>6.8</ele><time>2026-09-27T04:37:37Z</time></trkpt>
      <trkpt lat="31.601045" lon="130.561764"><ele>7.2</ele><time>2026-09-27T04:37:48Z</time></trkpt>
      <trkpt lat="31.600808" lon="130.561184"><ele>6.8</ele><time>2026-09-27T04:38:03Z</time></trkpt>
      <trkpt lat="31.599583" lon="130.558959"><ele>6.8</ele><time>2026-09-27T04:39:30Z</time></trkpt>
      <trkpt lat="31.597783" lon="130.557357"><ele>5.2</ele><time>2026-09-27T04:40:17Z</time></trkpt>
      <trkpt lat="31.597610" lon="130.557105"><ele>4.6</ele><time>2026-09-27T04:40:22Z</time></trkpt>
      <trkpt lat="31.596124" lon="130.556101"><ele>6.0</ele><time>2026-09-27T04:40:52Z</time></trkpt>
      <trkpt lat="31.596037" lon="130.556082"><ele>5.8</ele><time>2026-09-27T04:40:54Z</time></trkpt>
      <trkpt lat="31.596010" lon="130.556204"><ele>6.0</ele><time>2026-09-27T04:40:56Z</time></trkpt>
      <trkpt lat="31.595718" lon="130.556443"><ele>6.2</ele><time>2026-09-27T04:41:03Z</time></trkpt>
      <trkpt lat="31.594335" lon="130.555826"><ele>6.6</ele><time>2026-09-27T04:41:29Z</time></trkpt>
      <trkpt lat="31.592804" lon="130.555439"><ele>6.6</ele><time>2026-09-27T04:42:05Z</time></trkpt>
      <trkpt lat="31.592401" lon="130.555179"><ele>7.4</ele><time>2026-09-27T04:42:15Z</time></trkpt>
      <trkpt lat="31.592092" lon="130.555865"><ele>7.0</ele><time>2026-09-27T04:42:32Z</time></trkpt>
      <trkpt lat="31.591806" lon="130.556138"><ele>7.0</ele><time>2026-09-27T04:42:38Z</time></trkpt>
      <trkpt lat="31.589885" lon="130.557140"><ele>6.4</ele><time>2026-09-27T04:43:12Z</time></trkpt>
      <trkpt lat="31.588043" lon="130.558387"><ele>6.2</ele><time>2026-09-27T04:43:49Z</time></trkpt>
      <trkpt lat="31.587000" lon="130.558961"><ele>6.0</ele><time>2026-09-27T04:44:09Z</time></trkpt>
      <trkpt lat="31.586556" lon="130.559393"><ele>5.0</ele><time>2026-09-27T04:44:41Z</time></trkpt>
      <trkpt lat="31.583509" lon="130.561284"><ele>5.4</ele><time>2026-09-27T04:45:36Z</time></trkpt>
      <trkpt lat="31.582019" lon="130.562260"><ele>5.0</ele><time>2026-09-27T04:46:54Z</time></trkpt>
      <trkpt lat="31.581845" lon="130.562447"><ele>5.2</ele><time>2026-09-27T04:47:20Z</time></trkpt>
      <trkpt lat="31.581621" lon="130.562522"><ele>5.4</ele><time>2026-09-27T04:47:25Z</time></trkpt>
      <trkpt lat="31.579898" lon="130.562649"><ele>5.2</ele><time>2026-09-27T04:47:56Z</time></trkpt>
      <trkpt lat="31.578675" lon="130.562496"><ele>6.6</ele><time>2026-09-27T04:48:18Z</time></trkpt>
      <trkpt lat="31.578012" lon="130.562136"><ele>5.6</ele><time>2026-09-27T04:48:31Z</time></trkpt>
      <trkpt lat="31.577242" lon="130.561499"><ele>7.0</ele><time>2026-09-27T04:48:47Z</time></trkpt>
      <trkpt lat="31.575267" lon="130.560457"><ele>5.2</ele><time>2026-09-27T04:49:30Z</time></trkpt>
      <trkpt lat="31.574443" lon="130.561747"><ele>4.4</ele><time>2026-09-27T04:49:50Z</time></trkpt>
      <trkpt lat="31.574082" lon="130.562558"><ele>4.8</ele><time>2026-09-27T04:50:02Z</time></trkpt>
      <trkpt lat="31.573287" lon="130.563669"><ele>4.2</ele><time>2026-09-27T04:50:23Z</time></trkpt>
      <trkpt lat="31.573154" lon="130.563656"><ele>3.6</ele><time>2026-09-27T04:50:28Z</time></trkpt>
      <trkpt lat="31.572988" lon="130.563876"><ele>4.0</ele><time>2026-09-27T04:50:35Z</time></trkpt>
      <trkpt lat="31.571302" lon="130.563749"><ele>4.6</ele><time>2026-09-27T04:51:12Z</time></trkpt>
      <trkpt lat="31.571076" lon="130.563841"><ele>4.4</ele><time>2026-09-27T04:51:17Z</time></trkpt>
      <trkpt lat="31.569283" lon="130.564019"><ele>3.8</ele><time>2026-09-27T04:51:57Z</time></trkpt>
      <trkpt lat="31.569197" lon="130.563974"><ele>3.8</ele><time>2026-09-27T04:52:00Z</time></trkpt>
      <trkpt lat="31.569183" lon="130.563861"><ele>4.0</ele><time>2026-09-27T04:52:17Z</time></trkpt>
      <trkpt lat="31.569231" lon="130.563894"><ele>4.0</ele><time>2026-09-27T04:52:30Z</time></trkpt>
      <trkpt lat="31.569089" lon="130.563849"><ele>3.8</ele><time>2026-09-27T04:52:39Z</time></trkpt>
    </trkseg>
  </trk>
</gpx>
