<?xml version="1.0" encoding="UTF-8"?>
<gpx version="1.1" creator="gpx2reel" xmlns="http://www.topografix.com/GPX/1/1">
  <trk><name>Day 3</name>
    <trkseg>
      <trkpt lat="32.886005" lon="131.054964"><ele>1136.8</ele><time>2026-09-23T02:05:45Z</time></trkpt>
      <trkpt lat="32.885930" lon="131.054832"><ele>1136.6</ele><time>2026-09-23T02:05:52Z</time></trkpt>
      <trkpt lat="32.886016" lon="131.055067"><ele>1136.8</ele><time>2026-09-23T02:06:03Z</time></trkpt>
      <trkpt lat="32.885885" lon="131.055161"><ele>1138.0</ele><time>2026-09-23T02:07:37Z</time></trkpt>
      <trkpt lat="32.885816" lon="131.054887"><ele>1137.2</ele><time>2026-09-23T02:08:40Z</time></trkpt>
      <trkpt lat="32.885792" lon="131.054952"><ele>1137.2</ele><time>2026-09-23T02:08:44Z</time></trkpt>
      <trkpt lat="32.886219" lon="131.056515"><ele>1127.6</ele><time>2026-09-23T02:09:08Z</time></trkpt>
      <trkpt lat="32.886196" lon="131.056775"><ele>1126.4</ele><time>2026-09-23T02:09:11Z</time></trkpt>
      <trkpt lat="32.886018" lon="131.057495"><ele>1123.0</ele><time>2026-09-23T02:09:19Z</time></trkpt>
      <trkpt lat="32.885260" lon="131.058536"><ele>1117.8</ele><time>2026-09-23T02:09:32Z</time></trkpt>
      <trkpt lat="32.885129" lon="131.058826"><ele>1117.4</ele><time>2026-09-23T02:09:35Z</time></trkpt>
      <trkpt lat="32.884960" lon="131.059830"><ele>1115.0</ele><time>2026-09-23T02:09:45Z</time></trkpt>
      <trkpt lat="32.885091" lon="131.060193"><ele>1114.0</ele><time>2026-09-23T02:09:49Z</time></trkpt>
      <trkpt lat="32.885705" lon="131.061220"><ele>1112.8</ele><time>2026-09-23T02:10:02Z</time></trkpt>
      <trkpt lat="32.885673" lon="131.061571"><ele>1112.4</ele><time>2026-09-23T02:10:06Z</time></trkpt>
      <trkpt lat="32.883056" lon="131.066879"><ele>1110.0</ele><time>2026-09-23T02:11:14Z</time></trkpt>
      <trkpt lat="32.880682" lon="131.070206"><ele>1122.6</ele><time>2026-09-23T02:15:55Z</time></trkpt>
      <trkpt lat="32.880275" lon="131.069699"><ele>1122.2</ele><time>2026-09-23T02:17:27Z</time></trkpt>
      <trkpt lat="32.880579" lon="131.070081"><ele>1123.0</ele><time>2026-09-23T02:17:44Z</time></trkpt>
      <trkpt lat="32.880603" lon="131.071666"><ele>1131.2</ele><time>2026-09-23T02:18:35Z</time></trkpt>
      <trkpt lat="32.880264" lon="131.072430"><ele>1136.4</ele><time>2026-09-23T02:19:14Z</time></trkpt>
      <trkpt lat="32.880091" lon="131.073790"><ele>1144.4</ele><time>2026-09-23T02:20:26Z</time></trkpt>
      <trkpt lat="32.879818" lon="131.073735"><ele>1144.2</ele><time>2026-09-23T02:20:38Z</time></trkpt>
      <trkpt lat="32.879768" lon="131.073813"><ele>1144.6</ele><time>2026-09-23T02:20:41Z</time></trkpt>
      <trkpt lat="32.880059" lon="131.073854"><ele>1145.4</ele><time>2026-09-23T02:20:54Z</time></trkpt>
      <trkpt lat="32.880147" lon="131.073942"><ele>1145.4</ele><time>2026-09-23T02:21:02Z</time></trkpt>
      <trkpt lat="32.880122" lon="131.074224"><ele>1145.8</ele><time>2026-09-23T02:21:15Z</time></trkpt>
      <trkpt lat="32.880344" lon="131.074444"><ele>1145.6</ele><time>2026-09-23T02:21:29Z</time></trkpt>
      <trkpt lat="32.880351" lon="131.074613"><ele>1146.6</ele><time>2026-09-23T02:25:10Z</time></trkpt>
      <trkpt lat="32.880297" lon="131.074402"><ele>1146.0</ele><time>2026-09-23T02:26:20Z</time></trkpt>
      <trkpt lat="32.880028" lon="131.074121"><ele>1146.0</ele><time>2026-09-23T02:26:33Z</time></trkpt>
      <trkpt lat="32.879904" lon="131.074112"><ele>1146.0</ele><time>2026-09-23T02:26:41Z</time></trkpt>
      <trkpt lat="32.880160" lon="131.073920"><ele>1146.6</ele><time>2026-09-23T02:26:51Z</time></trkpt>
      <trkpt lat="32.880202" lon="131.072465"><ele>1140.2</ele><time>2026-09-23T02:27:15Z</time></trkpt>
      <trkpt lat="32.880534" lon="131.071819"><ele>1135.8</ele><time>2026-09-23T02:27:23Z</time></trkpt>
      <trkpt lat="32.880487" lon="131.070711"><ele>1129.0</ele><time>2026-09-23T02:27:33Z</time></trkpt>
      <trkpt lat="32.880533" lon="131.070101"><ele>1124.8</ele><time>2026-09-23T02:27:39Z</time></trkpt>
      <trkpt lat="32.878800" lon="131.067930"><ele>1113.2</ele><time>2026-09-23T02:28:05Z</time></trkpt>
      <trkpt lat="32.878454" lon="131.067584"><ele>1111.0</ele><time>2026-09-23T02:28:09Z</time></trkpt>
      <trkpt lat="32.878052" lon="131.067340"><ele>1108.4</ele><time>2026-09-23T02:28:13Z</time></trkpt>
      <trkpt lat="32.877403" lon="131.067169"><ele>1106.0</ele><time>2026-09-23T02:28:19Z</time></trkpt>
      <trkpt lat="32.876900" lon="131.067191"><ele>1103.4</ele><time>2026-09-23T02:28:24Z</time></trkpt>
      <trkpt lat="32.876426" lon="131.067336"><ele>1101.4</ele><time>2026-09-23T02:28:29Z</time></trkpt>
      <trkpt lat="32.875276" lon="131.067975"><ele>1097.4</ele><time>2026-09-23T02:28:42Z</time></trkpt>
      <trkpt lat="32.874765" lon="131.068511"><ele>1096.2</ele><time>2026-09-23T02:28:49Z</time></trkpt>
      <trkpt lat="32.874319" lon="131.069641"><ele>1094.4</ele><time>2026-09-23T02:29:00Z</time></trkpt>
      <trkpt lat="32.874040" lon="131.069880"><ele>1093.2</ele><time>2026-09-23T02:29:04Z</time></trkpt>
      <trkpt lat="32.873684" lon="131.069792"><ele>1092.8</ele><time>2026-09-23T02:29:08Z</time></trkpt>
      <trkpt lat="32.873544" lon="131.069557"><ele>1091.6</ele><time>2026-09-23T02:29:11Z</time></trkpt>
      <trkpt lat="32.873715" lon="131.068823"><ele>1088.2</ele><time>2026-09-23T02:29:17Z</time></trkpt>
      <trkpt lat="32.873646" lon="131.068497"><ele>1085.4</ele><time>2026-09-23T02:29:20Z</time></trkpt>
      <trkpt lat="32.873530" lon="131.068311"><ele>1083.6</ele><time>2026-09-23T02:29:22Z</time></trkpt>
      <trkpt lat="32.872959" lon="131.067931"><ele>1078.0</ele><time>2026-09-23T02:29:29Z</time></trkpt>
      <trkpt lat="32.872456" lon="131.067008"><ele>1070.6</ele><time>2026-09-23T02:29:38Z</time></trkpt>
      <trkpt lat="32.872246" lon="131.066877"><ele>1067.2</ele><time>2026-09-23T02:29:41Z</time></trkpt>
      <trkpt lat="32.871910" lon="131.067030"><ele>1064.6</ele><time>2026-09-23T02:29:45Z</time></trkpt>
      <trkpt lat="32.871579" lon="131.067605"><ele>1062.6</ele><time>2026-09-23T02:29:52Z</time></trkpt>
      <trkpt lat="32.871138" lon="131.067747"><ele>1060.2</ele><time>2026-09-23T02:29:58Z</time></trkpt>
      <trkpt lat="32.870316" lon="131.067575"><ele>1053.6</ele><time>2026-09-23T02:30:07Z</time></trkpt>
      <trkpt lat="32.869776" lon="131.067752"><ele>1047.4</ele><time>2026-09-23T02:30:13Z</time></trkpt>
      <trkpt lat="32.869116" lon="131.069091"><ele>1036.6</ele><time>2026-09-23T02:30:27Z</time></trkpt>
      <trkpt lat="32.868797" lon="131.069295"><ele>1032.8</ele><time>2026-09-23T02:30:32Z</time></trkpt>
      <trkpt lat="32.868462" lon="131.069205"><ele>1030.2</ele><time>2026-09-23T02:30:37Z</time></trkpt>
      <trkpt lat="32.868394" lon="131.068870"><ele>1027.6</ele><time>2026-09-23T02:30:40Z</time></trkpt>
      <trkpt lat="32.868898" lon="131.068153"><ele>1024.0</ele><time>2026-09-23T02:30:47Z</time></trkpt>
      <trkpt lat="32.869654" lon="131.067357"><ele>1021.0</ele><time>2026-09-23T02:30:57Z</time></trkpt>
      <trkpt lat="32.869798" lon="131.067071"><ele>1020.8</ele><time>2026-09-23T02:31:00Z</time></trkpt>
      <trkpt lat="32.869849" lon="131.066148"><ele>1018.4</ele><time>2026-09-23T02:31:08Z</time></trkpt>
      <trkpt lat="32.869802" lon="131.065924"><ele>1017.6</ele><time>2026-09-23T02:31:10Z</time></trkpt>
      <trkpt lat="32.869139" lon="131.064826"><ele>1011.0</ele><time>2026-09-23T02:31:20Z</time></trkpt>
      <trkpt lat="32.868549" lon="131.064204"><ele>1006.0</ele><time>2026-09-23T02:31:26Z</time></trkpt>
      <trkpt lat="32.866863" lon="131.061931"><ele>995.2</ele><time>2026-09-23T02:31:48Z</time></trkpt>
      <trkpt lat="32.864016" lon="131.052822"><ele>964.8</ele><time>2026-09-23T02:33:19Z</time></trkpt>
      <trkpt lat="32.862372" lon="131.051082"><ele>948.4</ele><time>2026-09-23T02:33:39Z</time></trkpt>
      <trkpt lat="32.861370" lon="131.049714"><ele>936.0</ele><time>2026-09-23T02:33:52Z</time></trkpt>
      <trkpt lat="32.861110" lon="131.049468"><ele>930.8</ele><time>2026-09-23T02:33:57Z</time></trkpt>
      <trkpt lat="32.861067" lon="131.049280"><ele>928.8</ele><time>2026-09-23T02:34:06Z</time></trkpt>
      <trkpt lat="32.860989" lon="131.049353"><ele>924.2</ele><time>2026-09-23T02:36:40Z</time></trkpt>
      <trkpt lat="32.860598" lon="131.049435"><ele>922.4</ele><time>2026-09-23T02:36:49Z</time></trkpt>
      <trkpt lat="32.860380" lon="131.049706"><ele>921.0</ele><time>2026-09-23T02:36:54Z</time></trkpt>
      <trkpt lat="32.860331" lon="131.050060"><ele>919.2</ele><time>2026-09-23T02:36:58Z</time></trkpt>
      <trkpt lat="32.860416" lon="131.051037"><ele>913.0</ele><time>2026-09-23T02:37:07Z</time></trkpt>
      <trkpt lat="32.860357" lon="131.051270"><ele>911.8</ele><time>2026-09-23T02:37:09Z</time></trkpt>
      <trkpt lat="32.860082" lon="131.051514"><ele>910.6</ele><time>2026-09-23T02:37:12Z</time></trkpt>
      <trkpt lat="32.859963" lon="131.051514"><ele>910.0</ele><time>2026-09-23T02:37:13Z</time></trkpt>
      <trkpt lat="32.859711" lon="131.051329"><ele>908.2</ele><time>2026-09-23T02:37:16Z</time></trkpt>
      <trkpt lat="32.859633" lon="131.051196"><ele>907.2</ele><time>2026-09-23T02:37:17Z</time></trkpt>
      <trkpt lat="32.859537" lon="131.049597"><ele>899.0</ele><time>2026-09-23T02:37:30Z</time></trkpt>
      <trkpt lat="32.859361" lon="131.049350"><ele>896.2</ele><time>2026-09-23T02:37:33Z</time></trkpt>
      <trkpt lat="32.858993" lon="131.049054"><ele>893.6</ele><time>2026-09-23T02:37:38Z</time></trkpt>
      <trkpt lat="32.858882" lon="131.048709"><ele>891.8</ele><time>2026-09-23T02:37:42Z</time></trkpt>
      <trkpt lat="32.859008" lon="131.047366"><ele>884.6</ele><time>2026-09-23T02:37:54Z</time></trkpt>
      <trkpt lat="32.859346" lon="131.046514"><ele>877.2</ele><time>2026-09-23T02:38:03Z</time></trkpt>
      <trkpt lat="32.859310" lon="131.046216"><ele>874.6</ele><time>2026-09-23T02:38:06Z</time></trkpt>
      <trkpt lat="32.859139" lon="131.045995"><ele>873.0</ele><time>2026-09-23T02:38:09Z</time></trkpt>
      <trkpt lat="32.856680" lon="131.045519"><ele>857.0</ele><time>2026-09-23T02:38:38Z</time></trkpt>
      <trkpt lat="32.856466" lon="131.045573"><ele>855.4</ele><time>2026-09-23T02:38:41Z</time></trkpt>
      <trkpt lat="32.856220" lon="131.045782"><ele>853.0</ele><time>2026-09-23T02:38:45Z</time></trkpt>
      <trkpt lat="32.856252" lon="131.046150"><ele>851.2</ele><time>2026-09-23T02:38:49Z</time></trkpt>
      <trkpt lat="32.856514" lon="131.046510"><ele>848.8</ele><time>2026-09-23T02:38:54Z</time></trkpt>
      <trkpt lat="32.857299" lon="131.046984"><ele>843.4</ele><time>2026-09-23T02:39:03Z</time></trkpt>
      <trkpt lat="32.857397" lon="131.047265"><ele>842.2</ele><time>2026-09-23T02:39:06Z</time></trkpt>
      <trkpt lat="32.857368" lon="131.047563"><ele>840.6</ele><time>2026-09-23T02:39:09Z</time></trkpt>
      <trkpt lat="32.857257" lon="131.047700"><ele>839.4</ele><time>2026-09-23T02:39:11Z</time></trkpt>
      <trkpt lat="32.856703" lon="131.047863"><ele>835.4</ele><time>2026-09-23T02:39:18Z</time></trkpt>
      <trkpt lat="32.856051" lon="131.047628"><ele>830.0</ele><time>2026-09-23T02:39:24Z</time></trkpt>
      <trkpt lat="32.855617" lon="131.047656"><ele>826.2</ele><time>2026-09-23T02:39:29Z</time></trkpt>
      <trkpt lat="32.855354" lon="131.047785"><ele>824.0</ele><time>2026-09-23T02:39:32Z</time></trkpt>
      <trkpt lat="32.855010" lon="131.048109"><ele>819.0</ele><time>2026-09-23T02:39:37Z</time></trkpt>
      <trkpt lat="32.854593" lon="131.048221"><ele>815.4</ele><time>2026-09-23T02:39:44Z</time></trkpt>
      <trkpt lat="32.854336" lon="131.047861"><ele>811.2</ele><time>2026-09-23T02:39:52Z</time></trkpt>
      <trkpt lat="32.854395" lon="131.047555"><ele>809.4</ele><time>2026-09-23T02:39:54Z</time></trkpt>
      <trkpt lat="32.853938" lon="131.045774"><ele>797.8</ele><time>2026-09-23T02:40:11Z</time></trkpt>
      <trkpt lat="32.853416" lon="131.045063"><ele>792.6</ele><time>2026-09-23T02:40:26Z</time></trkpt>
      <trkpt lat="32.853467" lon="131.045078"><ele>792.2</ele><time>2026-09-23T02:40:38Z</time></trkpt>
      <trkpt lat="32.853188" lon="131.044304"><ele>787.0</ele><time>2026-09-23T02:40:56Z</time></trkpt>
      <trkpt lat="32.853054" lon="131.043638"><ele>781.6</ele><time>2026-09-23T02:41:07Z</time></trkpt>
      <trkpt lat="32.852893" lon="131.043480"><ele>779.2</ele><time>2026-09-23T02:41:16Z</time></trkpt>
      <trkpt lat="32.852888" lon="131.043378"><ele>778.8</ele><time>2026-09-23T02:41:21Z</time></trkpt>
      <trkpt lat="32.852956" lon="131.043377"><ele>779.4</ele><time>2026-09-23T02:44:24Z</time></trkpt>
      <trkpt lat="32.852997" lon="131.043504"><ele>779.2</ele><time>2026-09-23T02:44:31Z</time></trkpt>
      <trkpt lat="32.853076" lon="131.043410"><ele>779.2</ele><time>2026-09-23T02:44:37Z</time></trkpt>
      <trkpt lat="32.853030" lon="131.042816"><ele>776.0</ele><time>2026-09-23T02:44:46Z</time></trkpt>
      <trkpt lat="32.852893" lon="131.042553"><ele>775.2</ele><time>2026-09-23T02:44:50Z</time></trkpt>
      <trkpt lat="32.852746" lon="131.042461"><ele>774.4</ele><time>2026-09-23T02:44:53Z</time></trkpt>
      <trkpt lat="32.852520" lon="131.042731"><ele>770.6</ele><time>2026-09-23T02:44:59Z</time></trkpt>
      <trkpt lat="32.852737" lon="131.043595"><ele>764.4</ele><time>2026-09-23T02:45:12Z</time></trkpt>
      <trkpt lat="32.852970" lon="131.045462"><ele>750.6</ele><time>2026-09-23T02:45:35Z</time></trkpt>
      <trkpt lat="32.853231" lon="131.045941"><ele>745.6</ele><time>2026-09-23T02:45:42Z</time></trkpt>
      <trkpt lat="32.853411" lon="131.046991"><ele>739.4</ele><time>2026-09-23T02:45:53Z</time></trkpt>
      <trkpt lat="32.853229" lon="131.047523"><ele>736.6</ele><time>2026-09-23T02:45:59Z</time></trkpt>
      <trkpt lat="32.853133" lon="131.047346"><ele>735.6</ele><time>2026-09-23T02:46:01Z</time></trkpt>
      <trkpt lat="32.853072" lon="131.046926"><ele>734.0</ele><time>2026-09-23T02:46:07Z</time></trkpt>
      <trkpt lat="32.852501" lon="131.045651"><ele>726.6</ele><time>2026-09-23T02:46:22Z</time></trkpt>
      <trkpt lat="32.852264" lon="131.044816"><ele>723.0</ele><time>2026-09-23T02:46:30Z</time></trkpt>
      <trkpt lat="32.851437" lon="131.043219"><ele>712.2</ele><time>2026-09-23T02:46:48Z</time></trkpt>
      <trkpt lat="32.851413" lon="131.042734"><ele>710.2</ele><time>2026-09-23T02:46:52Z</time></trkpt>
      <trkpt lat="32.851675" lon="131.041717"><ele>703.8</ele><time>2026-09-23T02:47:03Z</time></trkpt>
      <trkpt lat="32.851613" lon="131.041586"><ele>701.8</ele><time>2026-09-23T02:47:06Z</time></trkpt>
      <trkpt lat="32.851486" lon="131.041585"><ele>700.6</ele><time>2026-09-23T02:47:09Z</time></trkpt>
      <trkpt lat="32.851302" lon="131.041970"><ele>698.4</ele><time>2026-09-23T02:47:14Z</time></trkpt>
      <trkpt lat="32.851284" lon="131.042405"><ele>695.4</ele><time>2026-09-23T02:47:19Z</time></trkpt>
      <trkpt lat="32.850925" lon="131.043478"><ele>691.6</ele><time>2026-09-23T02:47:31Z</time></trkpt>
      <trkpt lat="32.851028" lon="131.043857"><ele>689.6</ele><time>2026-09-23T02:47:35Z</time></trkpt>
      <trkpt lat="32.851415" lon="131.044289"><ele>685.8</ele><time>2026-09-23T02:47:41Z</time></trkpt>
      <trkpt lat="32.851643" lon="131.044761"><ele>682.0</ele><time>2026-09-23T02:47:47Z</time></trkpt>
      <trkpt lat="32.851625" lon="131.046641"><ele>671.6</ele><time>2026-09-23T02:48:08Z</time></trkpt>
      <trkpt lat="32.851481" lon="131.047721"><ele>667.0</ele><time>2026-09-23T02:48:20Z</time></trkpt>
      <trkpt lat="32.851739" lon="131.049127"><ele>660.4</ele><time>2026-09-23T02:48:35Z</time></trkpt>
      <trkpt lat="32.851707" lon="131.049898"><ele>655.8</ele><time>2026-09-23T02:48:46Z</time></trkpt>
      <trkpt lat="32.851317" lon="131.050300"><ele>653.4</ele><time>2026-09-23T02:48:54Z</time></trkpt>
      <trkpt lat="32.850580" lon="131.050414"><ele>648.0</ele><time>2026-09-23T02:49:05Z</time></trkpt>
      <trkpt lat="32.850257" lon="131.050268"><ele>646.0</ele><time>2026-09-23T02:49:09Z</time></trkpt>
      <trkpt lat="32.849375" lon="131.049477"><ele>638.2</ele><time>2026-09-23T02:49:22Z</time></trkpt>
      <trkpt lat="32.848621" lon="131.048937"><ele>631.6</ele><time>2026-09-23T02:49:32Z</time></trkpt>
      <trkpt lat="32.848121" lon="131.048787"><ele>628.0</ele><time>2026-09-23T02:49:39Z</time></trkpt>
      <trkpt lat="32.847861" lon="131.048815"><ele>626.4</ele><time>2026-09-23T02:49:42Z</time></trkpt>
      <trkpt lat="32.847629" lon="131.048986"><ele>624.8</ele><time>2026-09-23T02:49:45Z</time></trkpt>
      <trkpt lat="32.847352" lon="131.049737"><ele>621.0</ele><time>2026-09-23T02:49:54Z</time></trkpt>
      <trkpt lat="32.847453" lon="131.050427"><ele>619.6</ele><time>2026-09-23T02:49:58Z</time></trkpt>
      <trkpt lat="32.847679" lon="131.051087"><ele>618.2</ele><time>2026-09-23T02:50:04Z</time></trkpt>
      <trkpt lat="32.847958" lon="131.051343"><ele>616.6</ele><time>2026-09-23T02:50:08Z</time></trkpt>
      <trkpt lat="32.848534" lon="131.051387"><ele>613.8</ele><time>2026-09-23T02:50:15Z</time></trkpt>
      <trkpt lat="32.849000" lon="131.051622"><ele>611.6</ele><time>2026-09-23T02:50:20Z</time></trkpt>
      <trkpt lat="32.849265" lon="131.052064"><ele>611.6</ele><time>2026-09-23T02:50:26Z</time></trkpt>
      <trkpt lat="32.849191" lon="131.052299"><ele>611.4</ele><time>2026-09-23T02:50:29Z</time></trkpt>
      <trkpt lat="32.847755" lon="131.052840"><ele>608.4</ele><time>2026-09-23T02:51:09Z</time></trkpt>
      <trkpt lat="32.847354" lon="131.053225"><ele>607.8</ele><time>2026-09-23T02:51:19Z</time></trkpt>
      <trkpt lat="32.846923" lon="131.054116"><ele>603.2</ele><time>2026-09-23T02:51:30Z</time></trkpt>
      <trkpt lat="32.846271" lon="131.056237"><ele>595.2</ele><time>2026-09-23T02:51:47Z</time></trkpt>
      <trkpt lat="32.846036" lon="131.057248"><ele>594.2</ele><time>2026-09-23T02:51:56Z</time></trkpt>
      <trkpt lat="32.845670" lon="131.058027"><ele>593.0</ele><time>2026-09-23T02:52:05Z</time></trkpt>
      <trkpt lat="32.845415" lon="131.058239"><ele>593.0</ele><time>2026-09-23T02:52:09Z</time></trkpt>
      <trkpt lat="32.844668" lon="131.058506"><ele>591.0</ele><time>2026-09-23T02:52:18Z</time></trkpt>
      <trkpt lat="32.844152" lon="131.058380"><ele>588.2</ele><time>2026-09-23T02:52:23Z</time></trkpt>
      <trkpt lat="32.843559" lon="131.058472"><ele>584.6</ele><time>2026-09-23T02:52:29Z</time></trkpt>
      <trkpt lat="32.843087" lon="131.059067"><ele>580.4</ele><time>2026-09-23T02:52:36Z</time></trkpt>
      <trkpt lat="32.843202" lon="131.059530"><ele>576.8</ele><time>2026-09-23T02:52:41Z</time></trkpt>
      <trkpt lat="32.843628" lon="131.059985"><ele>574.6</ele><time>2026-09-23T02:52:46Z</time></trkpt>
      <trkpt lat="32.844645" lon="131.060250"><ele>571.4</ele><time>2026-09-23T02:52:55Z</time></trkpt>
      <trkpt lat="32.845077" lon="131.060674"><ele>569.0</ele><time>2026-09-23T02:53:01Z</time></trkpt>
      <trkpt lat="32.844999" lon="131.060901"><ele>568.2</ele><time>2026-09-23T02:53:04Z</time></trkpt>
      <trkpt lat="32.844154" lon="131.061600"><ele>562.2</ele><time>2026-09-23T02:53:14Z</time></trkpt>
      <trkpt lat="32.843507" lon="131.061904"><ele>557.8</ele><time>2026-09-23T02:53:21Z</time></trkpt>
      <trkpt lat="32.842876" lon="131.061818"><ele>554.2</ele><time>2026-09-23T02:53:27Z</time></trkpt>
      <trkpt lat="32.842136" lon="131.061834"><ele>548.0</ele><time>2026-09-23T02:53:35Z</time></trkpt>
      <trkpt lat="32.841728" lon="131.062251"><ele>544.8</ele><time>2026-09-23T02:53:41Z</time></trkpt>
      <trkpt lat="32.841484" lon="131.062943"><ele>540.8</ele><time>2026-09-23T02:53:50Z</time></trkpt>
      <trkpt lat="32.841235" lon="131.063153"><ele>539.2</ele><time>2026-09-23T02:53:54Z</time></trkpt>
      <trkpt lat="32.840098" lon="131.063243"><ele>537.0</ele><time>2026-09-23T02:54:10Z</time></trkpt>
      <trkpt lat="32.839646" lon="131.063488"><ele>536.4</ele><time>2026-09-23T02:54:16Z</time></trkpt>
      <trkpt lat="32.839353" lon="131.063889"><ele>535.8</ele><time>2026-09-23T02:54:22Z</time></trkpt>
      <trkpt lat="32.839088" lon="131.064951"><ele>535.0</ele><time>2026-09-23T02:54:32Z</time></trkpt>
      <trkpt lat="32.838733" lon="131.065805"><ele>535.6</ele><time>2026-09-23T02:54:43Z</time></trkpt>
      <trkpt lat="32.836568" lon="131.068836"><ele>530.6</ele><time>2026-09-23T02:55:33Z</time></trkpt>
      <trkpt lat="32.835921" lon="131.069571"><ele>526.2</ele><time>2026-09-23T02:55:45Z</time></trkpt>
      <trkpt lat="32.834510" lon="131.070451"><ele>514.4</ele><time>2026-09-23T02:56:06Z</time></trkpt>
      <trkpt lat="32.833868" lon="131.070631"><ele>509.2</ele><time>2026-09-23T02:56:57Z</time></trkpt>
      <trkpt lat="32.832765" lon="131.070654"><ele>505.6</ele><time>2026-09-23T02:57:14Z</time></trkpt>
      <trkpt lat="32.826536" lon="131.070229"><ele>475.0</ele><time>2026-09-23T02:58:24Z</time></trkpt>
      <trkpt lat="32.826281" lon="131.070219"><ele>474.4</ele><time>2026-09-23T02:58:28Z</time></trkpt>
      <trkpt lat="32.826181" lon="131.070325"><ele>472.8</ele><time>2026-09-23T02:58:31Z</time></trkpt>
      <trkpt lat="32.825304" lon="131.077687"><ele>477.6</ele><time>2026-09-23T03:01:48Z</time></trkpt>
      <trkpt lat="32.823896" lon="131.081839"><ele>481.2</ele><time>2026-09-23T03:03:10Z</time></trkpt>
      <trkpt lat="32.823757" lon="131.082460"><ele>482.0</ele><time>2026-09-23T03:03:22Z</time></trkpt>
      <trkpt lat="32.823561" lon="131.098525"><ele>494.4</ele><time>2026-09-23T03:09:52Z</time></trkpt>
      <trkpt lat="32.823120" lon="131.099542"><ele>492.0</ele><time>2026-09-23T03:10:05Z</time></trkpt>
      <trkpt lat="32.822344" lon="131.100175"><ele>494.0</ele><time>2026-09-23T03:10:22Z</time></trkpt>
      <trkpt lat="32.821919" lon="131.100675"><ele>497.4</ele><time>2026-09-23T03:10:38Z</time></trkpt>
      <trkpt lat="32.821900" lon="131.101249"><ele>500.4</ele><time>2026-09-23T03:10:54Z</time></trkpt>
      <trkpt lat="32.821430" lon="131.101522"><ele>502.4</ele><time>2026-09-23T03:11:18Z</time></trkpt>
      <trkpt lat="32.820946" lon="131.101935"><ele>505.8</ele><time>2026-09-23T03:11:43Z</time></trkpt>
      <trkpt lat="32.820646" lon="131.102293"><ele>507.6</ele><time>2026-09-23T03:12:00Z</time></trkpt>
      <trkpt lat="32.820406" lon="131.102752"><ele>508.4</ele><time>2026-09-23T03:12:16Z</time></trkpt>
      <trkpt lat="32.819793" lon="131.105109"><ele>511.6</ele><time>2026-09-23T03:13:22Z</time></trkpt>
      <trkpt lat="32.819811" lon="131.104904"><ele>511.6</ele><time>2026-09-23T03:13:28Z</time></trkpt>
      <trkpt lat="32.819843" lon="131.104797"><ele>511.8</ele><time>2026-09-23T03:13:32Z</time></trkpt>
      <trkpt lat="32.819822" lon="131.105109"><ele>511.0</ele><time>2026-09-23T03:14:14Z</time></trkpt>
      <trkpt lat="32.817758" lon="131.113319"><ele>521.0</ele><time>2026-09-23T03:16:57Z</time></trkpt>
      <trkpt lat="32.816465" lon="131.118769"><ele>534.0</ele><time>2026-09-23T03:18:59Z</time></trkpt>
      <trkpt lat="32.816392" lon="131.120608"><ele>537.2</ele><time>2026-09-23T03:19:48Z</time></trkpt>
      <trkpt lat="32.816682" lon="131.123283"><ele>544.6</ele><time>2026-09-23T03:21:19Z</time></trkpt>
      <trkpt lat="32.817628" lon="131.123440"><ele>543.8</ele><time>2026-09-23T03:21:48Z</time></trkpt>
      <trkpt lat="32.818416" lon="131.123393"><ele>543.4</ele><time>2026-09-23T03:22:16Z</time></trkpt>
      <trkpt lat="32.819132" lon="131.123241"><ele>544.4</ele><time>2026-09-23T03:22:37Z</time></trkpt>
      <trkpt lat="32.819407" lon="131.123281"><ele>544.8</ele><time>2026-09-23T03:22:45Z</time></trkpt>
      <trkpt lat="32.819488" lon="131.123456"><ele>546.0</ele><time>2026-09-23T03:23:22Z</time></trkpt>
      <trkpt lat="32.819531" lon="131.123362"><ele>546.8</ele><time>2026-09-23T03:24:13Z</time></trkpt>
      <trkpt lat="32.819429" lon="131.123195"><ele>547.2</ele><time>2026-09-23T03:27:50Z</time></trkpt>
      <trkpt lat="32.819461" lon="131.123418"><ele>547.2</ele><time>2026-09-23T03:31:05Z</time></trkpt>
      <trkpt lat="32.819677" lon="131.123243"><ele>547.2</ele><time>2026-09-23T03:55:45Z</time></trkpt>
      <trkpt lat="32.819531" lon="131.123352"><ele>547.2</ele><time>2026-09-23T03:55:47Z</time></trkpt>
      <trkpt lat="32.819526" lon="131.123482"><ele>547.8</ele><time>2026-09-23T03:55:55Z</time></trkpt>
      <trkpt lat="32.819451" lon="131.123441"><ele>548.6</ele><time>2026-09-23T03:57:03Z</time></trkpt>
      <trkpt lat="32.819506" lon="131.123441"><ele>548.6</ele><time>2026-09-23T03:57:30Z</time></trkpt>
      <trkpt lat="32.819476" lon="131.123585"><ele>547.8</ele><time>2026-09-23T03:57:55Z</time></trkpt>
      <trkpt lat="32.819182" lon="131.124589"><ele>550.2</ele><time>2026-09-23T03:58:27Z</time></trkpt>
      <trkpt lat="32.818877" lon="131.124918"><ele>551.0</ele><time>2026-09-23T03:58:43Z</time></trkpt>
      <trkpt lat="32.817950" lon="131.125556"><ele>553.4</ele><time>2026-09-23T03:59:26Z</time></trkpt>
      <trkpt lat="32.816960" lon="131.125640"><ele>555.8</ele><time>2026-09-23T04:00:02Z</time></trkpt>
      <trkpt lat="32.817020" lon="131.126586"><ele>557.8</ele><time>2026-09-23T04:00:33Z</time></trkpt>
      <trkpt lat="32.816903" lon="131.128855"><ele>567.2</ele><time>2026-09-23T04:02:16Z</time></trkpt>
      <trkpt lat="32.816685" lon="131.130108"><ele>575.6</ele><time>2026-09-23T04:03:32Z</time></trkpt>
      <trkpt lat="32.816444" lon="131.130661"><ele>579.0</ele><time>2026-09-23T04:04:06Z</time></trkpt>
      <trkpt lat="32.815992" lon="131.131022"><ele>582.0</ele><time>2026-09-23T04:04:42Z</time></trkpt>
      <trkpt lat="32.815612" lon="131.131125"><ele>584.0</ele><time>2026-09-23T04:05:07Z</time></trkpt>
      <trkpt lat="32.814964" lon="131.131110"><ele>587.4</ele><time>2026-09-23T04:05:49Z</time></trkpt>
      <trkpt lat="32.814328" lon="131.131226"><ele>589.6</ele><time>2026-09-23T04:06:31Z</time></trkpt>
      <trkpt lat="32.813792" lon="131.130941"><ele>592.2</ele><time>2026-09-23T04:07:08Z</time></trkpt>
      <trkpt lat="32.813458" lon="131.131562"><ele>598.6</ele><time>2026-09-23T04:07:45Z</time></trkpt>
      <trkpt lat="32.812905" lon="131.131975"><ele>606.4</ele><time>2026-09-23T04:08:25Z</time></trkpt>
      <trkpt lat="32.813515" lon="131.133112"><ele>612.8</ele><time>2026-09-23T04:09:42Z</time></trkpt>
      <trkpt lat="32.813831" lon="131.133071"><ele>615.2</ele><time>2026-09-23T04:10:08Z</time></trkpt>
      <trkpt lat="32.813866" lon="131.133159"><ele>615.4</ele><time>2026-09-23T04:10:15Z</time></trkpt>
      <trkpt lat="32.813651" lon="131.133256"><ele>616.4</ele><time>2026-09-23T04:10:26Z</time></trkpt>
      <trkpt lat="32.813228" lon="131.133025"><ele>619.8</ele><time>2026-09-23T04:10:50Z</time></trkpt>
      <trkpt lat="32.812918" lon="131.133019"><ele>621.6</ele><time>2026-09-23T04:11:07Z</time></trkpt>
      <trkpt lat="32.812144" lon="131.133626"><ele>627.2</ele><time>2026-09-23T04:12:02Z</time></trkpt>
      <trkpt lat="32.811747" lon="131.133707"><ele>629.6</ele><time>2026-09-23T04:12:28Z</time></trkpt>
      <trkpt lat="32.811200" lon="131.133563"><ele>632.6</ele><time>2026-09-23T04:13:04Z</time></trkpt>
      <trkpt lat="32.810733" lon="131.133643"><ele>635.4</ele><time>2026-09-23T04:13:44Z</time></trkpt>
      <trkpt lat="32.810660" lon="131.133624"><ele>636.4</ele><time>2026-09-23T04:14:29Z</time></trkpt>
      <trkpt lat="32.810667" lon="131.133531"><ele>636.0</ele><time>2026-09-23T04:15:24Z</time></trkpt>
      <trkpt lat="32.810693" lon="131.133606"><ele>635.6</ele><time>2026-09-23T04:15:47Z</time></trkpt>
      <trkpt lat="32.810485" lon="131.133562"><ele>636.4</ele><time>2026-09-23T04:16:04Z</time></trkpt>
      <trkpt lat="32.810187" lon="131.132962"><ele>639.2</ele><time>2026-09-23T04:16:46Z</time></trkpt>
      <trkpt lat="32.810022" lon="131.132836"><ele>641.4</ele><time>2026-09-23T04:16:59Z</time></trkpt>
      <trkpt lat="32.809874" lon="131.133071"><ele>643.0</ele><time>2026-09-23T04:17:12Z</time></trkpt>
      <trkpt lat="32.809789" lon="131.133503"><ele>645.6</ele><time>2026-09-23T04:17:37Z</time></trkpt>
      <trkpt lat="32.809790" lon="131.134105"><ele>648.6</ele><time>2026-09-23T04:18:11Z</time></trkpt>
      <trkpt lat="32.809975" lon="131.134322"><ele>649.6</ele><time>2026-09-23T04:18:26Z</time></trkpt>
      <trkpt lat="32.810309" lon="131.134375"><ele>651.0</ele><time>2026-09-23T04:18:44Z</time></trkpt>
      <trkpt lat="32.810470" lon="131.134282"><ele>652.2</ele><time>2026-09-23T04:18:55Z</time></trkpt>
      <trkpt lat="32.810571" lon="131.134370"><ele>652.8</ele><time>2026-09-23T04:19:05Z</time></trkpt>
      <trkpt lat="32.810187" lon="131.134490"><ele>654.8</ele><time>2026-09-23T04:19:31Z</time></trkpt>
      <trkpt lat="32.809828" lon="131.134772"><ele>656.8</ele><time>2026-09-23T04:19:57Z</time></trkpt>
      <trkpt lat="32.809632" lon="131.134825"><ele>658.0</ele><time>2026-09-23T04:20:11Z</time></trkpt>
      <trkpt lat="32.809297" lon="131.134516"><ele>660.0</ele><time>2026-09-23T04:20:40Z</time></trkpt>
      <trkpt lat="32.809045" lon="131.134814"><ele>662.4</ele><time>2026-09-23T04:20:59Z</time></trkpt>
      <trkpt lat="32.809071" lon="131.134944"><ele>663.0</ele><time>2026-09-23T04:21:05Z</time></trkpt>
      <trkpt lat="32.809553" lon="131.135500"><ele>666.4</ele><time>2026-09-23T04:21:48Z</time></trkpt>
      <trkpt lat="32.809790" lon="131.135537"><ele>668.6</ele><time>2026-09-23T04:22:05Z</time></trkpt>
      <trkpt lat="32.810226" lon="131.135283"><ele>671.8</ele><time>2026-09-23T04:22:39Z</time></trkpt>
      <trkpt lat="32.810375" lon="131.135328"><ele>673.4</ele><time>2026-09-23T04:22:53Z</time></trkpt>
      <trkpt lat="32.809220" lon="131.136331"><ele>680.8</ele><time>2026-09-23T04:24:52Z</time></trkpt>
      <trkpt lat="32.809186" lon="131.136495"><ele>682.2</ele><time>2026-09-23T04:25:00Z</time></trkpt>
      <trkpt lat="32.809279" lon="131.136534"><ele>682.8</ele><time>2026-09-23T04:25:06Z</time></trkpt>
      <trkpt lat="32.809643" lon="131.136192"><ele>685.4</ele><time>2026-09-23T04:25:37Z</time></trkpt>
      <trkpt lat="32.809917" lon="131.136183"><ele>687.0</ele><time>2026-09-23T04:25:53Z</time></trkpt>
      <trkpt lat="32.810179" lon="131.135973"><ele>688.8</ele><time>2026-09-23T04:26:13Z</time></trkpt>
      <trkpt lat="32.810253" lon="131.136006"><ele>689.6</ele><time>2026-09-23T04:26:18Z</time></trkpt>
      <trkpt lat="32.810225" lon="131.136175"><ele>690.8</ele><time>2026-09-23T04:26:29Z</time></trkpt>
      <trkpt lat="32.809874" lon="131.136359"><ele>692.6</ele><time>2026-09-23T04:26:53Z</time></trkpt>
      <trkpt lat="32.809634" lon="131.136805"><ele>695.6</ele><time>2026-09-23T04:27:23Z</time></trkpt>
      <trkpt lat="32.809101" lon="131.137384"><ele>699.8</ele><time>2026-09-23T04:28:12Z</time></trkpt>
      <trkpt lat="32.808948" lon="131.137340"><ele>701.0</ele><time>2026-09-23T04:28:23Z</time></trkpt>
      <trkpt lat="32.808626" lon="131.136721"><ele>704.6</ele><time>2026-09-23T04:29:02Z</time></trkpt>
      <trkpt lat="32.808473" lon="131.136658"><ele>706.6</ele><time>2026-09-23T04:29:12Z</time></trkpt>
      <trkpt lat="32.806894" lon="131.137225"><ele>714.8</ele><time>2026-09-23T04:30:58Z</time></trkpt>
      <trkpt lat="32.806752" lon="131.137069"><ele>716.2</ele><time>2026-09-23T04:31:12Z</time></trkpt>
      <trkpt lat="32.806854" lon="131.136776"><ele>718.0</ele><time>2026-09-23T04:31:30Z</time></trkpt>
      <trkpt lat="32.806747" lon="131.136691"><ele>719.2</ele><time>2026-09-23T04:31:38Z</time></trkpt>
      <trkpt lat="32.806428" lon="131.137376"><ele>722.6</ele><time>2026-09-23T04:32:15Z</time></trkpt>
      <trkpt lat="32.806492" lon="131.137637"><ele>724.0</ele><time>2026-09-23T04:32:29Z</time></trkpt>
      <trkpt lat="32.806602" lon="131.137751"><ele>724.6</ele><time>2026-09-23T04:32:37Z</time></trkpt>
      <trkpt lat="32.806836" lon="131.137802"><ele>725.6</ele><time>2026-09-23T04:32:52Z</time></trkpt>
      <trkpt lat="32.807189" lon="131.137497"><ele>729.2</ele><time>2026-09-23T04:33:27Z</time></trkpt>
      <trkpt lat="32.807563" lon="131.137748"><ele>730.8</ele><time>2026-09-23T04:33:54Z</time></trkpt>
      <trkpt lat="32.807779" lon="131.137331"><ele>733.4</ele><time>2026-09-23T04:34:23Z</time></trkpt>
      <trkpt lat="32.807921" lon="131.137297"><ele>734.4</ele><time>2026-09-23T04:34:32Z</time></trkpt>
      <trkpt lat="32.808313" lon="131.137307"><ele>737.6</ele><time>2026-09-23T04:35:02Z</time></trkpt>
      <trkpt lat="32.808299" lon="131.137250"><ele>737.2</ele><time>2026-09-23T04:35:13Z</time></trkpt>
      <trkpt lat="32.808332" lon="131.137418"><ele>739.8</ele><time>2026-09-23T04:37:56Z</time></trkpt>
      <trkpt lat="32.808367" lon="131.137337"><ele>740.4</ele><time>2026-09-23T04:39:09Z</time></trkpt>
      <trkpt lat="32.808322" lon="131.137297"><ele>740.2</ele><time>2026-09-23T04:39:23Z</time></trkpt>
      <trkpt lat="32.808295" lon="131.137527"><ele>740.4</ele><time>2026-09-23T04:40:33Z</time></trkpt>
      <trkpt lat="32.808376" lon="131.137514"><ele>741.0</ele><time>2026-09-23T04:41:14Z</time></trkpt>
      <trkpt lat="32.808345" lon="131.137375"><ele>739.6</ele><time>2026-09-23T04:41:54Z</time></trkpt>
      <trkpt lat="32.807865" lon="131.137383"><ele>741.4</ele><time>2026-09-23T04:42:25Z</time></trkpt>
      <trkpt lat="32.807755" lon="131.137818"><ele>741.4</ele><time>2026-09-23T04:42:39Z</time></trkpt>
      <trkpt lat="32.807672" lon="131.137908"><ele>741.4</ele><time>2026-09-23T04:42:41Z</time></trkpt>
      <trkpt lat="32.807511" lon="131.137911"><ele>742.2</ele><time>2026-09-23T04:42:44Z</time></trkpt>
      <trkpt lat="32.807264" lon="131.137759"><ele>742.8</ele><time>2026-09-23T04:42:49Z</time></trkpt>
      <trkpt lat="32.807162" lon="131.137795"><ele>743.0</ele><time>2026-09-23T04:42:51Z</time></trkpt>
      <trkpt lat="32.806893" lon="131.138271"><ele>746.0</ele><time>2026-09-23T04:43:06Z</time></trkpt>
      <trkpt lat="32.806440" lon="131.138394"><ele>748.4</ele><time>2026-09-23T04:43:23Z</time></trkpt>
      <trkpt lat="32.806163" lon="131.138769"><ele>750.8</ele><time>2026-09-23T04:43:49Z</time></trkpt>
      <trkpt lat="32.805952" lon="131.138926"><ele>752.6</ele><time>2026-09-23T04:44:07Z</time></trkpt>
      <trkpt lat="32.805766" lon="131.138793"><ele>753.6</ele><time>2026-09-23T04:44:23Z</time></trkpt>
      <trkpt lat="32.805926" lon="131.138280"><ele>757.6</ele><time>2026-09-23T04:44:57Z</time></trkpt>
      <trkpt lat="32.805868" lon="131.138114"><ele>758.2</ele><time>2026-09-23T04:45:05Z</time></trkpt>
      <trkpt lat="32.805760" lon="131.138102"><ele>758.4</ele><time>2026-09-23T04:45:10Z</time></trkpt>
      <trkpt lat="32.805426" lon="131.138300"><ele>759.4</ele><time>2026-09-23T04:45:28Z</time></trkpt>
      <trkpt lat="32.805128" lon="131.138242"><ele>761.0</ele><time>2026-09-23T04:45:46Z</time></trkpt>
      <trkpt lat="32.805037" lon="131.138300"><ele>761.6</ele><time>2026-09-23T04:45:52Z</time></trkpt>
      <trkpt lat="32.805042" lon="131.138393"><ele>762.2</ele><time>2026-09-23T04:45:55Z</time></trkpt>
      <trkpt lat="32.805158" lon="131.138437"><ele>763.4</ele><time>2026-09-23T04:46:02Z</time></trkpt>
      <trkpt lat="32.805544" lon="131.138349"><ele>765.0</ele><time>2026-09-23T04:46:21Z</time></trkpt>
      <trkpt lat="32.805605" lon="131.138443"><ele>766.2</ele><time>2026-09-23T04:46:29Z</time></trkpt>
      <trkpt lat="32.805511" lon="131.138560"><ele>766.6</ele><time>2026-09-23T04:46:37Z</time></trkpt>
      <trkpt lat="32.804956" lon="131.138540"><ele>768.4</ele><time>2026-09-23T04:47:09Z</time></trkpt>
      <trkpt lat="32.804766" lon="131.138451"><ele>769.6</ele><time>2026-09-23T04:47:22Z</time></trkpt>
      <trkpt lat="32.804730" lon="131.138330"><ele>769.8</ele><time>2026-09-23T04:47:29Z</time></trkpt>
      <trkpt lat="32.804881" lon="131.137950"><ele>771.4</ele><time>2026-09-23T04:47:48Z</time></trkpt>
      <trkpt lat="32.804813" lon="131.137492"><ele>772.2</ele><time>2026-09-23T04:48:06Z</time></trkpt>
      <trkpt lat="32.804896" lon="131.137214"><ele>772.8</ele><time>2026-09-23T04:48:16Z</time></trkpt>
      <trkpt lat="32.804779" lon="131.137230"><ele>774.0</ele><time>2026-09-23T04:48:22Z</time></trkpt>
      <trkpt lat="32.804678" lon="131.137526"><ele>775.8</ele><time>2026-09-23T04:48:33Z</time></trkpt>
      <trkpt lat="32.804725" lon="131.138005"><ele>778.2</ele><time>2026-09-23T04:48:56Z</time></trkpt>
      <trkpt lat="32.804367" lon="131.138443"><ele>780.6</ele><time>2026-09-23T04:49:25Z</time></trkpt>
      <trkpt lat="32.804631" lon="131.138883"><ele>783.0</ele><time>2026-09-23T04:49:52Z</time></trkpt>
      <trkpt lat="32.805117" lon="131.138995"><ele>784.6</ele><time>2026-09-23T04:50:17Z</time></trkpt>
      <trkpt lat="32.805225" lon="131.139211"><ele>786.4</ele><time>2026-09-23T04:50:32Z</time></trkpt>
      <trkpt lat="32.805286" lon="131.139812"><ele>788.8</ele><time>2026-09-23T04:51:03Z</time></trkpt>
      <trkpt lat="32.805400" lon="131.140004"><ele>789.4</ele><time>2026-09-23T04:51:15Z</time></trkpt>
      <trkpt lat="32.805501" lon="131.140021"><ele>790.6</ele><time>2026-09-23T04:51:47Z</time></trkpt>
      <trkpt lat="32.805473" lon="131.140069"><ele>790.4</ele><time>2026-09-23T04:52:05Z</time></trkpt>
      <trkpt lat="32.805611" lon="131.140099"><ele>790.2</ele><time>2026-09-23T04:53:17Z</time></trkpt>
      <trkpt lat="32.805554" lon="131.140031"><ele>789.0</ele><time>2026-09-23T04:53:42Z</time></trkpt>
      <trkpt lat="32.805424" lon="131.140273"><ele>790.0</ele><time>2026-09-23T04:54:10Z</time></trkpt>
      <trkpt lat="32.805143" lon="131.140402"><ele>791.6</ele><time>2026-09-23T04:54:39Z</time></trkpt>
      <trkpt lat="32.802439" lon="131.145487"><ele>808.8</ele><time>2026-09-23T04:57:38Z</time></trkpt>
      <trkpt lat="32.802213" lon="131.146387"><ele>810.6</ele><time>2026-09-23T04:58:29Z</time></trkpt>
      <trkpt lat="32.801602" lon="131.147497"><ele>808.2</ele><time>2026-09-23T04:59:21Z</time></trkpt>
      <trkpt lat="32.801622" lon="131.147615"><ele>807.8</ele><time>2026-09-23T04:59:23Z</time></trkpt>
      <trkpt lat="32.802239" lon="131.148259"><ele>806.6</ele><time>2026-09-23T04:59:38Z</time></trkpt>
      <trkpt lat="32.802312" lon="131.148558"><ele>805.8</ele><time>2026-09-23T04:59:45Z</time></trkpt>
      <trkpt lat="32.802265" lon="131.149074"><ele>804.8</ele><time>2026-09-23T04:59:53Z</time></trkpt>
      <trkpt lat="32.802012" lon="131.149385"><ele>804.0</ele><time>2026-09-23T04:59:58Z</time></trkpt>
      <trkpt lat="32.801090" lon="131.150026"><ele>801.0</ele><time>2026-09-23T05:00:11Z</time></trkpt>
      <trkpt lat="32.800852" lon="131.150382"><ele>800.2</ele><time>2026-09-23T05:00:15Z</time></trkpt>
      <trkpt lat="32.800767" lon="131.150800"><ele>798.8</ele><time>2026-09-23T05:00:19Z</time></trkpt>
      <trkpt lat="32.800836" lon="131.151248"><ele>797.8</ele><time>2026-09-23T05:00:23Z</time></trkpt>
      <trkpt lat="32.800936" lon="131.151448"><ele>797.4</ele><time>2026-09-23T05:00:25Z</time></trkpt>
      <trkpt lat="32.801701" lon="131.152466"><ele>794.2</ele><time>2026-09-23T05:00:37Z</time></trkpt>
      <trkpt lat="32.802120" lon="131.153499"><ele>791.2</ele><time>2026-09-23T05:00:47Z</time></trkpt>
      <trkpt lat="32.802162" lon="131.154473"><ele>786.4</ele><time>2026-09-23T05:00:56Z</time></trkpt>
      <trkpt lat="32.801637" lon="131.156320"><ele>780.4</ele><time>2026-09-23T05:01:12Z</time></trkpt>
      <trkpt lat="32.801631" lon="131.156559"><ele>780.2</ele><time>2026-09-23T05:01:14Z</time></trkpt>
      <trkpt lat="32.801801" lon="131.157237"><ele>779.6</ele><time>2026-09-23T05:01:20Z</time></trkpt>
      <trkpt lat="32.802144" lon="131.157777"><ele>777.8</ele><time>2026-09-23T05:01:26Z</time></trkpt>
      <trkpt lat="32.802683" lon="131.158106"><ele>774.6</ele><time>2026-09-23T05:01:32Z</time></trkpt>
      <trkpt lat="32.804332" lon="131.158196"><ele>765.2</ele><time>2026-09-23T05:01:45Z</time></trkpt>
      <trkpt lat="32.804819" lon="131.158389"><ele>762.2</ele><time>2026-09-23T05:01:49Z</time></trkpt>
      <trkpt lat="32.805288" lon="131.158817"><ele>760.8</ele><time>2026-09-23T05:01:54Z</time></trkpt>
      <trkpt lat="32.806073" lon="131.159856"><ele>763.6</ele><time>2026-09-23T05:03:08Z</time></trkpt>
      <trkpt lat="32.806140" lon="131.160477"><ele>765.4</ele><time>2026-09-23T05:03:26Z</time></trkpt>
      <trkpt lat="32.806051" lon="131.162145"><ele>771.6</ele><time>2026-09-23T05:04:14Z</time></trkpt>
      <trkpt lat="32.806182" lon="131.163318"><ele>770.6</ele><time>2026-09-23T05:04:44Z</time></trkpt>
      <trkpt lat="32.806162" lon="131.163854"><ele>768.4</ele><time>2026-09-23T05:04:50Z</time></trkpt>
      <trkpt lat="32.805958" lon="131.164378"><ele>765.8</ele><time>2026-09-23T05:04:55Z</time></trkpt>
      <trkpt lat="32.804338" lon="131.166864"><ele>745.6</ele><time>2026-09-23T05:05:19Z</time></trkpt>
      <trkpt lat="32.804195" lon="131.167323"><ele>743.0</ele><time>2026-09-23T05:05:23Z</time></trkpt>
      <trkpt lat="32.804054" lon="131.168402"><ele>739.2</ele><time>2026-09-23T05:05:32Z</time></trkpt>
      <trkpt lat="32.803803" lon="131.168968"><ele>736.4</ele><time>2026-09-23T05:05:37Z</time></trkpt>
      <trkpt lat="32.801448" lon="131.172900"><ele>724.0</ele><time>2026-09-23T05:06:16Z</time></trkpt>
      <trkpt lat="32.799309" lon="131.176058"><ele>717.8</ele><time>2026-09-23T05:06:46Z</time></trkpt>
      <trkpt lat="32.798737" lon="131.177069"><ele>717.6</ele><time>2026-09-23T05:07:01Z</time></trkpt>
      <trkpt lat="32.798831" lon="131.177278"><ele>717.4</ele><time>2026-09-23T05:07:26Z</time></trkpt>
      <trkpt lat="32.798729" lon="131.177174"><ele>716.6</ele><time>2026-09-23T05:08:07Z</time></trkpt>
      <trkpt lat="32.798621" lon="131.177204"><ele>716.8</ele><time>2026-09-23T05:08:16Z</time></trkpt>
      <trkpt lat="32.796968" lon="131.179991"><ele>704.2</ele><time>2026-09-23T05:08:55Z</time></trkpt>
      <trkpt lat="32.796703" lon="131.180763"><ele>702.4</ele><time>2026-09-23T05:09:01Z</time></trkpt>
      <trkpt lat="32.796518" lon="131.182186"><ele>701.8</ele><time>2026-09-23T05:09:12Z</time></trkpt>
      <trkpt lat="32.796062" lon="131.183928"><ele>711.4</ele><time>2026-09-23T05:09:41Z</time></trkpt>
      <trkpt lat="32.795215" lon="131.187072"><ele>697.2</ele><time>2026-09-23T05:10:13Z</time></trkpt>
      <trkpt lat="32.794997" lon="131.187515"><ele>695.8</ele><time>2026-09-23T05:10:17Z</time></trkpt>
      <trkpt lat="32.794504" lon="131.188046"><ele>694.0</ele><time>2026-09-23T05:10:23Z</time></trkpt>
      <trkpt lat="32.792959" lon="131.189389"><ele>686.6</ele><time>2026-09-23T05:10:39Z</time></trkpt>
      <trkpt lat="32.792131" lon="131.189844"><ele>684.2</ele><time>2026-09-23T05:10:47Z</time></trkpt>
      <trkpt lat="32.791735" lon="131.190207"><ele>682.2</ele><time>2026-09-23T05:10:52Z</time></trkpt>
      <trkpt lat="32.791296" lon="131.191950"><ele>679.2</ele><time>2026-09-23T05:11:07Z</time></trkpt>
      <trkpt lat="32.790021" lon="131.193410"><ele>670.8</ele><time>2026-09-23T05:11:23Z</time></trkpt>
      <trkpt lat="32.789897" lon="131.193825"><ele>667.4</ele><time>2026-09-23T05:11:27Z</time></trkpt>
      <trkpt lat="32.789909" lon="131.194729"><ele>664.2</ele><time>2026-09-23T05:11:34Z</time></trkpt>
      <trkpt lat="32.789853" lon="131.194995"><ele>663.6</ele><time>2026-09-23T05:11:36Z</time></trkpt>
      <trkpt lat="32.789545" lon="131.195459"><ele>660.8</ele><time>2026-09-23T05:11:40Z</time></trkpt>
      <trkpt lat="32.789094" lon="131.195707"><ele>658.6</ele><time>2026-09-23T05:11:44Z</time></trkpt>
      <trkpt lat="32.788155" lon="131.195726"><ele>654.0</ele><time>2026-09-23T05:11:52Z</time></trkpt>
      <trkpt lat="32.787686" lon="131.195935"><ele>651.8</ele><time>2026-09-23T05:11:56Z</time></trkpt>
      <trkpt lat="32.787392" lon="131.196231"><ele>649.8</ele><time>2026-09-23T05:11:59Z</time></trkpt>
      <trkpt lat="32.786589" lon="131.197581"><ele>642.6</ele><time>2026-09-23T05:12:10Z</time></trkpt>
      <trkpt lat="32.786615" lon="131.198201"><ele>638.6</ele><time>2026-09-23T05:12:15Z</time></trkpt>
      <trkpt lat="32.786875" lon="131.198438"><ele>636.8</ele><time>2026-09-23T05:12:18Z</time></trkpt>
      <trkpt lat="32.787258" lon="131.198485"><ele>635.0</ele><time>2026-09-23T05:12:22Z</time></trkpt>
      <trkpt lat="32.787677" lon="131.198230"><ele>634.2</ele><time>2026-09-23T05:12:27Z</time></trkpt>
      <trkpt lat="32.787920" lon="131.197386"><ele>633.2</ele><time>2026-09-23T05:12:35Z</time></trkpt>
      <trkpt lat="32.788132" lon="131.197229"><ele>632.4</ele><time>2026-09-23T05:12:38Z</time></trkpt>
      <trkpt lat="32.788806" lon="131.197068"><ele>631.4</ele><time>2026-09-23T05:12:46Z</time></trkpt>
      <trkpt lat="32.789388" lon="131.196391"><ele>630.6</ele><time>2026-09-23T05:12:55Z</time></trkpt>
      <trkpt lat="32.789643" lon="131.196257"><ele>630.2</ele><time>2026-09-23T05:12:58Z</time></trkpt>
      <trkpt lat="32.789850" lon="131.196256"><ele>629.8</ele><time>2026-09-23T05:13:00Z</time></trkpt>
      <trkpt lat="32.790290" lon="131.196595"><ele>628.2</ele><time>2026-09-23T05:13:05Z</time></trkpt>
      <trkpt lat="32.790408" lon="131.197089"><ele>626.8</ele><time>2026-09-23T05:13:09Z</time></trkpt>
      <trkpt lat="32.790276" lon="131.197470"><ele>625.6</ele><time>2026-09-23T05:13:12Z</time></trkpt>
      <trkpt lat="32.789173" lon="131.198251"><ele>621.0</ele><time>2026-09-23T05:13:22Z</time></trkpt>
      <trkpt lat="32.788782" lon="131.198685"><ele>618.6</ele><time>2026-09-23T05:13:27Z</time></trkpt>
      <trkpt lat="32.788666" lon="131.199154"><ele>616.6</ele><time>2026-09-23T05:13:31Z</time></trkpt>
      <trkpt lat="32.788835" lon="131.199775"><ele>615.0</ele><time>2026-09-23T05:13:36Z</time></trkpt>
      <trkpt lat="32.791276" lon="131.203485"><ele>615.2</ele><time>2026-09-23T05:14:34Z</time></trkpt>
      <trkpt lat="32.791356" lon="131.203672"><ele>614.4</ele><time>2026-09-23T05:14:39Z</time></trkpt>
      <trkpt lat="32.791223" lon="131.203469"><ele>612.8</ele><time>2026-09-23T05:14:48Z</time></trkpt>
      <trkpt lat="32.791191" lon="131.203508"><ele>611.4</ele><time>2026-09-23T05:14:59Z</time></trkpt>
      <trkpt lat="32.791228" lon="131.203478"><ele>610.2</ele><time>2026-09-23T05:15:08Z</time></trkpt>
      <trkpt lat="32.791033" lon="131.203207"><ele>606.2</ele><time>2026-09-23T05:15:51Z</time></trkpt>
      <trkpt lat="32.791077" lon="131.203134"><ele>603.2</ele><time>2026-09-23T05:16:40Z</time></trkpt>
      <trkpt lat="32.790772" lon="131.202652"><ele>600.4</ele><time>2026-09-23T05:17:22Z</time></trkpt>
      <trkpt lat="32.791187" lon="131.203308"><ele>598.6</ele><time>2026-09-23T05:18:26Z</time></trkpt>
      <trkpt lat="32.791267" lon="131.203610"><ele>598.2</ele><time>2026-09-23T05:19:14Z</time></trkpt>
      <trkpt lat="32.791626" lon="131.204209"><ele>601.8</ele><time>2026-09-23T05:20:09Z</time></trkpt>
      <trkpt lat="32.792795" lon="131.204386"><ele>609.4</ele><time>2026-09-23T05:22:57Z</time></trkpt>
      <trkpt lat="32.793428" lon="131.204618"><ele>614.6</ele><time>2026-09-23T05:23:47Z</time></trkpt>
      <trkpt lat="32.794600" lon="131.206948"><ele>629.2</ele><time>2026-09-23T05:26:13Z</time></trkpt>
      <trkpt lat="32.794520" lon="131.207949"><ele>632.0</ele><time>2026-09-23T05:26:47Z</time></trkpt>
      <trkpt lat="32.794348" lon="131.208635"><ele>633.8</ele><time>2026-09-23T05:27:09Z</time></trkpt>
      <trkpt lat="32.793905" lon="131.209432"><ele>634.8</ele><time>2026-09-23T05:27:36Z</time></trkpt>
      <trkpt lat="32.793085" lon="131.210538"><ele>633.6</ele><time>2026-09-23T05:28:02Z</time></trkpt>
      <trkpt lat="32.792987" lon="131.211032"><ele>633.8</ele><time>2026-09-23T05:28:11Z</time></trkpt>
      <trkpt lat="32.792846" lon="131.211094"><ele>635.4</ele><time>2026-09-23T05:28:31Z</time></trkpt>
      <trkpt lat="32.793020" lon="131.211231"><ele>635.8</ele><time>2026-09-23T05:29:04Z</time></trkpt>
      <trkpt lat="32.793043" lon="131.211374"><ele>635.6</ele><time>2026-09-23T05:29:36Z</time></trkpt>
      <trkpt lat="32.792986" lon="131.211086"><ele>635.2</ele><time>2026-09-23T05:31:05Z</time></trkpt>
      <trkpt lat="32.792883" lon="131.211155"><ele>635.6</ele><time>2026-09-23T05:31:25Z</time></trkpt>
      <trkpt lat="32.793029" lon="131.211166"><ele>637.0</ele><time>2026-09-23T05:31:39Z</time></trkpt>
      <trkpt lat="32.793060" lon="131.211078"><ele>636.2</ele><time>2026-09-23T05:31:49Z</time></trkpt>
      <trkpt lat="32.793022" lon="131.211180"><ele>637.4</ele><time>2026-09-23T05:31:58Z</time></trkpt>
      <trkpt lat="32.793081" lon="131.211195"><ele>637.6</ele><time>2026-09-23T05:32:05Z</time></trkpt>
      <trkpt lat="32.793018" lon="131.211250"><ele>637.4</ele><time>2026-09-23T05:32:25Z</time></trkpt>
      <trkpt lat="32.792973" lon="131.210991"><ele>637.8</ele><time>2026-09-23T05:34:14Z</time></trkpt>
      <trkpt lat="32.792821" lon="131.211143"><ele>638.2</ele><time>2026-09-23T05:35:44Z</time></trkpt>
      <trkpt lat="32.793081" lon="131.211153"><ele>639.4</ele><time>2026-09-23T05:40:33Z</time></trkpt>
      <trkpt lat="32.792829" lon="131.211113"><ele>639.0</ele><time>2026-09-23T05:42:17Z</time></trkpt>
      <trkpt lat="32.792878" lon="131.211141"><ele>641.0</ele><time>2026-09-23T05:45:13Z</time></trkpt>
      <trkpt lat="32.792992" lon="131.210914"><ele>641.2</ele><time>2026-09-23T05:45:25Z</time></trkpt>
      <trkpt lat="32.792910" lon="131.210839"><ele>641.0</ele><time>2026-09-23T05:45:34Z</time></trkpt>
      <trkpt lat="32.792714" lon="131.211089"><ele>640.6</ele><time>2026-09-23T05:45:44Z</time></trkpt>
      <trkpt lat="32.790322" lon="131.213201"><ele>633.2</ele><time>2026-09-23T05:46:23Z</time></trkpt>
      <trkpt lat="32.790032" lon="131.213678"><ele>632.2</ele><time>2026-09-23T05:46:29Z</time></trkpt>
      <trkpt lat="32.789908" lon="131.214059"><ele>630.8</ele><time>2026-09-23T05:46:33Z</time></trkpt>
      <trkpt lat="32.789123" lon="131.217808"><ele>624.6</ele><time>2026-09-23T05:47:08Z</time></trkpt>
      <trkpt lat="32.788891" lon="131.219212"><ele>627.2</ele><time>2026-09-23T05:47:27Z</time></trkpt>
      <trkpt lat="32.788967" lon="131.219924"><ele>628.4</ele><time>2026-09-23T05:47:40Z</time></trkpt>
      <trkpt lat="32.789722" lon="131.222199"><ele>632.6</ele><time>2026-09-23T05:48:35Z</time></trkpt>
      <trkpt lat="32.789779" lon="131.222811"><ele>635.8</ele><time>2026-09-23T05:49:07Z</time></trkpt>
      <trkpt lat="32.789681" lon="131.223511"><ele>638.2</ele><time>2026-09-23T05:49:38Z</time></trkpt>
      <trkpt lat="32.789273" lon="131.224235"><ele>636.8</ele><time>2026-09-23T05:49:57Z</time></trkpt>
      <trkpt lat="32.788838" lon="131.224627"><ele>635.6</ele><time>2026-09-23T05:50:07Z</time></trkpt>
      <trkpt lat="32.784563" lon="131.226694"><ele>616.2</ele><time>2026-09-23T05:50:55Z</time></trkpt>
      <trkpt lat="32.784021" lon="131.226808"><ele>614.8</ele><time>2026-09-23T05:51:00Z</time></trkpt>
      <trkpt lat="32.783125" lon="131.226639"><ele>611.6</ele><time>2026-09-23T05:51:08Z</time></trkpt>
      <trkpt lat="32.782632" lon="131.226756"><ele>610.6</ele><time>2026-09-23T05:51:13Z</time></trkpt>
      <trkpt lat="32.780621" lon="131.228897"><ele>605.4</ele><time>2026-09-23T05:51:42Z</time></trkpt>
      <trkpt lat="32.778896" lon="131.229835"><ele>602.2</ele><time>2026-09-23T05:52:01Z</time></trkpt>
      <trkpt lat="32.777481" lon="131.230971"><ele>598.8</ele><time>2026-09-23T05:52:18Z</time></trkpt>
      <trkpt lat="32.775408" lon="131.232436"><ele>593.2</ele><time>2026-09-23T05:52:42Z</time></trkpt>
      <trkpt lat="32.773055" lon="131.233814"><ele>586.4</ele><time>2026-09-23T05:53:10Z</time></trkpt>
      <trkpt lat="32.772005" lon="131.234802"><ele>579.2</ele><time>2026-09-23T05:53:23Z</time></trkpt>
      <trkpt lat="32.770818" lon="131.235470"><ele>573.8</ele><time>2026-09-23T05:53:34Z</time></trkpt>
      <trkpt lat="32.770417" lon="131.235794"><ele>572.4</ele><time>2026-09-23T05:53:38Z</time></trkpt>
      <trkpt lat="32.768508" lon="131.238046"><ele>561.8</ele><time>2026-09-23T05:54:01Z</time></trkpt>
      <trkpt lat="32.767165" lon="131.239336"><ele>560.4</ele><time>2026-09-23T05:54:20Z</time></trkpt>
      <trkpt lat="32.766094" lon="131.240111"><ele>559.8</ele><time>2026-09-23T05:54:36Z</time></trkpt>
      <trkpt lat="32.765714" lon="131.240538"><ele>558.2</ele><time>2026-09-23T05:54:43Z</time></trkpt>
      <trkpt lat="32.765514" lon="131.240906"><ele>556.6</ele><time>2026-09-23T05:54:47Z</time></trkpt>
      <trkpt lat="32.765470" lon="131.241398"><ele>554.0</ele><time>2026-09-23T05:54:51Z</time></trkpt>
      <trkpt lat="32.765808" lon="131.242594"><ele>547.2</ele><time>2026-09-23T05:55:01Z</time></trkpt>
      <trkpt lat="32.765841" lon="131.243222"><ele>542.4</ele><time>2026-09-23T05:55:10Z</time></trkpt>
      <trkpt lat="32.766013" lon="131.243262"><ele>541.8</ele><time>2026-09-23T05:55:16Z</time></trkpt>
      <trkpt lat="32.765933" lon="131.243393"><ele>541.4</ele><time>2026-09-23T05:55:44Z</time></trkpt>
      <trkpt lat="32.766015" lon="131.243292"><ele>541.6</ele><time>2026-09-23T05:56:09Z</time></trkpt>
      <trkpt lat="32.765921" lon="131.243370"><ele>540.8</ele><time>2026-09-23T05:56:33Z</time></trkpt>
      <trkpt lat="32.766032" lon="131.243342"><ele>540.2</ele><time>2026-09-23T05:57:49Z</time></trkpt>
      <trkpt lat="32.766013" lon="131.243267"><ele>540.4</ele><time>2026-09-23T05:57:59Z</time></trkpt>
      <trkpt lat="32.765932" lon="131.243379"><ele>540.0</ele><time>2026-09-23T06:00:06Z</time></trkpt>
      <trkpt lat="32.765893" lon="131.243249"><ele>541.2</ele><time>2026-09-23T06:00:26Z</time></trkpt>
      <trkpt lat="32.765811" lon="131.243268"><ele>540.6</ele><time>2026-09-23T06:00:30Z</time></trkpt>
      <trkpt lat="32.765437" lon="131.243802"><ele>538.4</ele><time>2026-09-23T06:00:45Z</time></trkpt>
      <trkpt lat="32.764559" lon="131.244627"><ele>532.4</ele><time>2026-09-23T06:01:00Z</time></trkpt>
      <trkpt lat="32.764260" lon="131.244822"><ele>530.8</ele><time>2026-09-23T06:01:04Z</time></trkpt>
      <trkpt lat="32.764003" lon="131.244877"><ele>529.6</ele><time>2026-09-23T06:01:07Z</time></trkpt>
      <trkpt lat="32.763649" lon="131.244821"><ele>528.4</ele><time>2026-09-23T06:01:11Z</time></trkpt>
      <trkpt lat="32.763418" lon="131.244672"><ele>527.4</ele><time>2026-09-23T06:01:14Z</time></trkpt>
      <trkpt lat="32.763224" lon="131.244439"><ele>526.2</ele><time>2026-09-23T06:01:17Z</time></trkpt>
      <trkpt lat="32.763096" lon="131.244129"><ele>525.4</ele><time>2026-09-23T06:01:20Z</time></trkpt>
      <trkpt lat="32.763082" lon="131.243426"><ele>522.8</ele><time>2026-09-23T06:01:26Z</time></trkpt>
      <trkpt lat="32.763334" lon="131.242952"><ele>521.4</ele><time>2026-09-23T06:01:31Z</time></trkpt>
      <trkpt lat="32.763769" lon="131.242667"><ele>518.8</ele><time>2026-09-23T06:01:36Z</time></trkpt>
      <trkpt lat="32.764340" lon="131.242791"><ele>515.2</ele><time>2026-09-23T06:01:41Z</time></trkpt>
      <trkpt lat="32.764649" lon="131.242995"><ele>513.4</ele><time>2026-09-23T06:01:44Z</time></trkpt>
      <trkpt lat="32.764858" lon="131.243283"><ele>512.0</ele><time>2026-09-23T06:01:47Z</time></trkpt>
      <trkpt lat="32.764960" lon="131.243858"><ele>508.6</ele><time>2026-09-23T06:01:52Z</time></trkpt>
      <trkpt lat="32.764572" lon="131.244791"><ele>503.0</ele><time>2026-09-23T06:02:01Z</time></trkpt>
      <trkpt lat="32.764489" lon="131.245329"><ele>500.6</ele><time>2026-09-23T06:02:06Z</time></trkpt>
      <trkpt lat="32.764741" lon="131.246219"><ele>498.6</ele><time>2026-09-23T06:02:16Z</time></trkpt>
      <trkpt lat="32.764990" lon="131.246642"><ele>496.8</ele><time>2026-09-23T06:02:22Z</time></trkpt>
      <trkpt lat="32.765828" lon="131.247457"><ele>492.2</ele><time>2026-09-23T06:02:34Z</time></trkpt>
      <trkpt lat="32.766443" lon="131.248195"><ele>488.0</ele><time>2026-09-23T06:02:43Z</time></trkpt>
      <trkpt lat="32.766973" lon="131.249041"><ele>483.6</ele><time>2026-09-23T06:02:52Z</time></trkpt>
      <trkpt lat="32.767518" lon="131.250211"><ele>477.8</ele><time>2026-09-23T06:03:03Z</time></trkpt>
      <trkpt lat="32.767832" lon="131.250645"><ele>475.8</ele><time>2026-09-23T06:03:08Z</time></trkpt>
      <trkpt lat="32.768070" lon="131.250818"><ele>475.0</ele><time>2026-09-23T06:03:11Z</time></trkpt>
      <trkpt lat="32.768830" lon="131.251110"><ele>474.8</ele><time>2026-09-23T06:03:20Z</time></trkpt>
      <trkpt lat="32.772024" lon="131.252087"><ele>466.8</ele><time>2026-09-23T06:03:56Z</time></trkpt>
      <trkpt lat="32.772674" lon="131.252595"><ele>467.8</ele><time>2026-09-23T06:04:06Z</time></trkpt>
      <trkpt lat="32.773123" lon="131.253253"><ele>471.0</ele><time>2026-09-23T06:04:19Z</time></trkpt>
      <trkpt lat="32.773369" lon="131.253805"><ele>473.0</ele><time>2026-09-23T06:04:35Z</time></trkpt>
      <trkpt lat="32.773519" lon="131.254392"><ele>474.4</ele><time>2026-09-23T06:05:30Z</time></trkpt>
      <trkpt lat="32.773587" lon="131.255492"><ele>478.2</ele><time>2026-09-23T06:06:16Z</time></trkpt>
      <trkpt lat="32.773496" lon="131.256146"><ele>480.0</ele><time>2026-09-23T06:06:47Z</time></trkpt>
      <trkpt lat="32.773346" lon="131.256637"><ele>481.6</ele><time>2026-09-23T06:07:13Z</time></trkpt>
      <trkpt lat="32.772604" lon="131.258061"><ele>488.4</ele><time>2026-09-23T06:08:33Z</time></trkpt>
      <trkpt lat="32.772439" lon="131.258772"><ele>493.6</ele><time>2026-09-23T06:09:18Z</time></trkpt>
      <trkpt lat="32.772435" lon="131.259390"><ele>497.4</ele><time>2026-09-23T06:09:56Z</time></trkpt>
      <trkpt lat="32.772519" lon="131.260026"><ele>501.0</ele><time>2026-09-23T06:10:25Z</time></trkpt>
      <trkpt lat="32.772711" lon="131.260511"><ele>505.2</ele><time>2026-09-23T06:10:55Z</time></trkpt>
      <trkpt lat="32.772674" lon="131.260644"><ele>506.4</ele><time>2026-09-23T06:11:17Z</time></trkpt>
      <trkpt lat="32.772698" lon="131.260566"><ele>506.4</ele><time>2026-09-23T06:11:34Z</time></trkpt>
      <trkpt lat="32.772806" lon="131.260802"><ele>507.4</ele><time>2026-09-23T06:12:06Z</time></trkpt>
      <trkpt lat="32.772790" lon="131.260953"><ele>508.2</ele><time>2026-09-23T06:12:56Z</time></trkpt>
      <trkpt lat="32.772885" lon="131.260807"><ele>508.0</ele><time>2026-09-23T06:13:40Z</time></trkpt>
      <trkpt lat="32.772773" lon="131.260946"><ele>508.0</ele><time>2026-09-23T06:15:20Z</time></trkpt>
      <trkpt lat="32.772772" lon="131.260858"><ele>508.0</ele><time>2026-09-23T06:16:04Z</time></trkpt>
      <trkpt lat="32.772761" lon="131.260881"><ele>522.4</ele><time>2026-09-23T06:16:11Z</time></trkpt>
      <trkpt lat="32.773831" lon="131.263248"><ele>532.2</ele><time>2026-09-23T06:18:57Z</time></trkpt>
      <trkpt lat="32.773969" lon="131.263911"><ele>532.6</ele><time>2026-09-23T06:19:16Z</time></trkpt>
      <trkpt lat="32.773868" lon="131.264601"><ele>533.0</ele><time>2026-09-23T06:19:35Z</time></trkpt>
      <trkpt lat="32.773526" lon="131.265457"><ele>533.4</ele><time>2026-09-23T06:19:58Z</time></trkpt>
      <trkpt lat="32.772291" lon="131.266721"><ele>536.0</ele><time>2026-09-23T06:20:41Z</time></trkpt>
      <trkpt lat="32.771954" lon="131.267157"><ele>537.2</ele><time>2026-09-23T06:21:03Z</time></trkpt>
      <trkpt lat="32.771665" lon="131.267730"><ele>538.4</ele><time>2026-09-23T06:21:25Z</time></trkpt>
      <trkpt lat="32.771344" lon="131.268807"><ele>541.4</ele><time>2026-09-23T06:22:06Z</time></trkpt>
      <trkpt lat="32.770767" lon="131.271545"><ele>542.2</ele><time>2026-09-23T06:23:18Z</time></trkpt>
      <trkpt lat="32.770800" lon="131.272052"><ele>540.4</ele><time>2026-09-23T06:23:25Z</time></trkpt>
      <trkpt lat="32.771059" lon="131.272510"><ele>537.0</ele><time>2026-09-23T06:23:31Z</time></trkpt>
      <trkpt lat="32.771415" lon="131.272770"><ele>534.4</ele><time>2026-09-23T06:23:36Z</time></trkpt>
      <trkpt lat="32.772364" lon="131.273186"><ele>528.2</ele><time>2026-09-23T06:23:48Z</time></trkpt>
      <trkpt lat="32.772654" lon="131.273597"><ele>525.8</ele><time>2026-09-23T06:23:53Z</time></trkpt>
      <trkpt lat="32.772740" lon="131.274359"><ele>522.0</ele><time>2026-09-23T06:23:59Z</time></trkpt>
      <trkpt lat="32.772797" lon="131.277124"><ele>507.8</ele><time>2026-09-23T06:24:19Z</time></trkpt>
      <trkpt lat="32.772712" lon="131.277777"><ele>504.4</ele><time>2026-09-23T06:24:24Z</time></trkpt>
      <trkpt lat="32.772472" lon="131.278216"><ele>502.2</ele><time>2026-09-23T06:24:28Z</time></trkpt>
      <trkpt lat="32.772095" lon="131.278531"><ele>500.4</ele><time>2026-09-23T06:24:32Z</time></trkpt>
      <trkpt lat="32.769874" lon="131.279264"><ele>490.2</ele><time>2026-09-23T06:24:51Z</time></trkpt>
      <trkpt lat="32.769452" lon="131.279503"><ele>490.2</ele><time>2026-09-23T06:24:55Z</time></trkpt>
      <trkpt lat="32.769139" lon="131.280060"><ele>489.6</ele><time>2026-09-23T06:25:00Z</time></trkpt>
      <trkpt lat="32.768325" lon="131.284018"><ele>494.6</ele><time>2026-09-23T06:25:57Z</time></trkpt>
      <trkpt lat="32.768140" lon="131.284466"><ele>494.4</ele><time>2026-09-23T06:26:10Z</time></trkpt>
      <trkpt lat="32.767792" lon="131.284896"><ele>494.6</ele><time>2026-09-23T06:26:30Z</time></trkpt>
      <trkpt lat="32.764746" lon="131.286968"><ele>492.2</ele><time>2026-09-23T06:27:41Z</time></trkpt>
      <trkpt lat="32.764278" lon="131.297992"><ele>467.0</ele><time>2026-09-23T06:29:22Z</time></trkpt>
      <trkpt lat="32.764343" lon="131.300124"><ele>460.0</ele><time>2026-09-23T06:29:41Z</time></trkpt>
      <trkpt lat="32.764255" lon="131.300550"><ele>458.6</ele><time>2026-09-23T06:29:45Z</time></trkpt>
      <trkpt lat="32.764098" lon="131.300815"><ele>457.6</ele><time>2026-09-23T06:29:48Z</time></trkpt>
      <trkpt lat="32.763865" lon="131.301019"><ele>456.6</ele><time>2026-09-23T06:29:51Z</time></trkpt>
      <trkpt lat="32.763503" lon="131.301113"><ele>455.4</ele><time>2026-09-23T06:29:55Z</time></trkpt>
      <trkpt lat="32.762810" lon="131.300946"><ele>453.0</ele><time>2026-09-23T06:30:03Z</time></trkpt>
      <trkpt lat="32.762138" lon="131.300630"><ele>450.4</ele><time>2026-09-23T06:30:11Z</time></trkpt>
      <trkpt lat="32.761298" lon="131.299662"><ele>444.0</ele><time>2026-09-23T06:30:23Z</time></trkpt>
      <trkpt lat="32.759948" lon="131.299116"><ele>440.0</ele><time>2026-09-23T06:30:37Z</time></trkpt>
      <trkpt lat="32.758752" lon="131.299101"><ele>434.0</ele><time>2026-09-23T06:30:51Z</time></trkpt>
      <trkpt lat="32.757808" lon="131.298624"><ele>430.0</ele><time>2026-09-23T06:31:03Z</time></trkpt>
      <trkpt lat="32.756307" lon="131.298679"><ele>425.8</ele><time>2026-09-23T06:31:20Z</time></trkpt>
      <trkpt lat="32.755616" lon="131.298364"><ele>424.6</ele><time>2026-09-23T06:31:35Z</time></trkpt>
      <trkpt lat="32.755626" lon="131.298299"><ele>424.6</ele><time>2026-09-23T06:32:13Z</time></trkpt>
      <trkpt lat="32.752922" lon="131.298423"><ele>420.8</ele><time>2026-09-23T06:33:16Z</time></trkpt>
      <trkpt lat="32.751536" lon="131.297891"><ele>419.4</ele><time>2026-09-23T06:33:44Z</time></trkpt>
      <trkpt lat="32.750004" lon="131.297118"><ele>415.0</ele><time>2026-09-23T06:34:08Z</time></trkpt>
      <trkpt lat="32.748784" lon="131.297274"><ele>412.4</ele><time>2026-09-23T06:34:24Z</time></trkpt>
      <trkpt lat="32.747503" lon="131.297119"><ele>410.8</ele><time>2026-09-23T06:34:40Z</time></trkpt>
      <trkpt lat="32.744701" lon="131.297822"><ele>408.0</ele><time>2026-09-23T06:35:20Z</time></trkpt>
      <trkpt lat="32.741961" lon="131.297934"><ele>401.4</ele><time>2026-09-23T06:35:51Z</time></trkpt>
      <trkpt lat="32.740161" lon="131.298448"><ele>395.4</ele><time>2026-09-23T06:36:11Z</time></trkpt>
      <trkpt lat="32.739176" lon="131.298571"><ele>395.0</ele><time>2026-09-23T06:36:24Z</time></trkpt>
      <trkpt lat="32.738292" lon="131.298424"><ele>393.4</ele><time>2026-09-23T06:36:39Z</time></trkpt>
      <trkpt lat="32.737575" lon="131.298464"><ele>392.4</ele><time>2026-09-23T06:36:53Z</time></trkpt>
      <trkpt lat="32.737411" lon="131.298378"><ele>392.0</ele><time>2026-09-23T06:37:00Z</time></trkpt>
      <trkpt lat="32.736526" lon="131.298381"><ele>390.4</ele><time>2026-09-23T06:37:28Z</time></trkpt>
      <trkpt lat="32.736300" lon="131.298324"><ele>389.8</ele><time>2026-09-23T06:37:35Z</time></trkpt>
      <trkpt lat="32.736078" lon="131.298105"><ele>389.0</ele><time>2026-09-23T06:37:50Z</time></trkpt>
      <trkpt lat="32.736012" lon="131.298229"><ele>388.4</ele><time>2026-09-23T06:38:03Z</time></trkpt>
      <trkpt lat="32.736060" lon="131.298356"><ele>387.8</ele><time>2026-09-23T06:38:09Z</time></trkpt>
      <trkpt lat="32.735997" lon="131.298363"><ele>387.2</ele><time>2026-09-23T06:38:11Z</time></trkpt>
      <trkpt lat="32.733622" lon="131.298033"><ele>383.8</ele><time>2026-09-23T06:38:55Z</time></trkpt>
      <trkpt lat="32.733255" lon="131.298069"><ele>383.8</ele><time>2026-09-23T06:39:03Z</time></trkpt>
      <trkpt lat="32.732401" lon="131.298456"><ele>381.6</ele><time>2026-09-23T06:39:19Z</time></trkpt>
      <trkpt lat="32.731846" lon="131.298486"><ele>380.8</ele><time>2026-09-23T06:39:28Z</time></trkpt>
      <trkpt lat="32.731115" lon="131.298319"><ele>382.0</ele><time>2026-09-23T06:39:43Z</time></trkpt>
      <trkpt lat="32.730387" lon="131.297966"><ele>386.6</ele><time>2026-09-23T06:40:41Z</time></trkpt>
      <trkpt lat="32.730417" lon="131.297870"><ele>386.4</ele><time>2026-09-23T06:41:03Z</time></trkpt>
      <trkpt lat="32.730391" lon="131.297932"><ele>385.4</ele><time>2026-09-23T06:41:27Z</time></trkpt>
      <trkpt lat="32.730151" lon="131.297757"><ele>386.8</ele><time>2026-09-23T06:41:45Z</time></trkpt>
      <trkpt lat="32.729397" lon="131.297020"><ele>390.2</ele><time>2026-09-23T06:42:32Z</time></trkpt>
      <trkpt lat="32.729100" lon="131.296865"><ele>390.2</ele><time>2026-09-23T06:42:45Z</time></trkpt>
      <trkpt lat="32.729126" lon="131.296801"><ele>390.4</ele><time>2026-09-23T06:43:59Z</time></trkpt>
      <trkpt lat="32.729082" lon="131.296880"><ele>388.8</ele><time>2026-09-23T06:44:36Z</time></trkpt>
      <trkpt lat="32.729099" lon="131.296830"><ele>388.6</ele><time>2026-09-23T06:44:56Z</time></trkpt>
      <trkpt lat="32.728691" lon="131.296909"><ele>387.6</ele><time>2026-09-23T06:45:11Z</time></trkpt>
      <trkpt lat="32.728360" lon="131.297051"><ele>386.2</ele><time>2026-09-23T06:45:18Z</time></trkpt>
      <trkpt lat="32.727780" lon="131.296927"><ele>384.4</ele><time>2026-09-23T06:45:26Z</time></trkpt>
      <trkpt lat="32.727444" lon="131.296593"><ele>383.2</ele><time>2026-09-23T06:45:32Z</time></trkpt>
      <trkpt lat="32.727017" lon="131.295663"><ele>386.6</ele><time>2026-09-23T06:45:48Z</time></trkpt>
      <trkpt lat="32.726628" lon="131.295379"><ele>388.8</ele><time>2026-09-23T06:46:02Z</time></trkpt>
      <trkpt lat="32.725986" lon="131.295174"><ele>392.2</ele><time>2026-09-23T06:46:33Z</time></trkpt>
      <trkpt lat="32.725519" lon="131.295142"><ele>393.8</ele><time>2026-09-23T06:46:53Z</time></trkpt>
      <trkpt lat="32.724007" lon="131.295668"><ele>389.6</ele><time>2026-09-23T06:47:22Z</time></trkpt>
      <trkpt lat="32.723487" lon="131.295585"><ele>386.0</ele><time>2026-09-23T06:48:45Z</time></trkpt>
      <trkpt lat="32.723126" lon="131.295290"><ele>384.6</ele><time>2026-09-23T06:48:54Z</time></trkpt>
      <trkpt lat="32.722827" lon="131.294405"><ele>380.4</ele><time>2026-09-23T06:49:06Z</time></trkpt>
      <trkpt lat="32.722572" lon="131.293894"><ele>378.0</ele><time>2026-09-23T06:49:12Z</time></trkpt>
      <trkpt lat="32.722365" lon="131.293709"><ele>376.6</ele><time>2026-09-23T06:49:15Z</time></trkpt>
      <trkpt lat="32.721887" lon="131.293557"><ele>373.2</ele><time>2026-09-23T06:49:21Z</time></trkpt>
      <trkpt lat="32.721421" lon="131.293726"><ele>370.2</ele><time>2026-09-23T06:49:27Z</time></trkpt>
      <trkpt lat="32.719865" lon="131.295012"><ele>358.4</ele><time>2026-09-23T06:49:50Z</time></trkpt>
      <trkpt lat="32.719423" lon="131.295501"><ele>354.8</ele><time>2026-09-23T06:49:57Z</time></trkpt>
      <trkpt lat="32.719228" lon="131.295877"><ele>352.6</ele><time>2026-09-23T06:50:01Z</time></trkpt>
      <trkpt lat="32.719053" lon="131.296710"><ele>349.0</ele><time>2026-09-23T06:50:08Z</time></trkpt>
      <trkpt lat="32.719101" lon="131.297783"><ele>345.2</ele><time>2026-09-23T06:50:17Z</time></trkpt>
      <trkpt lat="32.719205" lon="131.298109"><ele>343.4</ele><time>2026-09-23T06:50:20Z</time></trkpt>
      <trkpt lat="32.719764" lon="131.298785"><ele>341.2</ele><time>2026-09-23T06:50:28Z</time></trkpt>
      <trkpt lat="32.719858" lon="131.299095"><ele>340.6</ele><time>2026-09-23T06:50:31Z</time></trkpt>
      <trkpt lat="32.719844" lon="131.299490"><ele>340.0</ele><time>2026-09-23T06:50:35Z</time></trkpt>
      <trkpt lat="32.719522" lon="131.300776"><ele>334.8</ele><time>2026-09-23T06:50:49Z</time></trkpt>
      <trkpt lat="32.719196" lon="131.301163"><ele>332.4</ele><time>2026-09-23T06:50:54Z</time></trkpt>
      <trkpt lat="32.718407" lon="131.301678"><ele>328.2</ele><time>2026-09-23T06:51:03Z</time></trkpt>
      <trkpt lat="32.717223" lon="131.303003"><ele>325.4</ele><time>2026-09-23T06:51:20Z</time></trkpt>
      <trkpt lat="32.716612" lon="131.303454"><ele>328.2</ele><time>2026-09-23T06:51:34Z</time></trkpt>
      <trkpt lat="32.716088" lon="131.303720"><ele>331.8</ele><time>2026-09-23T06:52:31Z</time></trkpt>
      <trkpt lat="32.715733" lon="131.303783"><ele>334.0</ele><time>2026-09-23T06:52:54Z</time></trkpt>
      <trkpt lat="32.714523" lon="131.303594"><ele>339.0</ele><time>2026-09-23T06:54:09Z</time></trkpt>
      <trkpt lat="32.713690" lon="131.304046"><ele>339.8</ele><time>2026-09-23T06:54:35Z</time></trkpt>
      <trkpt lat="32.713739" lon="131.303953"><ele>340.2</ele><time>2026-09-23T06:55:00Z</time></trkpt>
      <trkpt lat="32.713800" lon="131.304069"><ele>339.4</ele><time>2026-09-23T06:55:24Z</time></trkpt>
      <trkpt lat="32.713682" lon="131.303713"><ele>340.6</ele><time>2026-09-23T06:56:17Z</time></trkpt>
      <trkpt lat="32.713778" lon="131.303762"><ele>340.2</ele><time>2026-09-23T06:56:36Z</time></trkpt>
      <trkpt lat="32.713752" lon="131.304082"><ele>341.4</ele><time>2026-09-23T07:04:41Z</time></trkpt>
      <trkpt lat="32.713804" lon="131.303993"><ele>341.4</ele><time>2026-09-23T07:05:13Z</time></trkpt>
      <trkpt lat="32.713735" lon="131.303859"><ele>341.6</ele><time>2026-09-23T07:05:44Z</time></trkpt>
      <trkpt lat="32.713710" lon="131.303960"><ele>341.2</ele><time>2026-09-23T07:06:02Z</time></trkpt>
      <trkpt lat="32.713783" lon="131.304059"><ele>341.2</ele><time>2026-09-23T07:06:19Z</time></trkpt>
      <trkpt lat="32.713763" lon="131.303958"><ele>340.6</ele><time>2026-09-23T07:06:54Z</time></trkpt>
      <trkpt lat="32.713797" lon="131.304039"><ele>340.8</ele><time>2026-09-23T07:08:14Z</time></trkpt>
      <trkpt lat="32.713843" lon="131.303995"><ele>339.8</ele><time>2026-09-23T07:08:28Z</time></trkpt>
      <trkpt lat="32.713804" lon="131.303953"><ele>339.8</ele><time>2026-09-23T07:08:31Z</time></trkpt>
      <trkpt lat="32.713455" lon="131.303878"><ele>340.8</ele><time>2026-09-23T07:08:50Z</time></trkpt>
      <trkpt lat="32.712600" lon="131.304036"><ele>343.0</ele><time>2026-09-23T07:09:31Z</time></trkpt>
      <trkpt lat="32.711867" lon="131.304380"><ele>345.2</ele><time>2026-09-23T07:10:06Z</time></trkpt>
      <trkpt lat="32.711054" lon="131.304331"><ele>346.2</ele><time>2026-09-23T07:10:40Z</time></trkpt>
      <trkpt lat="32.710601" lon="131.304137"><ele>344.8</ele><time>2026-09-23T07:10:53Z</time></trkpt>
      <trkpt lat="32.710141" lon="131.303768"><ele>342.0</ele><time>2026-09-23T07:11:04Z</time></trkpt>
      <trkpt lat="32.709364" lon="131.302773"><ele>335.2</ele><time>2026-09-23T07:11:55Z</time></trkpt>
      <trkpt lat="32.708410" lon="131.301700"><ele>322.0</ele><time>2026-09-23T07:12:39Z</time></trkpt>
      <trkpt lat="32.707968" lon="131.302068"><ele>320.4</ele><time>2026-09-23T07:12:51Z</time></trkpt>
      <trkpt lat="32.707376" lon="131.302917"><ele>312.6</ele><time>2026-09-23T07:13:03Z</time></trkpt>
      <trkpt lat="32.706825" lon="131.303265"><ele>309.0</ele><time>2026-09-23T07:13:16Z</time></trkpt>
      <trkpt lat="32.706649" lon="131.303490"><ele>308.2</ele><time>2026-09-23T07:13:51Z</time></trkpt>
      <trkpt lat="32.706033" lon="131.303948"><ele>309.6</ele><time>2026-09-23T07:14:09Z</time></trkpt>
      <trkpt lat="32.705469" lon="131.303953"><ele>310.8</ele><time>2026-09-23T07:14:26Z</time></trkpt>
      <trkpt lat="32.704005" lon="131.303216"><ele>319.8</ele><time>2026-09-23T07:16:01Z</time></trkpt>
      <trkpt lat="32.703606" lon="131.303130"><ele>318.6</ele><time>2026-09-23T07:16:13Z</time></trkpt>
      <trkpt lat="32.701577" lon="131.303435"><ele>303.8</ele><time>2026-09-23T07:16:38Z</time></trkpt>
      <trkpt lat="32.701273" lon="131.303664"><ele>301.0</ele><time>2026-09-23T07:16:42Z</time></trkpt>
      <trkpt lat="32.701012" lon="131.304054"><ele>298.8</ele><time>2026-09-23T07:16:46Z</time></trkpt>
      <trkpt lat="32.700665" lon="131.304605"><ele>297.0</ele><time>2026-09-23T07:16:51Z</time></trkpt>
      <trkpt lat="32.699995" lon="131.306086"><ele>298.4</ele><time>2026-09-23T07:17:10Z</time></trkpt>
      <trkpt lat="32.699832" lon="131.306138"><ele>298.6</ele><time>2026-09-23T07:17:14Z</time></trkpt>
      <trkpt lat="32.696273" lon="131.305336"><ele>311.6</ele><time>2026-09-23T07:20:57Z</time></trkpt>
      <trkpt lat="32.695759" lon="131.305353"><ele>313.4</ele><time>2026-09-23T07:21:46Z</time></trkpt>
      <trkpt lat="32.695741" lon="131.305130"><ele>313.6</ele><time>2026-09-23T07:21:55Z</time></trkpt>
      <trkpt lat="32.695523" lon="131.304632"><ele>315.6</ele><time>2026-09-23T07:22:20Z</time></trkpt>
      <trkpt lat="32.695269" lon="131.304283"><ele>317.0</ele><time>2026-09-23T07:22:40Z</time></trkpt>
      <trkpt lat="32.694924" lon="131.303322"><ele>321.0</ele><time>2026-09-23T07:23:11Z</time></trkpt>
      <trkpt lat="32.694962" lon="131.302940"><ele>322.6</ele><time>2026-09-23T07:23:28Z</time></trkpt>
      <trkpt lat="32.695516" lon="131.302442"><ele>325.2</ele><time>2026-09-23T07:24:09Z</time></trkpt>
      <trkpt lat="32.695632" lon="131.302224"><ele>324.2</ele><time>2026-09-23T07:24:15Z</time></trkpt>
      <trkpt lat="32.695627" lon="131.302118"><ele>323.4</ele><time>2026-09-23T07:24:17Z</time></trkpt>
      <trkpt lat="32.695377" lon="131.301766"><ele>319.2</ele><time>2026-09-23T07:24:23Z</time></trkpt>
      <trkpt lat="32.695434" lon="131.301605"><ele>318.6</ele><time>2026-09-23T07:24:25Z</time></trkpt>
      <trkpt lat="32.696092" lon="131.301806"><ele>316.6</ele><time>2026-09-23T07:24:34Z</time></trkpt>
      <trkpt lat="32.696997" lon="131.302351"><ele>316.4</ele><time>2026-09-23T07:24:45Z</time></trkpt>
      <trkpt lat="32.697515" lon="131.302483"><ele>318.6</ele><time>2026-09-23T07:24:54Z</time></trkpt>
      <trkpt lat="32.697645" lon="131.302459"><ele>319.2</ele><time>2026-09-23T07:24:57Z</time></trkpt>
      <trkpt lat="32.697830" lon="131.302118"><ele>319.8</ele><time>2026-09-23T07:25:05Z</time></trkpt>
      <trkpt lat="32.697794" lon="131.301657"><ele>318.6</ele><time>2026-09-23T07:25:15Z</time></trkpt>
      <trkpt lat="32.697981" lon="131.301215"><ele>316.8</ele><time>2026-09-23T07:25:36Z</time></trkpt>
      <trkpt lat="32.696878" lon="131.301098"><ele>333.2</ele><time>2026-09-23T07:28:17Z</time></trkpt>
      <trkpt lat="32.696691" lon="131.300982"><ele>334.0</ele><time>2026-09-23T07:28:34Z</time></trkpt>
      <trkpt lat="32.696020" lon="131.300837"><ele>336.2</ele><time>2026-09-23T07:29:06Z</time></trkpt>
      <trkpt lat="32.695865" lon="131.300856"><ele>336.4</ele><time>2026-09-23T07:29:13Z</time></trkpt>
      <trkpt lat="32.695676" lon="131.301278"><ele>338.4</ele><time>2026-09-23T07:29:33Z</time></trkpt>
      <trkpt lat="32.695547" lon="131.301288"><ele>339.2</ele><time>2026-09-23T07:29:40Z</time></trkpt>
      <trkpt lat="32.695462" lon="131.301203"><ele>340.2</ele><time>2026-09-23T07:29:48Z</time></trkpt>
      <trkpt lat="32.695429" lon="131.300815"><ele>344.4</ele><time>2026-09-23T07:30:21Z</time></trkpt>
      <trkpt lat="32.695459" lon="131.300711"><ele>345.0</ele><time>2026-09-23T07:30:27Z</time></trkpt>
      <trkpt lat="32.695760" lon="131.300510"><ele>347.6</ele><time>2026-09-23T07:30:48Z</time></trkpt>
      <trkpt lat="32.695788" lon="131.300227"><ele>351.2</ele><time>2026-09-23T07:31:00Z</time></trkpt>
      <trkpt lat="32.695873" lon="131.300107"><ele>352.6</ele><time>2026-09-23T07:31:07Z</time></trkpt>
    </trkseg>
  </trk>
</gpx>
