<?xml version="1.0" encoding="UTF-8"?>
<gpx version="1.1" creator="gpx2reel" xmlns="http://www.topografix.com/GPX/1/1">
  <trk><name>Day 4</name>
    <trkseg>
      <trkpt lat="32.696660" lon="131.300990"><ele>335.8</ele><time>2026-09-24T00:13:57Z</time></trkpt>
      <trkpt lat="32.696840" lon="131.301120"><ele>334.8</ele><time>2026-09-24T00:14:02Z</time></trkpt>
      <trkpt lat="32.697180" lon="131.301190"><ele>331.6</ele><time>2026-09-24T00:14:14Z</time></trkpt>
      <trkpt lat="32.697520" lon="131.301930"><ele>328.8</ele><time>2026-09-24T00:15:14Z</time></trkpt>
      <trkpt lat="32.697530" lon="131.302340"><ele>326.0</ele><time>2026-09-24T00:15:24Z</time></trkpt>
      <trkpt lat="32.697760" lon="131.302090"><ele>321.0</ele><time>2026-09-24T00:15:37Z</time></trkpt>
      <trkpt lat="32.697670" lon="131.302400"><ele>320.0</ele><time>2026-09-24T00:15:49Z</time></trkpt>
      <trkpt lat="32.697500" lon="131.302490"><ele>319.4</ele><time>2026-09-24T00:15:55Z</time></trkpt>
      <trkpt lat="32.697110" lon="131.302380"><ele>318.2</ele><time>2026-09-24T00:16:02Z</time></trkpt>
      <trkpt lat="32.696210" lon="131.301910"><ele>314.2</ele><time>2026-09-24T00:16:14Z</time></trkpt>
      <trkpt lat="32.695500" lon="131.301650"><ele>317.8</ele><time>2026-09-24T00:16:31Z</time></trkpt>
      <trkpt lat="32.695430" lon="131.301900"><ele>319.2</ele><time>2026-09-24T00:16:39Z</time></trkpt>
      <trkpt lat="32.695600" lon="131.302090"><ele>321.4</ele><time>2026-09-24T00:16:50Z</time></trkpt>
      <trkpt lat="32.695610" lon="131.302250"><ele>323.6</ele><time>2026-09-24T00:17:00Z</time></trkpt>
      <trkpt lat="32.695080" lon="131.302800"><ele>324.0</ele><time>2026-09-24T00:17:40Z</time></trkpt>
      <trkpt lat="32.694960" lon="131.303120"><ele>323.4</ele><time>2026-09-24T00:17:44Z</time></trkpt>
      <trkpt lat="32.695240" lon="131.304180"><ele>319.8</ele><time>2026-09-24T00:17:56Z</time></trkpt>
      <trkpt lat="32.695740" lon="131.305150"><ele>314.2</ele><time>2026-09-24T00:18:11Z</time></trkpt>
      <trkpt lat="32.695670" lon="131.305340"><ele>313.0</ele><time>2026-09-24T00:18:17Z</time></trkpt>
      <trkpt lat="32.695200" lon="131.305650"><ele>310.2</ele><time>2026-09-24T00:18:26Z</time></trkpt>
      <trkpt lat="32.695160" lon="131.306020"><ele>308.4</ele><time>2026-09-24T00:18:30Z</time></trkpt>
      <trkpt lat="32.695520" lon="131.306810"><ele>309.0</ele><time>2026-09-24T00:18:44Z</time></trkpt>
      <trkpt lat="32.695750" lon="131.307040"><ele>309.6</ele><time>2026-09-24T00:18:51Z</time></trkpt>
      <trkpt lat="32.696000" lon="131.307530"><ele>312.0</ele><time>2026-09-24T00:19:09Z</time></trkpt>
      <trkpt lat="32.695850" lon="131.307970"><ele>311.2</ele><time>2026-09-24T00:19:16Z</time></trkpt>
      <trkpt lat="32.695950" lon="131.308270"><ele>311.0</ele><time>2026-09-24T00:19:22Z</time></trkpt>
      <trkpt lat="32.695890" lon="131.308640"><ele>311.0</ele><time>2026-09-24T00:19:28Z</time></trkpt>
      <trkpt lat="32.695290" lon="131.308930"><ele>310.8</ele><time>2026-09-24T00:19:41Z</time></trkpt>
      <trkpt lat="32.695140" lon="131.309370"><ele>311.2</ele><time>2026-09-24T00:19:50Z</time></trkpt>
      <trkpt lat="32.695270" lon="131.309920"><ele>314.2</ele><time>2026-09-24T00:20:04Z</time></trkpt>
      <trkpt lat="32.695280" lon="131.310470"><ele>317.2</ele><time>2026-09-24T00:20:30Z</time></trkpt>
      <trkpt lat="32.695430" lon="131.310850"><ele>318.4</ele><time>2026-09-24T00:20:51Z</time></trkpt>
      <trkpt lat="32.695480" lon="131.311330"><ele>320.6</ele><time>2026-09-24T00:21:15Z</time></trkpt>
      <trkpt lat="32.696330" lon="131.313030"><ele>325.0</ele><time>2026-09-24T00:22:42Z</time></trkpt>
      <trkpt lat="32.696210" lon="131.313480"><ele>325.0</ele><time>2026-09-24T00:22:54Z</time></trkpt>
      <trkpt lat="32.696070" lon="131.313710"><ele>324.6</ele><time>2026-09-24T00:23:00Z</time></trkpt>
      <trkpt lat="32.695840" lon="131.313720"><ele>323.6</ele><time>2026-09-24T00:23:06Z</time></trkpt>
      <trkpt lat="32.695480" lon="131.313550"><ele>321.0</ele><time>2026-09-24T00:23:13Z</time></trkpt>
      <trkpt lat="32.694850" lon="131.313870"><ele>317.4</ele><time>2026-09-24T00:23:20Z</time></trkpt>
      <trkpt lat="32.694090" lon="131.313980"><ele>311.6</ele><time>2026-09-24T00:23:28Z</time></trkpt>
      <trkpt lat="32.693520" lon="131.313780"><ele>306.2</ele><time>2026-09-24T00:23:35Z</time></trkpt>
      <trkpt lat="32.693040" lon="131.313830"><ele>304.2</ele><time>2026-09-24T00:23:39Z</time></trkpt>
      <trkpt lat="32.692630" lon="131.313610"><ele>302.8</ele><time>2026-09-24T00:23:44Z</time></trkpt>
      <trkpt lat="32.692180" lon="131.313490"><ele>301.0</ele><time>2026-09-24T00:23:49Z</time></trkpt>
      <trkpt lat="32.691830" lon="131.313550"><ele>299.6</ele><time>2026-09-24T00:23:54Z</time></trkpt>
      <trkpt lat="32.691650" lon="131.313830"><ele>299.8</ele><time>2026-09-24T00:23:58Z</time></trkpt>
      <trkpt lat="32.691700" lon="131.314240"><ele>302.0</ele><time>2026-09-24T00:24:05Z</time></trkpt>
      <trkpt lat="32.692170" lon="131.315030"><ele>310.0</ele><time>2026-09-24T00:24:46Z</time></trkpt>
      <trkpt lat="32.692260" lon="131.315400"><ele>312.0</ele><time>2026-09-24T00:25:03Z</time></trkpt>
      <trkpt lat="32.692460" lon="131.315750"><ele>314.2</ele><time>2026-09-24T00:25:24Z</time></trkpt>
      <trkpt lat="32.692870" lon="131.316100"><ele>317.4</ele><time>2026-09-24T00:25:55Z</time></trkpt>
      <trkpt lat="32.692950" lon="131.316350"><ele>317.4</ele><time>2026-09-24T00:26:09Z</time></trkpt>
      <trkpt lat="32.692520" lon="131.316880"><ele>317.4</ele><time>2026-09-24T00:32:47Z</time></trkpt>
      <trkpt lat="32.692160" lon="131.316890"><ele>316.2</ele><time>2026-09-24T00:32:59Z</time></trkpt>
      <trkpt lat="32.692010" lon="131.316990"><ele>315.8</ele><time>2026-09-24T00:33:03Z</time></trkpt>
      <trkpt lat="32.691830" lon="131.317280"><ele>315.2</ele><time>2026-09-24T00:33:09Z</time></trkpt>
      <trkpt lat="32.691520" lon="131.317500"><ele>313.6</ele><time>2026-09-24T00:33:15Z</time></trkpt>
      <trkpt lat="32.691390" lon="131.317690"><ele>312.2</ele><time>2026-09-24T00:33:18Z</time></trkpt>
      <trkpt lat="32.691090" lon="131.318410"><ele>310.0</ele><time>2026-09-24T00:33:26Z</time></trkpt>
      <trkpt lat="32.690480" lon="131.318740"><ele>308.2</ele><time>2026-09-24T00:33:35Z</time></trkpt>
      <trkpt lat="32.690138" lon="131.319464"><ele>302.2</ele><time>2026-09-24T00:33:45Z</time></trkpt>
      <trkpt lat="32.689858" lon="131.319578"><ele>302.2</ele><time>2026-09-24T00:33:49Z</time></trkpt>
      <trkpt lat="32.689734" lon="131.319768"><ele>302.4</ele><time>2026-09-24T00:33:53Z</time></trkpt>
      <trkpt lat="32.689392" lon="131.319866"><ele>302.4</ele><time>2026-09-24T00:34:00Z</time></trkpt>
      <trkpt lat="32.689010" lon="131.320394"><ele>300.2</ele><time>2026-09-24T00:34:11Z</time></trkpt>
      <trkpt lat="32.688695" lon="131.320464"><ele>297.6</ele><time>2026-09-24T00:34:15Z</time></trkpt>
      <trkpt lat="32.688208" lon="131.320374"><ele>294.6</ele><time>2026-09-24T00:34:20Z</time></trkpt>
      <trkpt lat="32.686748" lon="131.320623"><ele>293.0</ele><time>2026-09-24T00:34:36Z</time></trkpt>
      <trkpt lat="32.686213" lon="131.320924"><ele>292.8</ele><time>2026-09-24T00:34:44Z</time></trkpt>
      <trkpt lat="32.686011" lon="131.320866"><ele>293.4</ele><time>2026-09-24T00:34:48Z</time></trkpt>
      <trkpt lat="32.685606" lon="131.320431"><ele>292.8</ele><time>2026-09-24T00:35:00Z</time></trkpt>
      <trkpt lat="32.685084" lon="131.320739"><ele>295.0</ele><time>2026-09-24T00:35:17Z</time></trkpt>
      <trkpt lat="32.685035" lon="131.320713"><ele>295.0</ele><time>2026-09-24T00:35:20Z</time></trkpt>
      <trkpt lat="32.685081" lon="131.320633"><ele>295.6</ele><time>2026-09-24T00:35:25Z</time></trkpt>
      <trkpt lat="32.685021" lon="131.320721"><ele>294.8</ele><time>2026-09-24T00:35:54Z</time></trkpt>
      <trkpt lat="32.684729" lon="131.320712"><ele>295.2</ele><time>2026-09-24T00:36:08Z</time></trkpt>
      <trkpt lat="32.683779" lon="131.320543"><ele>296.2</ele><time>2026-09-24T00:36:35Z</time></trkpt>
      <trkpt lat="32.683598" lon="131.320678"><ele>296.8</ele><time>2026-09-24T00:36:41Z</time></trkpt>
      <trkpt lat="32.683391" lon="131.321105"><ele>296.8</ele><time>2026-09-24T00:36:50Z</time></trkpt>
      <trkpt lat="32.683176" lon="131.321360"><ele>295.2</ele><time>2026-09-24T00:36:56Z</time></trkpt>
      <trkpt lat="32.682598" lon="131.321373"><ele>294.2</ele><time>2026-09-24T00:37:07Z</time></trkpt>
      <trkpt lat="32.682180" lon="131.321575"><ele>294.8</ele><time>2026-09-24T00:37:18Z</time></trkpt>
      <trkpt lat="32.681840" lon="131.322139"><ele>294.2</ele><time>2026-09-24T00:37:35Z</time></trkpt>
      <trkpt lat="32.681119" lon="131.322396"><ele>295.8</ele><time>2026-09-24T00:38:02Z</time></trkpt>
      <trkpt lat="32.680754" lon="131.322747"><ele>299.0</ele><time>2026-09-24T00:38:59Z</time></trkpt>
      <trkpt lat="32.680627" lon="131.322976"><ele>299.4</ele><time>2026-09-24T00:39:11Z</time></trkpt>
      <trkpt lat="32.680001" lon="131.323294"><ele>300.4</ele><time>2026-09-24T00:39:32Z</time></trkpt>
      <trkpt lat="32.679880" lon="131.323446"><ele>301.0</ele><time>2026-09-24T00:39:39Z</time></trkpt>
      <trkpt lat="32.679765" lon="131.323933"><ele>302.8</ele><time>2026-09-24T00:39:54Z</time></trkpt>
      <trkpt lat="32.679537" lon="131.324140"><ele>304.0</ele><time>2026-09-24T00:40:07Z</time></trkpt>
      <trkpt lat="32.679697" lon="131.324576"><ele>306.2</ele><time>2026-09-24T00:40:28Z</time></trkpt>
      <trkpt lat="32.679686" lon="131.324779"><ele>306.6</ele><time>2026-09-24T00:40:35Z</time></trkpt>
      <trkpt lat="32.679578" lon="131.324910"><ele>306.2</ele><time>2026-09-24T00:40:40Z</time></trkpt>
      <trkpt lat="32.679102" lon="131.324689"><ele>305.6</ele><time>2026-09-24T00:40:53Z</time></trkpt>
      <trkpt lat="32.678416" lon="131.323690"><ele>309.4</ele><time>2026-09-24T00:41:37Z</time></trkpt>
      <trkpt lat="32.678039" lon="131.323566"><ele>308.8</ele><time>2026-09-24T00:41:50Z</time></trkpt>
      <trkpt lat="32.677952" lon="131.323669"><ele>309.8</ele><time>2026-09-24T00:41:54Z</time></trkpt>
      <trkpt lat="32.677949" lon="131.324002"><ele>311.2</ele><time>2026-09-24T00:42:06Z</time></trkpt>
      <trkpt lat="32.677821" lon="131.324356"><ele>312.2</ele><time>2026-09-24T00:42:19Z</time></trkpt>
      <trkpt lat="32.677565" lon="131.324522"><ele>313.8</ele><time>2026-09-24T00:42:32Z</time></trkpt>
      <trkpt lat="32.676997" lon="131.324695"><ele>318.2</ele><time>2026-09-24T00:43:09Z</time></trkpt>
      <trkpt lat="32.676972" lon="131.325043"><ele>317.4</ele><time>2026-09-24T00:43:24Z</time></trkpt>
      <trkpt lat="32.676851" lon="131.325211"><ele>316.8</ele><time>2026-09-24T00:43:33Z</time></trkpt>
      <trkpt lat="32.675511" lon="131.325353"><ele>312.8</ele><time>2026-09-24T00:43:59Z</time></trkpt>
      <trkpt lat="32.675087" lon="131.325505"><ele>310.0</ele><time>2026-09-24T00:44:07Z</time></trkpt>
      <trkpt lat="32.673208" lon="131.327007"><ele>301.0</ele><time>2026-09-24T00:44:41Z</time></trkpt>
      <trkpt lat="32.673017" lon="131.327445"><ele>299.6</ele><time>2026-09-24T00:44:50Z</time></trkpt>
      <trkpt lat="32.672939" lon="131.327410"><ele>300.8</ele><time>2026-09-24T00:45:06Z</time></trkpt>
      <trkpt lat="32.673346" lon="131.327799"><ele>297.2</ele><time>2026-09-24T00:45:41Z</time></trkpt>
      <trkpt lat="32.674109" lon="131.327822"><ele>293.8</ele><time>2026-09-24T00:45:53Z</time></trkpt>
      <trkpt lat="32.674290" lon="131.327954"><ele>292.8</ele><time>2026-09-24T00:45:56Z</time></trkpt>
      <trkpt lat="32.674320" lon="131.328485"><ele>295.0</ele><time>2026-09-24T00:46:05Z</time></trkpt>
      <trkpt lat="32.674026" lon="131.328848"><ele>299.6</ele><time>2026-09-24T00:46:27Z</time></trkpt>
      <trkpt lat="32.673888" lon="131.329302"><ele>303.8</ele><time>2026-09-24T00:47:03Z</time></trkpt>
      <trkpt lat="32.673988" lon="131.329393"><ele>305.2</ele><time>2026-09-24T00:47:13Z</time></trkpt>
      <trkpt lat="32.674567" lon="131.329519"><ele>313.4</ele><time>2026-09-24T00:48:08Z</time></trkpt>
      <trkpt lat="32.675138" lon="131.329887"><ele>317.8</ele><time>2026-09-24T00:48:56Z</time></trkpt>
      <trkpt lat="32.675492" lon="131.330304"><ele>318.4</ele><time>2026-09-24T00:49:17Z</time></trkpt>
      <trkpt lat="32.675698" lon="131.330759"><ele>319.8</ele><time>2026-09-24T00:49:36Z</time></trkpt>
      <trkpt lat="32.675902" lon="131.330898"><ele>321.0</ele><time>2026-09-24T00:49:48Z</time></trkpt>
      <trkpt lat="32.676439" lon="131.330920"><ele>322.2</ele><time>2026-09-24T00:50:13Z</time></trkpt>
      <trkpt lat="32.677186" lon="131.330462"><ele>324.6</ele><time>2026-09-24T00:50:46Z</time></trkpt>
      <trkpt lat="32.677582" lon="131.330515"><ele>324.2</ele><time>2026-09-24T00:50:59Z</time></trkpt>
      <trkpt lat="32.677872" lon="131.330454"><ele>322.8</ele><time>2026-09-24T00:51:06Z</time></trkpt>
      <trkpt lat="32.678163" lon="131.330240"><ele>319.6</ele><time>2026-09-24T00:51:11Z</time></trkpt>
      <trkpt lat="32.678367" lon="131.329781"><ele>317.2</ele><time>2026-09-24T00:51:17Z</time></trkpt>
      <trkpt lat="32.678562" lon="131.329700"><ele>317.4</ele><time>2026-09-24T00:51:21Z</time></trkpt>
      <trkpt lat="32.678802" lon="131.330244"><ele>317.0</ele><time>2026-09-24T00:51:32Z</time></trkpt>
      <trkpt lat="32.679708" lon="131.331447"><ele>313.2</ele><time>2026-09-24T00:51:54Z</time></trkpt>
      <trkpt lat="32.679488" lon="131.332062"><ele>306.2</ele><time>2026-09-24T00:52:04Z</time></trkpt>
      <trkpt lat="32.679237" lon="131.332332"><ele>301.6</ele><time>2026-09-24T00:52:10Z</time></trkpt>
      <trkpt lat="32.679266" lon="131.332666"><ele>298.2</ele><time>2026-09-24T00:52:16Z</time></trkpt>
      <trkpt lat="32.679421" lon="131.332627"><ele>297.0</ele><time>2026-09-24T00:52:19Z</time></trkpt>
      <trkpt lat="32.679801" lon="131.332181"><ele>295.8</ele><time>2026-09-24T00:52:27Z</time></trkpt>
      <trkpt lat="32.680125" lon="131.332048"><ele>293.8</ele><time>2026-09-24T00:52:31Z</time></trkpt>
      <trkpt lat="32.681150" lon="131.332106"><ele>290.6</ele><time>2026-09-24T00:52:44Z</time></trkpt>
      <trkpt lat="32.683471" lon="131.332039"><ele>290.8</ele><time>2026-09-24T00:53:21Z</time></trkpt>
      <trkpt lat="32.683802" lon="131.331760"><ele>291.4</ele><time>2026-09-24T00:53:28Z</time></trkpt>
      <trkpt lat="32.684650" lon="131.330231"><ele>296.6</ele><time>2026-09-24T00:54:03Z</time></trkpt>
      <trkpt lat="32.684862" lon="131.330110"><ele>297.6</ele><time>2026-09-24T00:54:15Z</time></trkpt>
      <trkpt lat="32.685052" lon="131.330164"><ele>298.4</ele><time>2026-09-24T00:54:23Z</time></trkpt>
      <trkpt lat="32.685029" lon="131.330408"><ele>299.4</ele><time>2026-09-24T00:54:34Z</time></trkpt>
      <trkpt lat="32.684608" lon="131.330973"><ele>300.6</ele><time>2026-09-24T00:55:02Z</time></trkpt>
      <trkpt lat="32.684503" lon="131.331321"><ele>301.6</ele><time>2026-09-24T00:55:15Z</time></trkpt>
      <trkpt lat="32.684526" lon="131.331615"><ele>302.2</ele><time>2026-09-24T00:55:27Z</time></trkpt>
      <trkpt lat="32.684795" lon="131.332449"><ele>305.2</ele><time>2026-09-24T00:55:59Z</time></trkpt>
      <trkpt lat="32.684828" lon="131.332776"><ele>306.0</ele><time>2026-09-24T00:56:12Z</time></trkpt>
      <trkpt lat="32.684766" lon="131.333162"><ele>307.2</ele><time>2026-09-24T00:56:29Z</time></trkpt>
      <trkpt lat="32.684643" lon="131.333464"><ele>308.8</ele><time>2026-09-24T00:56:45Z</time></trkpt>
      <trkpt lat="32.683889" lon="131.334205"><ele>315.0</ele><time>2026-09-24T00:57:57Z</time></trkpt>
      <trkpt lat="32.683706" lon="131.334775"><ele>315.0</ele><time>2026-09-24T00:58:16Z</time></trkpt>
      <trkpt lat="32.683663" lon="131.335865"><ele>313.4</ele><time>2026-09-24T00:58:34Z</time></trkpt>
      <trkpt lat="32.683567" lon="131.336212"><ele>313.2</ele><time>2026-09-24T00:58:39Z</time></trkpt>
      <trkpt lat="32.682805" lon="131.337291"><ele>311.8</ele><time>2026-09-24T00:58:57Z</time></trkpt>
      <trkpt lat="32.682738" lon="131.337512"><ele>312.6</ele><time>2026-09-24T00:59:01Z</time></trkpt>
      <trkpt lat="32.682791" lon="131.337806"><ele>313.4</ele><time>2026-09-24T00:59:07Z</time></trkpt>
      <trkpt lat="32.683325" lon="131.338613"><ele>315.4</ele><time>2026-09-24T00:59:31Z</time></trkpt>
      <trkpt lat="32.683422" lon="131.338904"><ele>315.6</ele><time>2026-09-24T00:59:38Z</time></trkpt>
      <trkpt lat="32.683421" lon="131.339289"><ele>315.0</ele><time>2026-09-24T00:59:45Z</time></trkpt>
      <trkpt lat="32.682949" lon="131.340181"><ele>315.4</ele><time>2026-09-24T01:00:04Z</time></trkpt>
      <trkpt lat="32.682909" lon="131.340552"><ele>315.0</ele><time>2026-09-24T01:00:10Z</time></trkpt>
      <trkpt lat="32.683092" lon="131.341065"><ele>314.2</ele><time>2026-09-24T01:00:18Z</time></trkpt>
      <trkpt lat="32.683790" lon="131.341659"><ele>309.8</ele><time>2026-09-24T01:00:29Z</time></trkpt>
      <trkpt lat="32.686196" lon="131.342415"><ele>291.0</ele><time>2026-09-24T01:00:53Z</time></trkpt>
      <trkpt lat="32.686907" lon="131.342860"><ele>286.0</ele><time>2026-09-24T01:01:00Z</time></trkpt>
      <trkpt lat="32.687434" lon="131.343427"><ele>283.2</ele><time>2026-09-24T01:01:07Z</time></trkpt>
      <trkpt lat="32.687762" lon="131.344068"><ele>278.2</ele><time>2026-09-24T01:01:14Z</time></trkpt>
      <trkpt lat="32.687937" lon="131.344992"><ele>277.8</ele><time>2026-09-24T01:01:24Z</time></trkpt>
      <trkpt lat="32.687909" lon="131.346758"><ele>272.4</ele><time>2026-09-24T01:02:49Z</time></trkpt>
      <trkpt lat="32.687847" lon="131.347251"><ele>272.6</ele><time>2026-09-24T01:02:55Z</time></trkpt>
      <trkpt lat="32.687716" lon="131.347589"><ele>273.6</ele><time>2026-09-24T01:03:02Z</time></trkpt>
      <trkpt lat="32.686774" lon="131.349113"><ele>284.4</ele><time>2026-09-24T01:04:39Z</time></trkpt>
      <trkpt lat="32.686387" lon="131.349611"><ele>285.8</ele><time>2026-09-24T01:05:09Z</time></trkpt>
      <trkpt lat="32.685943" lon="131.349905"><ele>286.4</ele><time>2026-09-24T01:05:25Z</time></trkpt>
      <trkpt lat="32.685519" lon="131.350040"><ele>287.2</ele><time>2026-09-24T01:05:39Z</time></trkpt>
      <trkpt lat="32.684140" lon="131.349957"><ele>289.8</ele><time>2026-09-24T01:06:22Z</time></trkpt>
      <trkpt lat="32.683633" lon="131.350100"><ele>290.8</ele><time>2026-09-24T01:06:38Z</time></trkpt>
      <trkpt lat="32.683191" lon="131.350586"><ele>291.8</ele><time>2026-09-24T01:06:58Z</time></trkpt>
      <trkpt lat="32.682815" lon="131.351636"><ele>291.6</ele><time>2026-09-24T01:07:20Z</time></trkpt>
      <trkpt lat="32.682457" lon="131.351915"><ele>290.0</ele><time>2026-09-24T01:07:28Z</time></trkpt>
      <trkpt lat="32.680687" lon="131.352114"><ele>287.0</ele><time>2026-09-24T01:07:55Z</time></trkpt>
      <trkpt lat="32.680012" lon="131.352596"><ele>278.4</ele><time>2026-09-24T01:08:03Z</time></trkpt>
      <trkpt lat="32.679658" lon="131.352736"><ele>275.0</ele><time>2026-09-24T01:08:07Z</time></trkpt>
      <trkpt lat="32.679383" lon="131.352597"><ele>273.0</ele><time>2026-09-24T01:08:10Z</time></trkpt>
      <trkpt lat="32.678698" lon="131.351962"><ele>269.0</ele><time>2026-09-24T01:08:18Z</time></trkpt>
      <trkpt lat="32.678297" lon="131.351799"><ele>266.2</ele><time>2026-09-24T01:08:22Z</time></trkpt>
      <trkpt lat="32.678119" lon="131.351807"><ele>264.2</ele><time>2026-09-24T01:08:24Z</time></trkpt>
      <trkpt lat="32.677686" lon="131.352017"><ele>260.4</ele><time>2026-09-24T01:08:28Z</time></trkpt>
      <trkpt lat="32.677068" lon="131.352627"><ele>254.4</ele><time>2026-09-24T01:08:35Z</time></trkpt>
      <trkpt lat="32.676535" lon="131.353652"><ele>252.8</ele><time>2026-09-24T01:08:43Z</time></trkpt>
      <trkpt lat="32.676327" lon="131.354870"><ele>248.8</ele><time>2026-09-24T01:08:54Z</time></trkpt>
      <trkpt lat="32.676392" lon="131.362700"><ele>269.8</ele><time>2026-09-24T01:11:33Z</time></trkpt>
      <trkpt lat="32.675916" lon="131.363948"><ele>272.0</ele><time>2026-09-24T01:12:02Z</time></trkpt>
      <trkpt lat="32.673758" lon="131.370238"><ele>255.8</ele><time>2026-09-24T01:13:22Z</time></trkpt>
      <trkpt lat="32.673325" lon="131.370919"><ele>254.2</ele><time>2026-09-24T01:13:31Z</time></trkpt>
      <trkpt lat="32.672573" lon="131.371547"><ele>249.2</ele><time>2026-09-24T01:13:44Z</time></trkpt>
      <trkpt lat="32.669498" lon="131.372853"><ele>239.0</ele><time>2026-09-24T01:14:20Z</time></trkpt>
      <trkpt lat="32.668327" lon="131.373532"><ele>237.8</ele><time>2026-09-24T01:14:36Z</time></trkpt>
      <trkpt lat="32.665274" lon="131.376391"><ele>242.6</ele><time>2026-09-24T01:15:45Z</time></trkpt>
      <trkpt lat="32.664661" lon="131.377117"><ele>243.6</ele><time>2026-09-24T01:16:06Z</time></trkpt>
      <trkpt lat="32.664264" lon="131.377863"><ele>245.2</ele><time>2026-09-24T01:16:25Z</time></trkpt>
      <trkpt lat="32.663177" lon="131.381685"><ele>251.0</ele><time>2026-09-24T01:18:15Z</time></trkpt>
      <trkpt lat="32.662272" lon="131.384131"><ele>254.6</ele><time>2026-09-24T01:19:27Z</time></trkpt>
      <trkpt lat="32.660230" lon="131.388516"><ele>235.2</ele><time>2026-09-24T01:20:18Z</time></trkpt>
      <trkpt lat="32.658097" lon="131.393201"><ele>239.6</ele><time>2026-09-24T01:21:15Z</time></trkpt>
      <trkpt lat="32.657855" lon="131.393591"><ele>241.0</ele><time>2026-09-24T01:21:33Z</time></trkpt>
      <trkpt lat="32.644347" lon="131.395363"><ele>246.2</ele><time>2026-09-24T01:31:04Z</time></trkpt>
      <trkpt lat="32.644249" lon="131.395435"><ele>246.0</ele><time>2026-09-24T01:31:06Z</time></trkpt>
      <trkpt lat="32.643427" lon="131.394853"><ele>239.0</ele><time>2026-09-24T01:31:16Z</time></trkpt>
      <trkpt lat="32.642697" lon="131.394550"><ele>233.2</ele><time>2026-09-24T01:31:23Z</time></trkpt>
      <trkpt lat="32.642332" lon="131.394497"><ele>229.2</ele><time>2026-09-24T01:31:26Z</time></trkpt>
      <trkpt lat="32.641706" lon="131.394614"><ele>224.8</ele><time>2026-09-24T01:31:31Z</time></trkpt>
      <trkpt lat="32.640475" lon="131.395726"><ele>237.6</ele><time>2026-09-24T01:31:55Z</time></trkpt>
      <trkpt lat="32.638105" lon="131.398034"><ele>246.4</ele><time>2026-09-24T01:35:28Z</time></trkpt>
      <trkpt lat="32.637851" lon="131.398336"><ele>247.8</ele><time>2026-09-24T01:35:42Z</time></trkpt>
      <trkpt lat="32.637547" lon="131.398890"><ele>249.6</ele><time>2026-09-24T01:36:01Z</time></trkpt>
      <trkpt lat="32.637443" lon="131.399155"><ele>249.8</ele><time>2026-09-24T01:36:09Z</time></trkpt>
      <trkpt lat="32.637350" lon="131.399867"><ele>247.8</ele><time>2026-09-24T01:36:22Z</time></trkpt>
      <trkpt lat="32.637413" lon="131.404463"><ele>232.0</ele><time>2026-09-24T01:37:07Z</time></trkpt>
      <trkpt lat="32.637326" lon="131.405233"><ele>229.8</ele><time>2026-09-24T01:37:13Z</time></trkpt>
      <trkpt lat="32.635914" lon="131.407533"><ele>219.2</ele><time>2026-09-24T01:37:34Z</time></trkpt>
      <trkpt lat="32.634696" lon="131.409384"><ele>230.6</ele><time>2026-09-24T01:38:23Z</time></trkpt>
      <trkpt lat="32.634194" lon="131.409884"><ele>231.4</ele><time>2026-09-24T01:38:52Z</time></trkpt>
      <trkpt lat="32.633731" lon="131.410073"><ele>230.6</ele><time>2026-09-24T01:39:06Z</time></trkpt>
      <trkpt lat="32.632136" lon="131.410179"><ele>219.6</ele><time>2026-09-24T01:39:28Z</time></trkpt>
      <trkpt lat="32.631400" lon="131.410376"><ele>214.8</ele><time>2026-09-24T01:39:34Z</time></trkpt>
      <trkpt lat="32.630722" lon="131.410671"><ele>211.2</ele><time>2026-09-24T01:39:40Z</time></trkpt>
      <trkpt lat="32.629951" lon="131.411223"><ele>210.0</ele><time>2026-09-24T01:39:48Z</time></trkpt>
      <trkpt lat="32.629227" lon="131.412167"><ele>210.0</ele><time>2026-09-24T01:39:58Z</time></trkpt>
      <trkpt lat="32.627415" lon="131.415364"><ele>215.2</ele><time>2026-09-24T01:40:56Z</time></trkpt>
      <trkpt lat="32.626980" lon="131.416474"><ele>214.6</ele><time>2026-09-24T01:41:13Z</time></trkpt>
      <trkpt lat="32.626921" lon="131.417408"><ele>212.6</ele><time>2026-09-24T01:41:24Z</time></trkpt>
      <trkpt lat="32.627598" lon="131.420271"><ele>209.2</ele><time>2026-09-24T01:41:54Z</time></trkpt>
      <trkpt lat="32.627553" lon="131.421178"><ele>210.6</ele><time>2026-09-24T01:42:05Z</time></trkpt>
      <trkpt lat="32.627268" lon="131.423949"><ele>218.2</ele><time>2026-09-24T01:43:21Z</time></trkpt>
      <trkpt lat="32.627228" lon="131.424865"><ele>217.0</ele><time>2026-09-24T01:43:40Z</time></trkpt>
      <trkpt lat="32.626906" lon="131.425706"><ele>214.8</ele><time>2026-09-24T01:43:54Z</time></trkpt>
      <trkpt lat="32.626427" lon="131.426310"><ele>210.4</ele><time>2026-09-24T01:44:25Z</time></trkpt>
      <trkpt lat="32.626486" lon="131.426417"><ele>209.8</ele><time>2026-09-24T01:46:01Z</time></trkpt>
      <trkpt lat="32.626456" lon="131.426286"><ele>209.8</ele><time>2026-09-24T01:47:30Z</time></trkpt>
      <trkpt lat="32.626473" lon="131.426355"><ele>209.8</ele><time>2026-09-24T01:48:22Z</time></trkpt>
      <trkpt lat="32.626413" lon="131.426319"><ele>209.8</ele><time>2026-09-24T01:48:46Z</time></trkpt>
      <trkpt lat="32.626104" lon="131.426749"><ele>207.8</ele><time>2026-09-24T01:48:58Z</time></trkpt>
      <trkpt lat="32.625859" lon="131.427459"><ele>203.2</ele><time>2026-09-24T01:49:09Z</time></trkpt>
      <trkpt lat="32.625845" lon="131.428002"><ele>199.2</ele><time>2026-09-24T01:49:17Z</time></trkpt>
      <trkpt lat="32.626068" lon="131.429261"><ele>191.8</ele><time>2026-09-24T01:49:33Z</time></trkpt>
      <trkpt lat="32.625930" lon="131.430077"><ele>191.8</ele><time>2026-09-24T01:49:48Z</time></trkpt>
      <trkpt lat="32.625560" lon="131.430802"><ele>192.4</ele><time>2026-09-24T01:50:02Z</time></trkpt>
      <trkpt lat="32.624944" lon="131.431411"><ele>191.2</ele><time>2026-09-24T01:50:17Z</time></trkpt>
      <trkpt lat="32.624028" lon="131.432158"><ele>186.0</ele><time>2026-09-24T01:50:33Z</time></trkpt>
      <trkpt lat="32.623658" lon="131.432776"><ele>181.0</ele><time>2026-09-24T01:50:39Z</time></trkpt>
      <trkpt lat="32.623374" lon="131.433625"><ele>172.8</ele><time>2026-09-24T01:50:45Z</time></trkpt>
      <trkpt lat="32.622844" lon="131.436760"><ele>179.2</ele><time>2026-09-24T01:51:12Z</time></trkpt>
      <trkpt lat="32.622168" lon="131.439955"><ele>198.8</ele><time>2026-09-24T01:53:53Z</time></trkpt>
      <trkpt lat="32.621767" lon="131.440979"><ele>203.0</ele><time>2026-09-24T01:54:46Z</time></trkpt>
      <trkpt lat="32.621158" lon="131.441752"><ele>203.2</ele><time>2026-09-24T01:55:34Z</time></trkpt>
      <trkpt lat="32.620545" lon="131.442709"><ele>204.6</ele><time>2026-09-24T01:56:20Z</time></trkpt>
      <trkpt lat="32.620098" lon="131.444132"><ele>205.2</ele><time>2026-09-24T01:57:05Z</time></trkpt>
      <trkpt lat="32.619677" lon="131.446034"><ele>204.2</ele><time>2026-09-24T01:58:07Z</time></trkpt>
      <trkpt lat="32.619489" lon="131.446562"><ele>204.0</ele><time>2026-09-24T01:58:21Z</time></trkpt>
      <trkpt lat="32.619104" lon="131.447203"><ele>199.2</ele><time>2026-09-24T01:58:33Z</time></trkpt>
      <trkpt lat="32.618649" lon="131.447705"><ele>195.8</ele><time>2026-09-24T01:58:42Z</time></trkpt>
      <trkpt lat="32.617492" lon="131.448522"><ele>182.8</ele><time>2026-09-24T01:58:55Z</time></trkpt>
      <trkpt lat="32.616176" lon="131.449260"><ele>177.0</ele><time>2026-09-24T01:59:08Z</time></trkpt>
      <trkpt lat="32.615674" lon="131.449333"><ele>175.4</ele><time>2026-09-24T01:59:13Z</time></trkpt>
      <trkpt lat="32.615179" lon="131.449243"><ele>174.0</ele><time>2026-09-24T01:59:18Z</time></trkpt>
      <trkpt lat="32.613734" lon="131.448322"><ele>169.2</ele><time>2026-09-24T01:59:34Z</time></trkpt>
      <trkpt lat="32.613142" lon="131.448416"><ele>168.2</ele><time>2026-09-24T01:59:40Z</time></trkpt>
      <trkpt lat="32.612902" lon="131.448637"><ele>168.8</ele><time>2026-09-24T01:59:43Z</time></trkpt>
      <trkpt lat="32.612728" lon="131.448921"><ele>168.6</ele><time>2026-09-24T01:59:46Z</time></trkpt>
      <trkpt lat="32.611195" lon="131.452650"><ele>171.8</ele><time>2026-09-24T02:00:43Z</time></trkpt>
      <trkpt lat="32.610557" lon="131.454037"><ele>180.6</ele><time>2026-09-24T02:01:45Z</time></trkpt>
      <trkpt lat="32.610179" lon="131.455059"><ele>187.2</ele><time>2026-09-24T02:02:49Z</time></trkpt>
      <trkpt lat="32.609782" lon="131.455849"><ele>189.0</ele><time>2026-09-24T02:03:35Z</time></trkpt>
      <trkpt lat="32.608971" lon="131.459210"><ele>180.8</ele><time>2026-09-24T02:04:24Z</time></trkpt>
      <trkpt lat="32.609027" lon="131.459482"><ele>180.6</ele><time>2026-09-24T02:04:25Z</time></trkpt>
      <trkpt lat="32.608897" lon="131.459521"><ele>179.6</ele><time>2026-09-24T02:04:28Z</time></trkpt>
      <trkpt lat="32.609016" lon="131.460474"><ele>178.6</ele><time>2026-09-24T02:04:42Z</time></trkpt>
      <trkpt lat="32.609460" lon="131.461735"><ele>174.0</ele><time>2026-09-24T02:04:58Z</time></trkpt>
      <trkpt lat="32.609737" lon="131.462245"><ele>173.0</ele><time>2026-09-24T02:05:04Z</time></trkpt>
      <trkpt lat="32.610740" lon="131.463500"><ele>170.4</ele><time>2026-09-24T02:05:21Z</time></trkpt>
      <trkpt lat="32.611915" lon="131.464794"><ele>172.6</ele><time>2026-09-24T02:05:46Z</time></trkpt>
      <trkpt lat="32.612360" lon="131.465574"><ele>173.6</ele><time>2026-09-24T02:06:01Z</time></trkpt>
      <trkpt lat="32.612578" lon="131.466171"><ele>174.4</ele><time>2026-09-24T02:06:12Z</time></trkpt>
      <trkpt lat="32.612772" lon="131.467131"><ele>175.4</ele><time>2026-09-24T02:06:30Z</time></trkpt>
      <trkpt lat="32.612799" lon="131.468468"><ele>176.6</ele><time>2026-09-24T02:06:58Z</time></trkpt>
      <trkpt lat="32.612617" lon="131.469629"><ele>178.4</ele><time>2026-09-24T02:07:58Z</time></trkpt>
      <trkpt lat="32.612260" lon="131.470289"><ele>178.6</ele><time>2026-09-24T02:08:18Z</time></trkpt>
      <trkpt lat="32.611648" lon="131.470815"><ele>176.8</ele><time>2026-09-24T02:08:39Z</time></trkpt>
      <trkpt lat="32.610312" lon="131.471442"><ele>171.0</ele><time>2026-09-24T02:09:00Z</time></trkpt>
      <trkpt lat="32.609976" lon="131.471677"><ele>168.6</ele><time>2026-09-24T02:09:07Z</time></trkpt>
      <trkpt lat="32.608738" lon="131.473441"><ele>158.6</ele><time>2026-09-24T02:09:32Z</time></trkpt>
      <trkpt lat="32.607967" lon="131.474395"><ele>153.0</ele><time>2026-09-24T02:09:50Z</time></trkpt>
      <trkpt lat="32.603935" lon="131.476460"><ele>142.8</ele><time>2026-09-24T02:10:44Z</time></trkpt>
      <trkpt lat="32.603791" lon="131.476936"><ele>141.6</ele><time>2026-09-24T02:10:50Z</time></trkpt>
      <trkpt lat="32.603382" lon="131.477790"><ele>141.6</ele><time>2026-09-24T02:11:06Z</time></trkpt>
      <trkpt lat="32.603678" lon="131.477823"><ele>140.4</ele><time>2026-09-24T02:12:31Z</time></trkpt>
      <trkpt lat="32.603571" lon="131.478480"><ele>140.8</ele><time>2026-09-24T02:12:50Z</time></trkpt>
      <trkpt lat="32.603584" lon="131.479111"><ele>139.8</ele><time>2026-09-24T02:12:59Z</time></trkpt>
      <trkpt lat="32.603051" lon="131.480855"><ele>136.6</ele><time>2026-09-24T02:13:19Z</time></trkpt>
      <trkpt lat="32.602661" lon="131.481637"><ele>134.8</ele><time>2026-09-24T02:13:30Z</time></trkpt>
      <trkpt lat="32.601383" lon="131.483592"><ele>140.8</ele><time>2026-09-24T02:14:31Z</time></trkpt>
      <trkpt lat="32.599536" lon="131.485232"><ele>147.2</ele><time>2026-09-24T02:16:07Z</time></trkpt>
      <trkpt lat="32.597913" lon="131.486656"><ele>137.0</ele><time>2026-09-24T02:16:37Z</time></trkpt>
      <trkpt lat="32.597655" lon="131.487019"><ele>132.0</ele><time>2026-09-24T02:16:41Z</time></trkpt>
      <trkpt lat="32.597066" lon="131.488168"><ele>125.0</ele><time>2026-09-24T02:16:52Z</time></trkpt>
      <trkpt lat="32.596627" lon="131.489345"><ele>117.8</ele><time>2026-09-24T02:17:01Z</time></trkpt>
      <trkpt lat="32.596295" lon="131.490091"><ele>119.4</ele><time>2026-09-24T02:17:07Z</time></trkpt>
      <trkpt lat="32.595927" lon="131.491209"><ele>116.6</ele><time>2026-09-24T02:17:16Z</time></trkpt>
      <trkpt lat="32.594786" lon="131.497065"><ele>109.8</ele><time>2026-09-24T02:18:25Z</time></trkpt>
      <trkpt lat="32.594556" lon="131.497018"><ele>109.2</ele><time>2026-09-24T02:18:49Z</time></trkpt>
      <trkpt lat="32.593733" lon="131.497657"><ele>109.8</ele><time>2026-09-24T02:19:09Z</time></trkpt>
      <trkpt lat="32.593288" lon="131.497836"><ele>110.4</ele><time>2026-09-24T02:19:20Z</time></trkpt>
      <trkpt lat="32.592680" lon="131.497898"><ele>111.2</ele><time>2026-09-24T02:19:35Z</time></trkpt>
      <trkpt lat="32.590767" lon="131.497744"><ele>115.0</ele><time>2026-09-24T02:20:26Z</time></trkpt>
      <trkpt lat="32.589954" lon="131.497895"><ele>116.0</ele><time>2026-09-24T02:20:49Z</time></trkpt>
      <trkpt lat="32.589258" lon="131.498303"><ele>116.0</ele><time>2026-09-24T02:21:12Z</time></trkpt>
      <trkpt lat="32.588400" lon="131.499188"><ele>118.2</ele><time>2026-09-24T02:21:44Z</time></trkpt>
      <trkpt lat="32.588016" lon="131.499996"><ele>119.4</ele><time>2026-09-24T02:22:06Z</time></trkpt>
      <trkpt lat="32.587819" lon="131.500821"><ele>119.8</ele><time>2026-09-24T02:22:25Z</time></trkpt>
      <trkpt lat="32.587414" lon="131.505170"><ele>98.6</ele><time>2026-09-24T02:23:08Z</time></trkpt>
      <trkpt lat="32.587275" lon="131.506071"><ele>96.4</ele><time>2026-09-24T02:23:15Z</time></trkpt>
      <trkpt lat="32.586931" lon="131.506914"><ele>94.0</ele><time>2026-09-24T02:23:22Z</time></trkpt>
      <trkpt lat="32.586476" lon="131.507447"><ele>90.2</ele><time>2026-09-24T02:23:28Z</time></trkpt>
      <trkpt lat="32.585921" lon="131.507819"><ele>88.0</ele><time>2026-09-24T02:23:34Z</time></trkpt>
      <trkpt lat="32.585146" lon="131.507995"><ele>79.6</ele><time>2026-09-24T02:23:41Z</time></trkpt>
      <trkpt lat="32.584544" lon="131.507871"><ele>71.8</ele><time>2026-09-24T02:23:46Z</time></trkpt>
      <trkpt lat="32.582306" lon="131.507125"><ele>58.2</ele><time>2026-09-24T02:24:04Z</time></trkpt>
      <trkpt lat="32.581793" lon="131.507104"><ele>50.6</ele><time>2026-09-24T02:24:08Z</time></trkpt>
      <trkpt lat="32.581143" lon="131.507328"><ele>45.4</ele><time>2026-09-24T02:24:13Z</time></trkpt>
      <trkpt lat="32.580635" lon="131.507765"><ele>41.2</ele><time>2026-09-24T02:24:18Z</time></trkpt>
      <trkpt lat="32.580326" lon="131.508311"><ele>42.2</ele><time>2026-09-24T02:24:23Z</time></trkpt>
      <trkpt lat="32.580166" lon="131.508904"><ele>46.4</ele><time>2026-09-24T02:24:28Z</time></trkpt>
      <trkpt lat="32.579814" lon="131.510777"><ele>43.4</ele><time>2026-09-24T02:24:47Z</time></trkpt>
      <trkpt lat="32.579202" lon="131.511954"><ele>45.4</ele><time>2026-09-24T02:25:05Z</time></trkpt>
      <trkpt lat="32.578996" lon="131.512160"><ele>45.2</ele><time>2026-09-24T02:25:10Z</time></trkpt>
      <trkpt lat="32.578025" lon="131.512760"><ele>44.6</ele><time>2026-09-24T02:25:28Z</time></trkpt>
      <trkpt lat="32.577137" lon="131.513569"><ele>45.6</ele><time>2026-09-24T02:25:45Z</time></trkpt>
      <trkpt lat="32.576187" lon="131.514134"><ele>46.2</ele><time>2026-09-24T02:26:08Z</time></trkpt>
      <trkpt lat="32.574953" lon="131.514277"><ele>45.4</ele><time>2026-09-24T02:26:40Z</time></trkpt>
      <trkpt lat="32.574356" lon="131.514627"><ele>42.0</ele><time>2026-09-24T02:26:52Z</time></trkpt>
      <trkpt lat="32.573583" lon="131.514967"><ele>45.4</ele><time>2026-09-24T02:27:05Z</time></trkpt>
      <trkpt lat="32.570584" lon="131.515774"><ele>42.4</ele><time>2026-09-24T02:27:58Z</time></trkpt>
      <trkpt lat="32.569454" lon="131.516299"><ele>42.0</ele><time>2026-09-24T02:28:16Z</time></trkpt>
      <trkpt lat="32.567334" lon="131.517097"><ele>43.0</ele><time>2026-09-24T02:28:54Z</time></trkpt>
      <trkpt lat="32.566566" lon="131.517482"><ele>43.2</ele><time>2026-09-24T02:29:11Z</time></trkpt>
      <trkpt lat="32.565020" lon="131.517641"><ele>46.6</ele><time>2026-09-24T02:29:59Z</time></trkpt>
      <trkpt lat="32.565001" lon="131.517705"><ele>46.0</ele><time>2026-09-24T02:31:09Z</time></trkpt>
      <trkpt lat="32.565064" lon="131.517639"><ele>45.8</ele><time>2026-09-24T02:31:44Z</time></trkpt>
      <trkpt lat="32.563729" lon="131.517763"><ele>45.0</ele><time>2026-09-24T02:34:33Z</time></trkpt>
      <trkpt lat="32.563439" lon="131.517910"><ele>45.0</ele><time>2026-09-24T02:34:40Z</time></trkpt>
      <trkpt lat="32.561774" lon="131.519221"><ele>44.6</ele><time>2026-09-24T02:35:16Z</time></trkpt>
      <trkpt lat="32.559888" lon="131.520466"><ele>42.4</ele><time>2026-09-24T02:35:58Z</time></trkpt>
      <trkpt lat="32.559629" lon="131.520776"><ele>43.2</ele><time>2026-09-24T02:36:14Z</time></trkpt>
      <trkpt lat="32.558286" lon="131.522963"><ele>37.4</ele><time>2026-09-24T02:37:04Z</time></trkpt>
      <trkpt lat="32.558185" lon="131.523343"><ele>36.8</ele><time>2026-09-24T02:37:10Z</time></trkpt>
      <trkpt lat="32.558186" lon="131.523797"><ele>37.4</ele><time>2026-09-24T02:37:17Z</time></trkpt>
      <trkpt lat="32.558318" lon="131.524195"><ele>37.8</ele><time>2026-09-24T02:37:24Z</time></trkpt>
      <trkpt lat="32.558528" lon="131.524482"><ele>37.6</ele><time>2026-09-24T02:37:30Z</time></trkpt>
      <trkpt lat="32.559504" lon="131.525307"><ele>38.2</ele><time>2026-09-24T02:37:53Z</time></trkpt>
      <trkpt lat="32.560249" lon="131.525788"><ele>34.4</ele><time>2026-09-24T02:38:10Z</time></trkpt>
      <trkpt lat="32.563449" lon="131.527131"><ele>32.6</ele><time>2026-09-24T02:39:11Z</time></trkpt>
      <trkpt lat="32.565124" lon="131.528598"><ele>36.6</ele><time>2026-09-24T02:39:48Z</time></trkpt>
      <trkpt lat="32.567012" lon="131.529715"><ele>33.0</ele><time>2026-09-24T02:40:25Z</time></trkpt>
      <trkpt lat="32.568567" lon="131.531137"><ele>34.0</ele><time>2026-09-24T02:41:02Z</time></trkpt>
      <trkpt lat="32.568783" lon="131.531450"><ele>32.4</ele><time>2026-09-24T02:41:07Z</time></trkpt>
      <trkpt lat="32.568862" lon="131.531734"><ele>31.8</ele><time>2026-09-24T02:41:11Z</time></trkpt>
      <trkpt lat="32.569064" lon="131.533876"><ele>31.0</ele><time>2026-09-24T02:43:51Z</time></trkpt>
      <trkpt lat="32.568967" lon="131.534403"><ele>30.8</ele><time>2026-09-24T02:44:02Z</time></trkpt>
      <trkpt lat="32.568720" lon="131.534856"><ele>31.2</ele><time>2026-09-24T02:44:13Z</time></trkpt>
      <trkpt lat="32.567862" lon="131.535376"><ele>32.0</ele><time>2026-09-24T02:44:41Z</time></trkpt>
      <trkpt lat="32.567370" lon="131.535993"><ele>31.2</ele><time>2026-09-24T02:45:01Z</time></trkpt>
      <trkpt lat="32.566982" lon="131.536106"><ele>32.2</ele><time>2026-09-24T02:45:12Z</time></trkpt>
      <trkpt lat="32.564787" lon="131.535526"><ele>31.8</ele><time>2026-09-24T02:46:13Z</time></trkpt>
      <trkpt lat="32.563435" lon="131.535554"><ele>32.0</ele><time>2026-09-24T02:46:51Z</time></trkpt>
      <trkpt lat="32.563267" lon="131.535818"><ele>31.8</ele><time>2026-09-24T02:47:19Z</time></trkpt>
      <trkpt lat="32.560135" lon="131.538360"><ele>30.2</ele><time>2026-09-24T02:48:42Z</time></trkpt>
      <trkpt lat="32.559940" lon="131.538663"><ele>30.0</ele><time>2026-09-24T02:48:48Z</time></trkpt>
      <trkpt lat="32.559738" lon="131.539279"><ele>29.8</ele><time>2026-09-24T02:48:59Z</time></trkpt>
      <trkpt lat="32.559360" lon="131.541759"><ele>31.2</ele><time>2026-09-24T02:49:40Z</time></trkpt>
      <trkpt lat="32.559284" lon="131.543110"><ele>32.6</ele><time>2026-09-24T02:50:11Z</time></trkpt>
      <trkpt lat="32.558893" lon="131.544667"><ele>28.8</ele><time>2026-09-24T02:50:36Z</time></trkpt>
      <trkpt lat="32.558762" lon="131.545499"><ele>28.4</ele><time>2026-09-24T02:50:48Z</time></trkpt>
      <trkpt lat="32.558769" lon="131.546550"><ele>28.0</ele><time>2026-09-24T02:51:03Z</time></trkpt>
      <trkpt lat="32.558897" lon="131.546788"><ele>27.8</ele><time>2026-09-24T02:51:07Z</time></trkpt>
      <trkpt lat="32.559048" lon="131.546899"><ele>27.2</ele><time>2026-09-24T02:51:10Z</time></trkpt>
      <trkpt lat="32.563358" lon="131.547725"><ele>24.4</ele><time>2026-09-24T02:52:32Z</time></trkpt>
      <trkpt lat="32.564701" lon="131.548077"><ele>28.6</ele><time>2026-09-24T02:53:05Z</time></trkpt>
      <trkpt lat="32.565044" lon="131.548382"><ele>29.2</ele><time>2026-09-24T02:53:15Z</time></trkpt>
      <trkpt lat="32.565322" lon="131.548839"><ele>29.8</ele><time>2026-09-24T02:53:26Z</time></trkpt>
      <trkpt lat="32.565499" lon="131.549332"><ele>30.2</ele><time>2026-09-24T02:53:37Z</time></trkpt>
      <trkpt lat="32.565505" lon="131.549875"><ele>26.8</ele><time>2026-09-24T02:53:47Z</time></trkpt>
      <trkpt lat="32.565272" lon="131.551110"><ele>23.0</ele><time>2026-09-24T02:54:06Z</time></trkpt>
      <trkpt lat="32.565146" lon="131.552312"><ele>26.0</ele><time>2026-09-24T02:54:27Z</time></trkpt>
      <trkpt lat="32.565224" lon="131.553414"><ele>26.4</ele><time>2026-09-24T02:54:48Z</time></trkpt>
      <trkpt lat="32.565154" lon="131.554034"><ele>27.2</ele><time>2026-09-24T02:55:00Z</time></trkpt>
      <trkpt lat="32.565200" lon="131.554518"><ele>25.0</ele><time>2026-09-24T02:55:09Z</time></trkpt>
      <trkpt lat="32.565150" lon="131.556402"><ele>25.0</ele><time>2026-09-24T02:55:42Z</time></trkpt>
      <trkpt lat="32.565251" lon="131.557907"><ele>24.4</ele><time>2026-09-24T02:56:08Z</time></trkpt>
      <trkpt lat="32.564684" lon="131.561435"><ele>22.6</ele><time>2026-09-24T02:57:08Z</time></trkpt>
      <trkpt lat="32.564644" lon="131.562744"><ele>23.2</ele><time>2026-09-24T02:57:28Z</time></trkpt>
      <trkpt lat="32.564718" lon="131.564917"><ele>23.8</ele><time>2026-09-24T02:58:05Z</time></trkpt>
      <trkpt lat="32.565009" lon="131.567254"><ele>22.2</ele><time>2026-09-24T02:58:47Z</time></trkpt>
      <trkpt lat="32.565278" lon="131.568688"><ele>23.0</ele><time>2026-09-24T02:59:14Z</time></trkpt>
      <trkpt lat="32.565328" lon="131.569902"><ele>22.8</ele><time>2026-09-24T02:59:38Z</time></trkpt>
      <trkpt lat="32.565247" lon="131.571409"><ele>21.2</ele><time>2026-09-24T03:00:03Z</time></trkpt>
      <trkpt lat="32.565323" lon="131.572701"><ele>21.0</ele><time>2026-09-24T03:00:27Z</time></trkpt>
      <trkpt lat="32.565810" lon="131.574638"><ele>23.2</ele><time>2026-09-24T03:01:04Z</time></trkpt>
      <trkpt lat="32.565753" lon="131.575033"><ele>24.2</ele><time>2026-09-24T03:01:10Z</time></trkpt>
      <trkpt lat="32.565195" lon="131.575816"><ele>27.4</ele><time>2026-09-24T03:01:42Z</time></trkpt>
      <trkpt lat="32.565122" lon="131.576390"><ele>26.0</ele><time>2026-09-24T03:01:55Z</time></trkpt>
      <trkpt lat="32.565553" lon="131.578316"><ele>21.6</ele><time>2026-09-24T03:02:20Z</time></trkpt>
      <trkpt lat="32.566173" lon="131.579826"><ele>23.2</ele><time>2026-09-24T03:02:46Z</time></trkpt>
      <trkpt lat="32.566687" lon="131.580775"><ele>22.8</ele><time>2026-09-24T03:06:22Z</time></trkpt>
      <trkpt lat="32.566609" lon="131.580764"><ele>22.8</ele><time>2026-09-24T03:09:13Z</time></trkpt>
      <trkpt lat="32.566014" lon="131.579767"><ele>20.8</ele><time>2026-09-24T03:09:44Z</time></trkpt>
      <trkpt lat="32.564234" lon="131.580610"><ele>25.0</ele><time>2026-09-24T03:10:53Z</time></trkpt>
      <trkpt lat="32.564086" lon="131.580752"><ele>23.2</ele><time>2026-09-24T03:10:57Z</time></trkpt>
      <trkpt lat="32.564305" lon="131.581480"><ele>19.8</ele><time>2026-09-24T03:11:08Z</time></trkpt>
      <trkpt lat="32.565081" lon="131.582482"><ele>20.0</ele><time>2026-09-24T03:11:26Z</time></trkpt>
      <trkpt lat="32.565219" lon="131.582824"><ele>21.0</ele><time>2026-09-24T03:11:32Z</time></trkpt>
      <trkpt lat="32.565809" lon="131.584846"><ele>20.2</ele><time>2026-09-24T03:12:06Z</time></trkpt>
      <trkpt lat="32.565836" lon="131.585348"><ele>20.6</ele><time>2026-09-24T03:12:14Z</time></trkpt>
      <trkpt lat="32.565758" lon="131.586237"><ele>18.2</ele><time>2026-09-24T03:12:28Z</time></trkpt>
      <trkpt lat="32.565561" lon="131.587458"><ele>21.0</ele><time>2026-09-24T03:12:50Z</time></trkpt>
      <trkpt lat="32.564792" lon="131.589545"><ele>20.2</ele><time>2026-09-24T03:13:27Z</time></trkpt>
      <trkpt lat="32.562334" lon="131.595083"><ele>17.6</ele><time>2026-09-24T03:15:00Z</time></trkpt>
      <trkpt lat="32.562040" lon="131.595877"><ele>17.8</ele><time>2026-09-24T03:15:13Z</time></trkpt>
      <trkpt lat="32.562065" lon="131.596343"><ele>19.6</ele><time>2026-09-24T03:15:21Z</time></trkpt>
      <trkpt lat="32.562476" lon="131.597649"><ele>20.8</ele><time>2026-09-24T03:15:52Z</time></trkpt>
      <trkpt lat="32.562344" lon="131.598785"><ele>20.8</ele><time>2026-09-24T03:16:17Z</time></trkpt>
      <trkpt lat="32.562414" lon="131.601382"><ele>20.2</ele><time>2026-09-24T03:17:02Z</time></trkpt>
      <trkpt lat="32.562648" lon="131.602321"><ele>20.4</ele><time>2026-09-24T03:17:19Z</time></trkpt>
      <trkpt lat="32.562646" lon="131.602776"><ele>21.2</ele><time>2026-09-24T03:17:26Z</time></trkpt>
      <trkpt lat="32.562555" lon="131.603942"><ele>19.6</ele><time>2026-09-24T03:17:47Z</time></trkpt>
      <trkpt lat="32.562256" lon="131.604868"><ele>15.8</ele><time>2026-09-24T03:18:06Z</time></trkpt>
      <trkpt lat="32.562418" lon="131.605804"><ele>14.4</ele><time>2026-09-24T03:18:24Z</time></trkpt>
      <trkpt lat="32.562449" lon="131.607089"><ele>15.2</ele><time>2026-09-24T03:18:50Z</time></trkpt>
      <trkpt lat="32.562377" lon="131.607895"><ele>14.4</ele><time>2026-09-24T03:19:06Z</time></trkpt>
      <trkpt lat="32.562061" lon="131.609029"><ele>13.2</ele><time>2026-09-24T03:19:26Z</time></trkpt>
      <trkpt lat="32.561662" lon="131.611218"><ele>11.4</ele><time>2026-09-24T03:20:01Z</time></trkpt>
      <trkpt lat="32.561521" lon="131.612483"><ele>13.6</ele><time>2026-09-24T03:20:22Z</time></trkpt>
      <trkpt lat="32.561471" lon="131.614190"><ele>10.0</ele><time>2026-09-24T03:20:51Z</time></trkpt>
      <trkpt lat="32.561517" lon="131.614561"><ele>12.4</ele><time>2026-09-24T03:24:00Z</time></trkpt>
      <trkpt lat="32.561490" lon="131.614508"><ele>12.4</ele><time>2026-09-24T03:28:44Z</time></trkpt>
      <trkpt lat="32.561093" lon="131.616125"><ele>12.4</ele><time>2026-09-24T03:30:00Z</time></trkpt>
      <trkpt lat="32.561542" lon="131.620390"><ele>14.0</ele><time>2026-09-24T03:31:30Z</time></trkpt>
      <trkpt lat="32.561391" lon="131.620554"><ele>13.8</ele><time>2026-09-24T03:31:35Z</time></trkpt>
      <trkpt lat="32.559939" lon="131.620825"><ele>13.0</ele><time>2026-09-24T03:32:07Z</time></trkpt>
      <trkpt lat="32.559543" lon="131.621088"><ele>15.8</ele><time>2026-09-24T03:32:23Z</time></trkpt>
      <trkpt lat="32.559270" lon="131.621435"><ele>18.4</ele><time>2026-09-24T03:32:43Z</time></trkpt>
      <trkpt lat="32.559030" lon="131.621942"><ele>21.4</ele><time>2026-09-24T03:33:12Z</time></trkpt>
      <trkpt lat="32.557381" lon="131.627898"><ele>31.2</ele><time>2026-09-24T03:36:45Z</time></trkpt>
      <trkpt lat="32.557103" lon="131.628352"><ele>31.0</ele><time>2026-09-24T03:36:55Z</time></trkpt>
      <trkpt lat="32.556467" lon="131.628887"><ele>23.8</ele><time>2026-09-24T03:37:11Z</time></trkpt>
      <trkpt lat="32.555993" lon="131.629466"><ele>24.0</ele><time>2026-09-24T03:37:20Z</time></trkpt>
      <trkpt lat="32.555395" lon="131.630957"><ele>18.8</ele><time>2026-09-24T03:37:36Z</time></trkpt>
      <trkpt lat="32.555102" lon="131.631317"><ele>17.4</ele><time>2026-09-24T03:37:42Z</time></trkpt>
      <trkpt lat="32.555063" lon="131.631469"><ele>15.4</ele><time>2026-09-24T03:37:44Z</time></trkpt>
      <trkpt lat="32.555345" lon="131.631997"><ele>18.4</ele><time>2026-09-24T03:37:52Z</time></trkpt>
      <trkpt lat="32.555583" lon="131.632413"><ele>11.8</ele><time>2026-09-24T03:37:59Z</time></trkpt>
      <trkpt lat="32.556929" lon="131.634410"><ele>11.2</ele><time>2026-09-24T03:38:34Z</time></trkpt>
      <trkpt lat="32.557487" lon="131.636107"><ele>9.0</ele><time>2026-09-24T03:38:59Z</time></trkpt>
      <trkpt lat="32.557546" lon="131.636592"><ele>8.6</ele><time>2026-09-24T03:39:06Z</time></trkpt>
      <trkpt lat="32.557512" lon="131.636987"><ele>8.8</ele><time>2026-09-24T03:39:12Z</time></trkpt>
      <trkpt lat="32.557088" lon="131.640046"><ele>13.0</ele><time>2026-09-24T03:39:59Z</time></trkpt>
      <trkpt lat="32.556678" lon="131.643545"><ele>10.4</ele><time>2026-09-24T03:40:55Z</time></trkpt>
      <trkpt lat="32.556565" lon="131.643685"><ele>10.6</ele><time>2026-09-24T03:40:58Z</time></trkpt>
      <trkpt lat="32.556391" lon="131.643710"><ele>10.4</ele><time>2026-09-24T03:41:01Z</time></trkpt>
      <trkpt lat="32.553859" lon="131.643384"><ele>12.6</ele><time>2026-09-24T03:41:52Z</time></trkpt>
      <trkpt lat="32.553500" lon="131.643509"><ele>11.8</ele><time>2026-09-24T03:42:01Z</time></trkpt>
      <trkpt lat="32.553137" lon="131.643864"><ele>11.4</ele><time>2026-09-24T03:42:09Z</time></trkpt>
      <trkpt lat="32.549029" lon="131.650212"><ele>3.8</ele><time>2026-09-24T03:44:14Z</time></trkpt>
      <trkpt lat="32.543229" lon="131.659005"><ele>3.0</ele><time>2026-09-24T03:50:13Z</time></trkpt>
      <trkpt lat="32.542975" lon="131.659503"><ele>4.4</ele><time>2026-09-24T03:50:25Z</time></trkpt>
      <trkpt lat="32.541809" lon="131.662632"><ele>2.4</ele><time>2026-09-24T03:51:24Z</time></trkpt>
      <trkpt lat="32.541590" lon="131.663125"><ele>3.8</ele><time>2026-09-24T03:51:33Z</time></trkpt>
      <trkpt lat="32.541363" lon="131.663383"><ele>3.4</ele><time>2026-09-24T03:51:39Z</time></trkpt>
      <trkpt lat="32.541084" lon="131.663579"><ele>3.4</ele><time>2026-09-24T03:51:45Z</time></trkpt>
      <trkpt lat="32.540438" lon="131.663809"><ele>3.2</ele><time>2026-09-24T03:51:57Z</time></trkpt>
      <trkpt lat="32.540135" lon="131.664392"><ele>5.2</ele><time>2026-09-24T03:52:08Z</time></trkpt>
      <trkpt lat="32.539720" lon="131.664647"><ele>4.0</ele><time>2026-09-24T03:52:17Z</time></trkpt>
      <trkpt lat="32.538619" lon="131.664624"><ele>3.2</ele><time>2026-09-24T03:52:37Z</time></trkpt>
      <trkpt lat="32.537850" lon="131.664508"><ele>4.6</ele><time>2026-09-24T03:52:51Z</time></trkpt>
      <trkpt lat="32.537582" lon="131.664568"><ele>4.2</ele><time>2026-09-24T03:52:56Z</time></trkpt>
      <trkpt lat="32.537356" lon="131.664749"><ele>4.2</ele><time>2026-09-24T03:53:01Z</time></trkpt>
      <trkpt lat="32.536899" lon="131.665424"><ele>3.4</ele><time>2026-09-24T03:53:15Z</time></trkpt>
      <trkpt lat="32.536755" lon="131.666823"><ele>7.4</ele><time>2026-09-24T03:53:42Z</time></trkpt>
      <trkpt lat="32.536268" lon="131.667711"><ele>6.0</ele><time>2026-09-24T03:54:02Z</time></trkpt>
      <trkpt lat="32.535993" lon="131.668433"><ele>7.0</ele><time>2026-09-24T03:54:16Z</time></trkpt>
      <trkpt lat="32.535545" lon="131.668937"><ele>4.4</ele><time>2026-09-24T03:54:30Z</time></trkpt>
      <trkpt lat="32.534014" lon="131.669413"><ele>5.4</ele><time>2026-09-24T03:55:04Z</time></trkpt>
      <trkpt lat="32.532655" lon="131.669692"><ele>6.0</ele><time>2026-09-24T03:55:38Z</time></trkpt>
      <trkpt lat="32.530101" lon="131.670901"><ele>5.8</ele><time>2026-09-24T03:57:02Z</time></trkpt>
      <trkpt lat="32.530034" lon="131.670709"><ele>5.4</ele><time>2026-09-24T03:57:10Z</time></trkpt>
      <trkpt lat="32.529750" lon="131.670681"><ele>5.6</ele><time>2026-09-24T03:57:19Z</time></trkpt>
      <trkpt lat="32.529512" lon="131.671246"><ele>6.4</ele><time>2026-09-24T03:57:34Z</time></trkpt>
      <trkpt lat="32.529314" lon="131.671350"><ele>6.4</ele><time>2026-09-24T03:57:40Z</time></trkpt>
      <trkpt lat="32.528684" lon="131.671390"><ele>6.2</ele><time>2026-09-24T03:57:57Z</time></trkpt>
      <trkpt lat="32.527454" lon="131.671813"><ele>6.4</ele><time>2026-09-24T03:58:31Z</time></trkpt>
      <trkpt lat="32.526602" lon="131.671890"><ele>7.2</ele><time>2026-09-24T03:58:50Z</time></trkpt>
      <trkpt lat="32.526145" lon="131.672059"><ele>7.8</ele><time>2026-09-24T03:59:02Z</time></trkpt>
      <trkpt lat="32.523813" lon="131.673087"><ele>6.4</ele><time>2026-09-24T03:59:53Z</time></trkpt>
      <trkpt lat="32.523375" lon="131.673181"><ele>5.6</ele><time>2026-09-24T04:00:04Z</time></trkpt>
      <trkpt lat="32.523335" lon="131.673286"><ele>5.0</ele><time>2026-09-24T04:00:07Z</time></trkpt>
      <trkpt lat="32.523498" lon="131.673635"><ele>5.4</ele><time>2026-09-24T04:00:15Z</time></trkpt>
      <trkpt lat="32.523434" lon="131.673715"><ele>5.0</ele><time>2026-09-24T04:00:17Z</time></trkpt>
      <trkpt lat="32.522891" lon="131.673725"><ele>4.8</ele><time>2026-09-24T04:00:28Z</time></trkpt>
      <trkpt lat="32.522365" lon="131.674005"><ele>7.0</ele><time>2026-09-24T04:00:43Z</time></trkpt>
      <trkpt lat="32.520302" lon="131.674518"><ele>8.8</ele><time>2026-09-24T04:01:39Z</time></trkpt>
      <trkpt lat="32.520139" lon="131.674535"><ele>10.0</ele><time>2026-09-24T04:01:44Z</time></trkpt>
      <trkpt lat="32.520076" lon="131.674446"><ele>11.0</ele><time>2026-09-24T04:02:04Z</time></trkpt>
      <trkpt lat="32.520027" lon="131.674512"><ele>11.2</ele><time>2026-09-24T04:02:18Z</time></trkpt>
      <trkpt lat="32.520105" lon="131.674500"><ele>11.4</ele><time>2026-09-24T04:02:27Z</time></trkpt>
      <trkpt lat="32.520111" lon="131.674613"><ele>10.0</ele><time>2026-09-24T04:03:49Z</time></trkpt>
      <trkpt lat="32.520120" lon="131.674496"><ele>10.0</ele><time>2026-09-24T04:08:59Z</time></trkpt>
      <trkpt lat="32.520101" lon="131.674583"><ele>10.0</ele><time>2026-09-24T04:09:15Z</time></trkpt>
      <trkpt lat="32.520057" lon="131.674517"><ele>10.0</ele><time>2026-09-24T04:11:09Z</time></trkpt>
      <trkpt lat="32.520117" lon="131.674553"><ele>10.0</ele><time>2026-09-24T04:11:48Z</time></trkpt>
      <trkpt lat="32.520108" lon="131.674487"><ele>10.0</ele><time>2026-09-24T04:12:34Z</time></trkpt>
      <trkpt lat="32.520140" lon="131.674570"><ele>10.0</ele><time>2026-09-24T04:13:20Z</time></trkpt>
      <trkpt lat="32.520091" lon="131.674561"><ele>10.0</ele><time>2026-09-24T04:14:02Z</time></trkpt>
      <trkpt lat="32.520154" lon="131.674483"><ele>10.0</ele><time>2026-09-24T04:14:33Z</time></trkpt>
      <trkpt lat="32.520096" lon="131.674613"><ele>10.0</ele><time>2026-09-24T04:15:58Z</time></trkpt>
      <trkpt lat="32.520127" lon="131.674501"><ele>10.0</ele><time>2026-09-24T04:17:23Z</time></trkpt>
      <trkpt lat="32.519996" lon="131.674609"><ele>10.2</ele><time>2026-09-24T04:17:59Z</time></trkpt>
      <trkpt lat="32.518963" lon="131.674845"><ele>16.0</ele><time>2026-09-24T04:19:08Z</time></trkpt>
      <trkpt lat="32.518187" lon="131.675260"><ele>12.2</ele><time>2026-09-24T04:19:32Z</time></trkpt>
      <trkpt lat="32.517500" lon="131.675800"><ele>18.2</ele><time>2026-09-24T04:19:50Z</time></trkpt>
      <trkpt lat="32.515354" lon="131.677863"><ele>22.6</ele><time>2026-09-24T04:21:27Z</time></trkpt>
      <trkpt lat="32.514286" lon="131.678994"><ele>24.4</ele><time>2026-09-24T04:22:16Z</time></trkpt>
      <trkpt lat="32.513879" lon="131.678792"><ele>24.2</ele><time>2026-09-24T04:22:26Z</time></trkpt>
      <trkpt lat="32.513638" lon="131.678995"><ele>23.0</ele><time>2026-09-24T04:22:36Z</time></trkpt>
      <trkpt lat="32.513311" lon="131.679028"><ele>19.2</ele><time>2026-09-24T04:22:45Z</time></trkpt>
      <trkpt lat="32.512982" lon="131.679289"><ele>19.2</ele><time>2026-09-24T04:22:52Z</time></trkpt>
      <trkpt lat="32.512794" lon="131.679326"><ele>17.6</ele><time>2026-09-24T04:22:55Z</time></trkpt>
      <trkpt lat="32.512470" lon="131.679103"><ele>14.4</ele><time>2026-09-24T04:23:01Z</time></trkpt>
      <trkpt lat="32.512211" lon="131.679036"><ele>14.4</ele><time>2026-09-24T04:23:05Z</time></trkpt>
      <trkpt lat="32.511793" lon="131.678603"><ele>17.0</ele><time>2026-09-24T04:23:14Z</time></trkpt>
      <trkpt lat="32.511300" lon="131.678271"><ele>15.4</ele><time>2026-09-24T04:23:23Z</time></trkpt>
      <trkpt lat="32.509987" lon="131.677865"><ele>4.6</ele><time>2026-09-24T04:23:37Z</time></trkpt>
      <trkpt lat="32.509740" lon="131.677687"><ele>4.0</ele><time>2026-09-24T04:23:41Z</time></trkpt>
      <trkpt lat="32.509607" lon="131.677395"><ele>4.8</ele><time>2026-09-24T04:23:45Z</time></trkpt>
      <trkpt lat="32.509348" lon="131.676083"><ele>5.8</ele><time>2026-09-24T04:24:03Z</time></trkpt>
      <trkpt lat="32.509191" lon="131.675752"><ele>5.6</ele><time>2026-09-24T04:24:09Z</time></trkpt>
      <trkpt lat="32.508610" lon="131.674799"><ele>3.8</ele><time>2026-09-24T04:24:27Z</time></trkpt>
      <trkpt lat="32.508237" lon="131.674374"><ele>5.0</ele><time>2026-09-24T04:24:40Z</time></trkpt>
      <trkpt lat="32.507942" lon="131.674176"><ele>5.8</ele><time>2026-09-24T04:24:52Z</time></trkpt>
      <trkpt lat="32.507603" lon="131.673701"><ele>5.8</ele><time>2026-09-24T04:25:09Z</time></trkpt>
      <trkpt lat="32.507554" lon="131.673672"><ele>5.6</ele><time>2026-09-24T04:25:11Z</time></trkpt>
      <trkpt lat="32.507374" lon="131.673874"><ele>6.2</ele><time>2026-09-24T04:25:20Z</time></trkpt>
      <trkpt lat="32.507503" lon="131.673687"><ele>6.2</ele><time>2026-09-24T04:25:28Z</time></trkpt>
      <trkpt lat="32.507584" lon="131.673679"><ele>5.8</ele><time>2026-09-24T04:25:32Z</time></trkpt>
      <trkpt lat="32.507966" lon="131.674186"><ele>5.8</ele><time>2026-09-24T04:25:51Z</time></trkpt>
      <trkpt lat="32.508310" lon="131.674452"><ele>5.0</ele><time>2026-09-24T04:26:05Z</time></trkpt>
      <trkpt lat="32.508281" lon="131.674564"><ele>4.6</ele><time>2026-09-24T04:26:08Z</time></trkpt>
      <trkpt lat="32.507894" lon="131.674947"><ele>5.8</ele><time>2026-09-24T04:26:47Z</time></trkpt>
      <trkpt lat="32.507883" lon="131.674894"><ele>5.4</ele><time>2026-09-24T04:27:05Z</time></trkpt>
      <trkpt lat="32.507950" lon="131.674826"><ele>5.4</ele><time>2026-09-24T04:27:16Z</time></trkpt>
      <trkpt lat="32.507885" lon="131.674907"><ele>5.0</ele><time>2026-09-24T04:27:38Z</time></trkpt>
      <trkpt lat="32.507935" lon="131.675039"><ele>5.6</ele><time>2026-09-24T04:28:38Z</time></trkpt>
      <trkpt lat="32.508003" lon="131.674969"><ele>5.4</ele><time>2026-09-24T04:29:39Z</time></trkpt>
      <trkpt lat="32.507952" lon="131.675004"><ele>5.4</ele><time>2026-09-24T04:29:58Z</time></trkpt>
      <trkpt lat="32.507893" lon="131.674893"><ele>5.4</ele><time>2026-09-24T04:30:51Z</time></trkpt>
      <trkpt lat="32.508184" lon="131.674657"><ele>4.8</ele><time>2026-09-24T04:31:04Z</time></trkpt>
      <trkpt lat="32.508303" lon="131.674420"><ele>4.8</ele><time>2026-09-24T04:31:12Z</time></trkpt>
      <trkpt lat="32.507852" lon="131.674065"><ele>5.0</ele><time>2026-09-24T04:31:29Z</time></trkpt>
      <trkpt lat="32.504037" lon="131.668579"><ele>6.8</ele><time>2026-09-24T04:33:35Z</time></trkpt>
      <trkpt lat="32.503226" lon="131.667131"><ele>8.2</ele><time>2026-09-24T04:34:07Z</time></trkpt>
      <trkpt lat="32.502557" lon="131.664956"><ele>12.2</ele><time>2026-09-24T04:34:59Z</time></trkpt>
      <trkpt lat="32.502314" lon="131.664396"><ele>10.6</ele><time>2026-09-24T04:35:08Z</time></trkpt>
      <trkpt lat="32.501853" lon="131.663694"><ele>9.8</ele><time>2026-09-24T04:35:19Z</time></trkpt>
      <trkpt lat="32.500966" lon="131.662646"><ele>10.2</ele><time>2026-09-24T04:35:39Z</time></trkpt>
      <trkpt lat="32.499038" lon="131.661909"><ele>7.8</ele><time>2026-09-24T04:36:13Z</time></trkpt>
      <trkpt lat="32.497587" lon="131.660912"><ele>10.2</ele><time>2026-09-24T04:36:45Z</time></trkpt>
      <trkpt lat="32.495943" lon="131.659946"><ele>13.8</ele><time>2026-09-24T04:37:34Z</time></trkpt>
      <trkpt lat="32.492252" lon="131.659312"><ele>17.4</ele><time>2026-09-24T04:39:19Z</time></trkpt>
      <trkpt lat="32.491754" lon="131.659193"><ele>16.6</ele><time>2026-09-24T04:39:28Z</time></trkpt>
      <trkpt lat="32.491256" lon="131.658951"><ele>16.4</ele><time>2026-09-24T04:39:37Z</time></trkpt>
      <trkpt lat="32.490609" lon="131.658333"><ele>15.4</ele><time>2026-09-24T04:39:49Z</time></trkpt>
      <trkpt lat="32.488836" lon="131.656224"><ele>3.8</ele><time>2026-09-24T04:40:17Z</time></trkpt>
      <trkpt lat="32.485062" lon="131.651706"><ele>8.4</ele><time>2026-09-24T04:41:33Z</time></trkpt>
      <trkpt lat="32.484153" lon="131.652154"><ele>7.2</ele><time>2026-09-24T04:41:50Z</time></trkpt>
      <trkpt lat="32.483638" lon="131.652174"><ele>5.4</ele><time>2026-09-24T04:41:59Z</time></trkpt>
      <trkpt lat="32.481139" lon="131.651513"><ele>10.2</ele><time>2026-09-24T04:42:47Z</time></trkpt>
      <trkpt lat="32.479587" lon="131.651312"><ele>7.8</ele><time>2026-09-24T04:43:14Z</time></trkpt>
      <trkpt lat="32.478076" lon="131.650932"><ele>7.0</ele><time>2026-09-24T04:43:51Z</time></trkpt>
      <trkpt lat="32.477926" lon="131.650930"><ele>7.2</ele><time>2026-09-24T04:43:57Z</time></trkpt>
      <trkpt lat="32.477944" lon="131.651004"><ele>7.0</ele><time>2026-09-24T04:44:08Z</time></trkpt>
      <trkpt lat="32.477601" lon="131.650768"><ele>6.8</ele><time>2026-09-24T04:45:04Z</time></trkpt>
      <trkpt lat="32.475439" lon="131.650102"><ele>8.2</ele><time>2026-09-24T04:45:51Z</time></trkpt>
      <trkpt lat="32.475013" lon="131.650165"><ele>8.8</ele><time>2026-09-24T04:46:02Z</time></trkpt>
      <trkpt lat="32.474618" lon="131.650341"><ele>10.6</ele><time>2026-09-24T04:46:12Z</time></trkpt>
      <trkpt lat="32.473138" lon="131.651735"><ele>12.0</ele><time>2026-09-24T04:47:14Z</time></trkpt>
      <trkpt lat="32.472674" lon="131.651448"><ele>11.0</ele><time>2026-09-24T04:47:26Z</time></trkpt>
      <trkpt lat="32.472530" lon="131.651488"><ele>11.2</ele><time>2026-09-24T04:47:35Z</time></trkpt>
      <trkpt lat="32.468000" lon="131.648457"><ele>7.6</ele><time>2026-09-24T04:49:45Z</time></trkpt>
      <trkpt lat="32.467014" lon="131.648034"><ele>8.0</ele><time>2026-09-24T04:50:13Z</time></trkpt>
      <trkpt lat="32.466950" lon="131.647930"><ele>8.0</ele><time>2026-09-24T04:50:46Z</time></trkpt>
      <trkpt lat="32.466891" lon="131.648059"><ele>7.2</ele><time>2026-09-24T04:53:13Z</time></trkpt>
      <trkpt lat="32.466935" lon="131.647932"><ele>7.2</ele><time>2026-09-24T04:54:15Z</time></trkpt>
      <trkpt lat="32.466778" lon="131.648005"><ele>7.6</ele><time>2026-09-24T04:54:46Z</time></trkpt>
      <trkpt lat="32.466003" lon="131.648019"><ele>8.2</ele><time>2026-09-24T04:55:13Z</time></trkpt>
      <trkpt lat="32.463145" lon="131.648745"><ele>8.2</ele><time>2026-09-24T04:56:26Z</time></trkpt>
      <trkpt lat="32.462702" lon="131.648745"><ele>7.8</ele><time>2026-09-24T04:56:35Z</time></trkpt>
      <trkpt lat="32.462033" lon="131.648535"><ele>7.8</ele><time>2026-09-24T04:56:49Z</time></trkpt>
      <trkpt lat="32.461914" lon="131.648352"><ele>6.6</ele><time>2026-09-24T04:56:54Z</time></trkpt>
      <trkpt lat="32.461694" lon="131.648309"><ele>7.2</ele><time>2026-09-24T04:56:59Z</time></trkpt>
      <trkpt lat="32.458675" lon="131.645986"><ele>10.0</ele><time>2026-09-24T04:58:24Z</time></trkpt>
      <trkpt lat="32.458243" lon="131.645641"><ele>9.4</ele><time>2026-09-24T04:58:38Z</time></trkpt>
      <trkpt lat="32.458172" lon="131.645497"><ele>9.2</ele><time>2026-09-24T04:58:42Z</time></trkpt>
      <trkpt lat="32.458048" lon="131.645449"><ele>8.8</ele><time>2026-09-24T04:58:46Z</time></trkpt>
      <trkpt lat="32.457883" lon="131.645584"><ele>9.2</ele><time>2026-09-24T04:59:36Z</time></trkpt>
      <trkpt lat="32.457756" lon="131.645518"><ele>9.0</ele><time>2026-09-24T04:59:40Z</time></trkpt>
      <trkpt lat="32.454865" lon="131.643406"><ele>5.4</ele><time>2026-09-24T05:01:01Z</time></trkpt>
      <trkpt lat="32.450111" lon="131.639704"><ele>7.2</ele><time>2026-09-24T05:03:23Z</time></trkpt>
      <trkpt lat="32.449865" lon="131.639812"><ele>7.0</ele><time>2026-09-24T05:03:38Z</time></trkpt>
      <trkpt lat="32.449799" lon="131.639545"><ele>7.0</ele><time>2026-09-24T05:04:00Z</time></trkpt>
      <trkpt lat="32.449916" lon="131.639621"><ele>7.2</ele><time>2026-09-24T05:05:38Z</time></trkpt>
      <trkpt lat="32.449821" lon="131.639597"><ele>7.8</ele><time>2026-09-24T05:06:07Z</time></trkpt>
      <trkpt lat="32.449764" lon="131.639454"><ele>8.0</ele><time>2026-09-24T05:06:38Z</time></trkpt>
      <trkpt lat="32.449816" lon="131.639591"><ele>7.6</ele><time>2026-09-24T05:08:17Z</time></trkpt>
      <trkpt lat="32.449756" lon="131.639598"><ele>7.6</ele><time>2026-09-24T05:08:38Z</time></trkpt>
      <trkpt lat="32.449824" lon="131.639601"><ele>7.6</ele><time>2026-09-24T05:09:03Z</time></trkpt>
      <trkpt lat="32.449715" lon="131.639587"><ele>7.6</ele><time>2026-09-24T05:09:54Z</time></trkpt>
      <trkpt lat="32.449779" lon="131.639573"><ele>7.6</ele><time>2026-09-24T05:11:15Z</time></trkpt>
      <trkpt lat="32.449750" lon="131.639648"><ele>7.6</ele><time>2026-09-24T05:11:39Z</time></trkpt>
      <trkpt lat="32.449815" lon="131.639436"><ele>7.6</ele><time>2026-09-24T05:12:18Z</time></trkpt>
      <trkpt lat="32.449800" lon="131.639590"><ele>7.6</ele><time>2026-09-24T05:12:51Z</time></trkpt>
      <trkpt lat="32.449885" lon="131.639588"><ele>7.6</ele><time>2026-09-24T05:13:11Z</time></trkpt>
      <trkpt lat="32.449725" lon="131.639598"><ele>7.6</ele><time>2026-09-24T05:17:01Z</time></trkpt>
      <trkpt lat="32.449707" lon="131.639721"><ele>7.6</ele><time>2026-09-24T05:17:28Z</time></trkpt>
      <trkpt lat="32.449786" lon="131.639645"><ele>7.6</ele><time>2026-09-24T05:17:44Z</time></trkpt>
      <trkpt lat="32.449760" lon="131.639726"><ele>7.4</ele><time>2026-09-24T05:17:55Z</time></trkpt>
      <trkpt lat="32.449845" lon="131.639496"><ele>7.6</ele><time>2026-09-24T05:18:23Z</time></trkpt>
      <trkpt lat="32.449783" lon="131.639604"><ele>7.4</ele><time>2026-09-24T05:19:57Z</time></trkpt>
      <trkpt lat="32.449834" lon="131.639535"><ele>7.4</ele><time>2026-09-24T05:20:23Z</time></trkpt>
      <trkpt lat="32.449852" lon="131.639666"><ele>7.4</ele><time>2026-09-24T05:21:36Z</time></trkpt>
      <trkpt lat="32.449782" lon="131.639601"><ele>7.4</ele><time>2026-09-24T05:22:01Z</time></trkpt>
      <trkpt lat="32.449798" lon="131.639485"><ele>7.4</ele><time>2026-09-24T05:22:35Z</time></trkpt>
      <trkpt lat="32.449804" lon="131.639611"><ele>7.4</ele><time>2026-09-24T05:23:30Z</time></trkpt>
      <trkpt lat="32.450041" lon="131.639478"><ele>7.4</ele><time>2026-09-24T05:24:23Z</time></trkpt>
      <trkpt lat="32.449945" lon="131.639607"><ele>7.4</ele><time>2026-09-24T05:25:04Z</time></trkpt>
      <trkpt lat="32.449759" lon="131.639590"><ele>7.2</ele><time>2026-09-24T05:28:34Z</time></trkpt>
      <trkpt lat="32.449868" lon="131.639531"><ele>7.2</ele><time>2026-09-24T05:29:31Z</time></trkpt>
      <trkpt lat="32.449813" lon="131.639645"><ele>7.2</ele><time>2026-09-24T05:32:21Z</time></trkpt>
      <trkpt lat="32.449760" lon="131.639551"><ele>7.2</ele><time>2026-09-24T05:32:47Z</time></trkpt>
      <trkpt lat="32.449893" lon="131.639575"><ele>7.2</ele><time>2026-09-24T05:33:10Z</time></trkpt>
      <trkpt lat="32.449787" lon="131.639566"><ele>7.2</ele><time>2026-09-24T05:34:14Z</time></trkpt>
      <trkpt lat="32.449738" lon="131.639682"><ele>7.2</ele><time>2026-09-24T05:34:36Z</time></trkpt>
      <trkpt lat="32.449850" lon="131.639637"><ele>7.2</ele><time>2026-09-24T05:36:30Z</time></trkpt>
      <trkpt lat="32.449851" lon="131.639576"><ele>7.2</ele><time>2026-09-24T05:36:48Z</time></trkpt>
      <trkpt lat="32.449770" lon="131.639649"><ele>7.2</ele><time>2026-09-24T05:37:37Z</time></trkpt>
      <trkpt lat="32.449775" lon="131.639580"><ele>7.2</ele><time>2026-09-24T05:38:29Z</time></trkpt>
      <trkpt lat="32.449861" lon="131.639554"><ele>7.2</ele><time>2026-09-24T05:39:22Z</time></trkpt>
      <trkpt lat="32.449718" lon="131.639637"><ele>7.2</ele><time>2026-09-24T05:40:50Z</time></trkpt>
      <trkpt lat="32.449963" lon="131.639539"><ele>7.2</ele><time>2026-09-24T05:42:39Z</time></trkpt>
      <trkpt lat="32.449864" lon="131.639684"><ele>7.2</ele><time>2026-09-24T05:43:29Z</time></trkpt>
      <trkpt lat="32.449905" lon="131.639608"><ele>7.2</ele><time>2026-09-24T05:43:49Z</time></trkpt>
      <trkpt lat="32.449781" lon="131.639610"><ele>7.2</ele><time>2026-09-24T05:45:51Z</time></trkpt>
      <trkpt lat="32.449955" lon="131.639551"><ele>6.4</ele><time>2026-09-24T05:46:24Z</time></trkpt>
      <trkpt lat="32.449875" lon="131.639633"><ele>7.2</ele><time>2026-09-24T05:47:46Z</time></trkpt>
      <trkpt lat="32.449974" lon="131.639766"><ele>7.8</ele><time>2026-09-24T05:47:55Z</time></trkpt>
      <trkpt lat="32.450008" lon="131.639679"><ele>7.0</ele><time>2026-09-24T05:48:00Z</time></trkpt>
      <trkpt lat="32.449353" lon="131.638570"><ele>7.8</ele><time>2026-09-24T05:48:53Z</time></trkpt>
      <trkpt lat="32.447074" lon="131.633249"><ele>6.8</ele><time>2026-09-24T05:50:13Z</time></trkpt>
      <trkpt lat="32.446321" lon="131.631878"><ele>8.0</ele><time>2026-09-24T05:50:35Z</time></trkpt>
      <trkpt lat="32.445291" lon="131.630834"><ele>8.8</ele><time>2026-09-24T05:50:58Z</time></trkpt>
      <trkpt lat="32.444873" lon="131.631114"><ele>8.0</ele><time>2026-09-24T05:51:09Z</time></trkpt>
      <trkpt lat="32.440265" lon="131.628591"><ele>13.2</ele><time>2026-09-24T05:52:51Z</time></trkpt>
      <trkpt lat="32.440090" lon="131.628444"><ele>13.2</ele><time>2026-09-24T05:52:58Z</time></trkpt>
      <trkpt lat="32.440119" lon="131.628174"><ele>12.8</ele><time>2026-09-24T05:53:08Z</time></trkpt>
      <trkpt lat="32.439962" lon="131.628106"><ele>13.4</ele><time>2026-09-24T05:53:17Z</time></trkpt>
      <trkpt lat="32.439828" lon="131.627866"><ele>13.0</ele><time>2026-09-24T05:53:26Z</time></trkpt>
      <trkpt lat="32.439013" lon="131.627627"><ele>14.6</ele><time>2026-09-24T05:53:49Z</time></trkpt>
      <trkpt lat="32.437948" lon="131.627555"><ele>15.8</ele><time>2026-09-24T05:54:16Z</time></trkpt>
      <trkpt lat="32.433695" lon="131.628157"><ele>14.0</ele><time>2026-09-24T05:55:16Z</time></trkpt>
      <trkpt lat="32.432616" lon="131.628546"><ele>14.6</ele><time>2026-09-24T05:55:30Z</time></trkpt>
      <trkpt lat="32.431527" lon="131.629210"><ele>10.4</ele><time>2026-09-24T05:56:01Z</time></trkpt>
      <trkpt lat="32.429221" lon="131.630424"><ele>11.6</ele><time>2026-09-24T05:56:43Z</time></trkpt>
      <trkpt lat="32.428510" lon="131.630614"><ele>10.6</ele><time>2026-09-24T05:56:54Z</time></trkpt>
      <trkpt lat="32.425978" lon="131.630943"><ele>11.0</ele><time>2026-09-24T05:57:43Z</time></trkpt>
      <trkpt lat="32.414567" lon="131.630921"><ele>8.6</ele><time>2026-09-24T06:02:14Z</time></trkpt>
      <trkpt lat="32.409758" lon="131.631013"><ele>11.6</ele><time>2026-09-24T06:03:31Z</time></trkpt>
      <trkpt lat="32.409373" lon="131.631031"><ele>12.4</ele><time>2026-09-24T06:03:39Z</time></trkpt>
      <trkpt lat="32.409237" lon="131.631128"><ele>12.4</ele><time>2026-09-24T06:03:43Z</time></trkpt>
      <trkpt lat="32.409171" lon="131.631079"><ele>12.2</ele><time>2026-09-24T06:03:45Z</time></trkpt>
      <trkpt lat="32.409222" lon="131.631031"><ele>12.2</ele><time>2026-09-24T06:03:47Z</time></trkpt>
      <trkpt lat="32.409238" lon="131.631103"><ele>12.4</ele><time>2026-09-24T06:03:49Z</time></trkpt>
      <trkpt lat="32.409179" lon="131.631098"><ele>12.2</ele><time>2026-09-24T06:03:51Z</time></trkpt>
      <trkpt lat="32.409220" lon="131.631034"><ele>11.8</ele><time>2026-09-24T06:03:54Z</time></trkpt>
      <trkpt lat="32.409233" lon="131.631100"><ele>12.2</ele><time>2026-09-24T06:03:56Z</time></trkpt>
      <trkpt lat="32.407891" lon="131.631016"><ele>12.4</ele><time>2026-09-24T06:04:38Z</time></trkpt>
      <trkpt lat="32.405684" lon="131.631109"><ele>11.2</ele><time>2026-09-24T06:05:14Z</time></trkpt>
      <trkpt lat="32.402813" lon="131.631111"><ele>12.6</ele><time>2026-09-24T06:05:59Z</time></trkpt>
      <trkpt lat="32.401708" lon="131.630932"><ele>11.0</ele><time>2026-09-24T06:06:52Z</time></trkpt>
      <trkpt lat="32.397267" lon="131.629653"><ele>10.0</ele><time>2026-09-24T06:08:16Z</time></trkpt>
      <trkpt lat="32.397138" lon="131.629763"><ele>9.8</ele><time>2026-09-24T06:08:25Z</time></trkpt>
      <trkpt lat="32.396703" lon="131.629527"><ele>9.2</ele><time>2026-09-24T06:09:21Z</time></trkpt>
      <trkpt lat="32.395353" lon="131.629182"><ele>9.6</ele><time>2026-09-24T06:09:53Z</time></trkpt>
      <trkpt lat="32.395145" lon="131.628906"><ele>9.0</ele><time>2026-09-24T06:10:01Z</time></trkpt>
      <trkpt lat="32.390522" lon="131.627688"><ele>8.2</ele><time>2026-09-24T06:11:54Z</time></trkpt>
      <trkpt lat="32.389078" lon="131.627548"><ele>8.4</ele><time>2026-09-24T06:12:21Z</time></trkpt>
      <trkpt lat="32.387067" lon="131.627516"><ele>9.2</ele><time>2026-09-24T06:13:04Z</time></trkpt>
      <trkpt lat="32.383098" lon="131.627598"><ele>9.6</ele><time>2026-09-24T06:14:11Z</time></trkpt>
      <trkpt lat="32.383025" lon="131.627684"><ele>9.8</ele><time>2026-09-24T06:14:14Z</time></trkpt>
    </trkseg>
  </trk>
</gpx>
