<?xml version="1.0" encoding="UTF-8"?>
<gpx version="1.1" creator="gpx2reel" xmlns="http://www.topografix.com/GPX/1/1">
  <trk><name>Day 2</name>
    <trkseg>
      <trkpt lat="33.125096" lon="131.228398"><ele>1024.6</ele><time>2026-09-21T23:36:57Z</time></trkpt>
      <trkpt lat="33.124224" lon="131.228395"><ele>1026.8</ele><time>2026-09-21T23:37:28Z</time></trkpt>
      <trkpt lat="33.121585" lon="131.229175"><ele>1025.8</ele><time>2026-09-21T23:38:25Z</time></trkpt>
      <trkpt lat="33.120529" lon="131.229242"><ele>1029.6</ele><time>2026-09-21T23:38:57Z</time></trkpt>
      <trkpt lat="33.121507" lon="131.229215"><ele>1027.2</ele><time>2026-09-21T23:39:22Z</time></trkpt>
      <trkpt lat="33.124048" lon="131.228401"><ele>1027.2</ele><time>2026-09-21T23:40:06Z</time></trkpt>
      <trkpt lat="33.125718" lon="131.228334"><ele>1023.8</ele><time>2026-09-21T23:40:36Z</time></trkpt>
      <trkpt lat="33.126158" lon="131.228137"><ele>1020.4</ele><time>2026-09-21T23:40:48Z</time></trkpt>
      <trkpt lat="33.126121" lon="131.228063"><ele>1020.0</ele><time>2026-09-21T23:40:53Z</time></trkpt>
      <trkpt lat="33.125611" lon="131.228115"><ele>1018.6</ele><time>2026-09-21T23:41:04Z</time></trkpt>
      <trkpt lat="33.125000" lon="131.228002"><ele>1016.6</ele><time>2026-09-21T23:41:15Z</time></trkpt>
      <trkpt lat="33.124065" lon="131.227987"><ele>1019.2</ele><time>2026-09-21T23:41:36Z</time></trkpt>
      <trkpt lat="33.123611" lon="131.228210"><ele>1022.2</ele><time>2026-09-21T23:41:56Z</time></trkpt>
      <trkpt lat="33.123467" lon="131.228201"><ele>1023.0</ele><time>2026-09-21T23:42:03Z</time></trkpt>
      <trkpt lat="33.123310" lon="131.228351"><ele>1023.0</ele><time>2026-09-21T23:42:15Z</time></trkpt>
      <trkpt lat="33.123246" lon="131.228264"><ele>1023.2</ele><time>2026-09-21T23:43:11Z</time></trkpt>
      <trkpt lat="33.123707" lon="131.228211"><ele>1022.0</ele><time>2026-09-21T23:43:44Z</time></trkpt>
      <trkpt lat="33.123974" lon="131.228045"><ele>1019.8</ele><time>2026-09-21T23:43:57Z</time></trkpt>
      <trkpt lat="33.124548" lon="131.227974"><ele>1018.4</ele><time>2026-09-21T23:44:11Z</time></trkpt>
      <trkpt lat="33.125480" lon="131.228085"><ele>1017.4</ele><time>2026-09-21T23:44:40Z</time></trkpt>
      <trkpt lat="33.126095" lon="131.228032"><ele>1019.6</ele><time>2026-09-21T23:45:05Z</time></trkpt>
      <trkpt lat="33.126210" lon="131.228192"><ele>1020.4</ele><time>2026-09-21T23:45:13Z</time></trkpt>
      <trkpt lat="33.125807" lon="131.228436"><ele>1022.8</ele><time>2026-09-21T23:45:34Z</time></trkpt>
      <trkpt lat="33.124365" lon="131.228424"><ele>1027.0</ele><time>2026-09-21T23:46:33Z</time></trkpt>
      <trkpt lat="33.121651" lon="131.229179"><ele>1026.6</ele><time>2026-09-21T23:47:49Z</time></trkpt>
      <trkpt lat="33.118991" lon="131.229305"><ele>1037.2</ele><time>2026-09-21T23:49:29Z</time></trkpt>
      <trkpt lat="33.118656" lon="131.229449"><ele>1038.4</ele><time>2026-09-21T23:49:49Z</time></trkpt>
      <trkpt lat="33.118003" lon="131.229051"><ele>1040.6</ele><time>2026-09-21T23:50:33Z</time></trkpt>
      <trkpt lat="33.117655" lon="131.228626"><ele>1043.0</ele><time>2026-09-21T23:51:05Z</time></trkpt>
      <trkpt lat="33.117271" lon="131.228355"><ele>1046.2</ele><time>2026-09-21T23:51:22Z</time></trkpt>
      <trkpt lat="33.114774" lon="131.227361"><ele>1065.2</ele><time>2026-09-21T23:53:43Z</time></trkpt>
      <trkpt lat="33.114077" lon="131.227335"><ele>1070.8</ele><time>2026-09-21T23:54:24Z</time></trkpt>
      <trkpt lat="33.113721" lon="131.227210"><ele>1074.4</ele><time>2026-09-21T23:54:50Z</time></trkpt>
      <trkpt lat="33.113490" lon="131.226989"><ele>1076.2</ele><time>2026-09-21T23:56:31Z</time></trkpt>
      <trkpt lat="33.113545" lon="131.226989"><ele>1076.2</ele><time>2026-09-21T23:56:55Z</time></trkpt>
      <trkpt lat="33.113502" lon="131.226882"><ele>1076.6</ele><time>2026-09-21T23:57:17Z</time></trkpt>
      <trkpt lat="33.111768" lon="131.224373"><ele>1097.8</ele><time>2026-09-21T23:59:44Z</time></trkpt>
      <trkpt lat="33.111448" lon="131.224245"><ele>1100.4</ele><time>2026-09-21T23:59:58Z</time></trkpt>
      <trkpt lat="33.110839" lon="131.224450"><ele>1106.0</ele><time>2026-09-22T00:00:33Z</time></trkpt>
      <trkpt lat="33.110459" lon="131.224369"><ele>1108.8</ele><time>2026-09-22T00:00:56Z</time></trkpt>
      <trkpt lat="33.110135" lon="131.224033"><ele>1111.2</ele><time>2026-09-22T00:01:20Z</time></trkpt>
      <trkpt lat="33.109798" lon="131.223380"><ele>1116.6</ele><time>2026-09-22T00:02:02Z</time></trkpt>
      <trkpt lat="33.109377" lon="131.222790"><ele>1121.2</ele><time>2026-09-22T00:02:42Z</time></trkpt>
      <trkpt lat="33.108599" lon="131.222186"><ele>1127.4</ele><time>2026-09-22T00:03:36Z</time></trkpt>
      <trkpt lat="33.108514" lon="131.222006"><ele>1128.2</ele><time>2026-09-22T00:03:44Z</time></trkpt>
      <trkpt lat="33.108538" lon="131.221883"><ele>1128.6</ele><time>2026-09-22T00:03:50Z</time></trkpt>
      <trkpt lat="33.109331" lon="131.221031"><ele>1134.6</ele><time>2026-09-22T00:04:51Z</time></trkpt>
      <trkpt lat="33.109420" lon="131.220876"><ele>1136.2</ele><time>2026-09-22T00:05:00Z</time></trkpt>
      <trkpt lat="33.109333" lon="131.220690"><ele>1138.0</ele><time>2026-09-22T00:05:11Z</time></trkpt>
      <trkpt lat="33.108615" lon="131.220089"><ele>1145.2</ele><time>2026-09-22T00:06:11Z</time></trkpt>
      <trkpt lat="33.107812" lon="131.219642"><ele>1151.2</ele><time>2026-09-22T00:07:07Z</time></trkpt>
      <trkpt lat="33.107105" lon="131.219504"><ele>1156.2</ele><time>2026-09-22T00:07:52Z</time></trkpt>
      <trkpt lat="33.106298" lon="131.219528"><ele>1162.0</ele><time>2026-09-22T00:08:39Z</time></trkpt>
      <trkpt lat="33.105238" lon="131.219189"><ele>1168.6</ele><time>2026-09-22T00:09:47Z</time></trkpt>
      <trkpt lat="33.104689" lon="131.219550"><ele>1172.8</ele><time>2026-09-22T00:10:22Z</time></trkpt>
      <trkpt lat="33.104573" lon="131.219721"><ele>1174.4</ele><time>2026-09-22T00:10:34Z</time></trkpt>
      <trkpt lat="33.104162" lon="131.220688"><ele>1180.6</ele><time>2026-09-22T00:11:58Z</time></trkpt>
      <trkpt lat="33.104239" lon="131.220715"><ele>1180.0</ele><time>2026-09-22T00:12:29Z</time></trkpt>
      <trkpt lat="33.104156" lon="131.220690"><ele>1179.6</ele><time>2026-09-22T00:13:53Z</time></trkpt>
      <trkpt lat="33.103707" lon="131.221629"><ele>1185.4</ele><time>2026-09-22T00:16:39Z</time></trkpt>
      <trkpt lat="33.102373" lon="131.222629"><ele>1193.2</ele><time>2026-09-22T00:18:10Z</time></trkpt>
      <trkpt lat="33.102065" lon="131.222611"><ele>1195.8</ele><time>2026-09-22T00:18:24Z</time></trkpt>
      <trkpt lat="33.101563" lon="131.222373"><ele>1201.6</ele><time>2026-09-22T00:18:57Z</time></trkpt>
      <trkpt lat="33.101335" lon="131.222351"><ele>1203.4</ele><time>2026-09-22T00:19:10Z</time></trkpt>
      <trkpt lat="33.101251" lon="131.222457"><ele>1204.2</ele><time>2026-09-22T00:19:14Z</time></trkpt>
      <trkpt lat="33.101236" lon="131.222557"><ele>1205.4</ele><time>2026-09-22T00:19:18Z</time></trkpt>
      <trkpt lat="33.101550" lon="131.222862"><ele>1208.0</ele><time>2026-09-22T00:19:40Z</time></trkpt>
      <trkpt lat="33.101725" lon="131.223509"><ele>1208.2</ele><time>2026-09-22T00:19:57Z</time></trkpt>
      <trkpt lat="33.102170" lon="131.224367"><ele>1213.2</ele><time>2026-09-22T00:20:28Z</time></trkpt>
      <trkpt lat="33.102227" lon="131.224766"><ele>1216.6</ele><time>2026-09-22T00:20:44Z</time></trkpt>
      <trkpt lat="33.102172" lon="131.225242"><ele>1217.6</ele><time>2026-09-22T00:21:08Z</time></trkpt>
      <trkpt lat="33.101978" lon="131.225715"><ele>1220.2</ele><time>2026-09-22T00:22:03Z</time></trkpt>
      <trkpt lat="33.101610" lon="131.226177"><ele>1222.8</ele><time>2026-09-22T00:23:28Z</time></trkpt>
      <trkpt lat="33.101407" lon="131.226636"><ele>1226.0</ele><time>2026-09-22T00:23:51Z</time></trkpt>
      <trkpt lat="33.101284" lon="131.226709"><ele>1227.2</ele><time>2026-09-22T00:23:58Z</time></trkpt>
      <trkpt lat="33.101165" lon="131.226669"><ele>1228.0</ele><time>2026-09-22T00:24:05Z</time></trkpt>
      <trkpt lat="33.101103" lon="131.226567"><ele>1228.8</ele><time>2026-09-22T00:24:11Z</time></trkpt>
      <trkpt lat="33.101118" lon="131.226370"><ele>1229.2</ele><time>2026-09-22T00:24:19Z</time></trkpt>
      <trkpt lat="33.101515" lon="131.225899"><ele>1232.0</ele><time>2026-09-22T00:24:48Z</time></trkpt>
      <trkpt lat="33.101762" lon="131.225310"><ele>1235.6</ele><time>2026-09-22T00:25:19Z</time></trkpt>
      <trkpt lat="33.101717" lon="131.225223"><ele>1236.2</ele><time>2026-09-22T00:26:24Z</time></trkpt>
      <trkpt lat="33.101778" lon="131.225270"><ele>1236.2</ele><time>2026-09-22T00:28:00Z</time></trkpt>
      <trkpt lat="33.101631" lon="131.225214"><ele>1236.2</ele><time>2026-09-22T00:29:30Z</time></trkpt>
      <trkpt lat="33.101787" lon="131.225251"><ele>1236.2</ele><time>2026-09-22T00:30:25Z</time></trkpt>
      <trkpt lat="33.101820" lon="131.225106"><ele>1235.8</ele><time>2026-09-22T00:30:43Z</time></trkpt>
      <trkpt lat="33.101797" lon="131.224922"><ele>1236.4</ele><time>2026-09-22T00:30:53Z</time></trkpt>
      <trkpt lat="33.101335" lon="131.223985"><ele>1244.2</ele><time>2026-09-22T00:31:55Z</time></trkpt>
      <trkpt lat="33.099101" lon="131.221967"><ele>1258.8</ele><time>2026-09-22T00:34:18Z</time></trkpt>
      <trkpt lat="33.098822" lon="131.221813"><ele>1261.0</ele><time>2026-09-22T00:34:32Z</time></trkpt>
      <trkpt lat="33.098336" lon="131.221730"><ele>1263.6</ele><time>2026-09-22T00:34:59Z</time></trkpt>
      <trkpt lat="33.098042" lon="131.221506"><ele>1265.0</ele><time>2026-09-22T00:35:15Z</time></trkpt>
      <trkpt lat="33.097861" lon="131.221195"><ele>1266.4</ele><time>2026-09-22T00:35:31Z</time></trkpt>
      <trkpt lat="33.097825" lon="131.220470"><ele>1270.0</ele><time>2026-09-22T00:36:03Z</time></trkpt>
      <trkpt lat="33.097933" lon="131.220087"><ele>1271.8</ele><time>2026-09-22T00:36:24Z</time></trkpt>
      <trkpt lat="33.097890" lon="131.220051"><ele>1270.6</ele><time>2026-09-22T00:38:02Z</time></trkpt>
      <trkpt lat="33.097954" lon="131.220066"><ele>1270.4</ele><time>2026-09-22T00:39:11Z</time></trkpt>
      <trkpt lat="33.097875" lon="131.220032"><ele>1270.4</ele><time>2026-09-22T00:42:48Z</time></trkpt>
      <trkpt lat="33.097830" lon="131.219571"><ele>1272.2</ele><time>2026-09-22T00:43:09Z</time></trkpt>
      <trkpt lat="33.097893" lon="131.217446"><ele>1280.4</ele><time>2026-09-22T00:44:19Z</time></trkpt>
      <trkpt lat="33.097493" lon="131.216515"><ele>1285.4</ele><time>2026-09-22T00:45:05Z</time></trkpt>
      <trkpt lat="33.097241" lon="131.215516"><ele>1291.2</ele><time>2026-09-22T00:45:54Z</time></trkpt>
      <trkpt lat="33.097199" lon="131.215056"><ele>1293.6</ele><time>2026-09-22T00:46:14Z</time></trkpt>
      <trkpt lat="33.098026" lon="131.213327"><ele>1301.4</ele><time>2026-09-22T00:47:17Z</time></trkpt>
      <trkpt lat="33.098314" lon="131.212210"><ele>1306.6</ele><time>2026-09-22T00:47:58Z</time></trkpt>
      <trkpt lat="33.098278" lon="131.211652"><ele>1309.6</ele><time>2026-09-22T00:48:24Z</time></trkpt>
      <trkpt lat="33.097447" lon="131.210442"><ele>1318.0</ele><time>2026-09-22T00:49:37Z</time></trkpt>
      <trkpt lat="33.096577" lon="131.209686"><ele>1324.4</ele><time>2026-09-22T00:50:42Z</time></trkpt>
      <trkpt lat="33.096466" lon="131.209330"><ele>1325.4</ele><time>2026-09-22T00:50:58Z</time></trkpt>
      <trkpt lat="33.096497" lon="131.208625"><ele>1329.8</ele><time>2026-09-22T00:51:33Z</time></trkpt>
      <trkpt lat="33.096348" lon="131.208196"><ele>1329.8</ele><time>2026-09-22T00:51:52Z</time></trkpt>
      <trkpt lat="33.095024" lon="131.206586"><ele>1327.6</ele><time>2026-09-22T00:52:43Z</time></trkpt>
      <trkpt lat="33.094119" lon="131.205718"><ele>1322.4</ele><time>2026-09-22T00:52:58Z</time></trkpt>
      <trkpt lat="33.093906" lon="131.205149"><ele>1319.0</ele><time>2026-09-22T00:53:04Z</time></trkpt>
      <trkpt lat="33.094021" lon="131.204459"><ele>1316.4</ele><time>2026-09-22T00:53:11Z</time></trkpt>
      <trkpt lat="33.094357" lon="131.203401"><ele>1309.6</ele><time>2026-09-22T00:53:24Z</time></trkpt>
      <trkpt lat="33.094916" lon="131.202245"><ele>1300.4</ele><time>2026-09-22T00:53:43Z</time></trkpt>
      <trkpt lat="33.094756" lon="131.199353"><ele>1284.6</ele><time>2026-09-22T00:54:25Z</time></trkpt>
      <trkpt lat="33.094433" lon="131.198842"><ele>1281.8</ele><time>2026-09-22T00:54:31Z</time></trkpt>
      <trkpt lat="33.094019" lon="131.198547"><ele>1279.0</ele><time>2026-09-22T00:54:36Z</time></trkpt>
      <trkpt lat="33.091032" lon="131.197743"><ele>1261.4</ele><time>2026-09-22T00:55:04Z</time></trkpt>
      <trkpt lat="33.090024" lon="131.197762"><ele>1255.0</ele><time>2026-09-22T00:55:13Z</time></trkpt>
      <trkpt lat="33.089718" lon="131.197683"><ele>1252.8</ele><time>2026-09-22T00:55:16Z</time></trkpt>
      <trkpt lat="33.088463" lon="131.196544"><ele>1246.6</ele><time>2026-09-22T00:55:30Z</time></trkpt>
      <trkpt lat="33.088231" lon="131.196154"><ele>1245.2</ele><time>2026-09-22T00:55:34Z</time></trkpt>
      <trkpt lat="33.088383" lon="131.195603"><ele>1244.0</ele><time>2026-09-22T00:55:39Z</time></trkpt>
      <trkpt lat="33.088853" lon="131.195134"><ele>1242.0</ele><time>2026-09-22T00:55:46Z</time></trkpt>
      <trkpt lat="33.089577" lon="131.194733"><ele>1237.6</ele><time>2026-09-22T00:56:08Z</time></trkpt>
      <trkpt lat="33.089679" lon="131.194563"><ele>1237.0</ele><time>2026-09-22T00:56:13Z</time></trkpt>
      <trkpt lat="33.089431" lon="131.193987"><ele>1234.0</ele><time>2026-09-22T00:56:23Z</time></trkpt>
      <trkpt lat="33.089780" lon="131.193405"><ele>1231.2</ele><time>2026-09-22T00:56:31Z</time></trkpt>
      <trkpt lat="33.089764" lon="131.192987"><ele>1229.2</ele><time>2026-09-22T00:56:35Z</time></trkpt>
      <trkpt lat="33.089618" lon="131.192717"><ele>1227.4</ele><time>2026-09-22T00:56:38Z</time></trkpt>
      <trkpt lat="33.089278" lon="131.192623"><ele>1225.6</ele><time>2026-09-22T00:56:42Z</time></trkpt>
      <trkpt lat="33.088115" lon="131.192729"><ele>1219.0</ele><time>2026-09-22T00:56:54Z</time></trkpt>
      <trkpt lat="33.086328" lon="131.193448"><ele>1208.8</ele><time>2026-09-22T00:57:11Z</time></trkpt>
      <trkpt lat="33.085910" lon="131.193350"><ele>1207.6</ele><time>2026-09-22T00:57:16Z</time></trkpt>
      <trkpt lat="33.085627" lon="131.192996"><ele>1207.2</ele><time>2026-09-22T00:57:36Z</time></trkpt>
      <trkpt lat="33.085609" lon="131.193049"><ele>1204.2</ele><time>2026-09-22T00:59:30Z</time></trkpt>
      <trkpt lat="33.085631" lon="131.192981"><ele>1204.2</ele><time>2026-09-22T00:59:56Z</time></trkpt>
      <trkpt lat="33.085662" lon="131.193048"><ele>1204.2</ele><time>2026-09-22T01:00:20Z</time></trkpt>
      <trkpt lat="33.085595" lon="131.193066"><ele>1204.2</ele><time>2026-09-22T01:07:27Z</time></trkpt>
      <trkpt lat="33.086215" lon="131.191217"><ele>1202.2</ele><time>2026-09-22T01:12:26Z</time></trkpt>
      <trkpt lat="33.086646" lon="131.190637"><ele>1196.0</ele><time>2026-09-22T01:12:36Z</time></trkpt>
      <trkpt lat="33.086579" lon="131.190406"><ele>1195.0</ele><time>2026-09-22T01:12:39Z</time></trkpt>
      <trkpt lat="33.086363" lon="131.190297"><ele>1192.4</ele><time>2026-09-22T01:12:43Z</time></trkpt>
      <trkpt lat="33.085864" lon="131.191671"><ele>1187.0</ele><time>2026-09-22T01:12:58Z</time></trkpt>
      <trkpt lat="33.085377" lon="131.192653"><ele>1184.0</ele><time>2026-09-22T01:13:11Z</time></trkpt>
      <trkpt lat="33.085324" lon="131.192922"><ele>1183.8</ele><time>2026-09-22T01:13:14Z</time></trkpt>
      <trkpt lat="33.085383" lon="131.193289"><ele>1182.0</ele><time>2026-09-22T01:13:18Z</time></trkpt>
      <trkpt lat="33.085721" lon="131.193594"><ele>1179.8</ele><time>2026-09-22T01:13:23Z</time></trkpt>
      <trkpt lat="33.086445" lon="131.193983"><ele>1173.6</ele><time>2026-09-22T01:13:32Z</time></trkpt>
      <trkpt lat="33.086722" lon="131.194033"><ele>1170.8</ele><time>2026-09-22T01:13:35Z</time></trkpt>
      <trkpt lat="33.087389" lon="131.193954"><ele>1168.8</ele><time>2026-09-22T01:13:44Z</time></trkpt>
      <trkpt lat="33.087618" lon="131.194070"><ele>1170.4</ele><time>2026-09-22T01:13:50Z</time></trkpt>
      <trkpt lat="33.087701" lon="131.194245"><ele>1170.4</ele><time>2026-09-22T01:13:55Z</time></trkpt>
      <trkpt lat="33.087556" lon="131.194566"><ele>1170.0</ele><time>2026-09-22T01:14:03Z</time></trkpt>
      <trkpt lat="33.086854" lon="131.195115"><ele>1168.6</ele><time>2026-09-22T01:14:18Z</time></trkpt>
      <trkpt lat="33.085355" lon="131.195661"><ele>1161.6</ele><time>2026-09-22T01:14:37Z</time></trkpt>
      <trkpt lat="33.085275" lon="131.195817"><ele>1160.8</ele><time>2026-09-22T01:14:39Z</time></trkpt>
      <trkpt lat="33.085457" lon="131.196557"><ele>1158.2</ele><time>2026-09-22T01:14:47Z</time></trkpt>
      <trkpt lat="33.085422" lon="131.197056"><ele>1155.2</ele><time>2026-09-22T01:14:52Z</time></trkpt>
      <trkpt lat="33.085169" lon="131.197383"><ele>1154.8</ele><time>2026-09-22T01:14:57Z</time></trkpt>
      <trkpt lat="33.084764" lon="131.197700"><ele>1154.6</ele><time>2026-09-22T01:15:04Z</time></trkpt>
      <trkpt lat="33.084487" lon="131.197656"><ele>1154.0</ele><time>2026-09-22T01:15:08Z</time></trkpt>
      <trkpt lat="33.084393" lon="131.197357"><ele>1153.2</ele><time>2026-09-22T01:15:12Z</time></trkpt>
      <trkpt lat="33.084446" lon="131.197157"><ele>1153.0</ele><time>2026-09-22T01:15:15Z</time></trkpt>
      <trkpt lat="33.085006" lon="131.196943"><ele>1150.6</ele><time>2026-09-22T01:15:24Z</time></trkpt>
      <trkpt lat="33.085181" lon="131.196701"><ele>1148.0</ele><time>2026-09-22T01:15:28Z</time></trkpt>
      <trkpt lat="33.085116" lon="131.196390"><ele>1146.2</ele><time>2026-09-22T01:15:32Z</time></trkpt>
      <trkpt lat="33.084706" lon="131.195702"><ele>1142.8</ele><time>2026-09-22T01:15:41Z</time></trkpt>
      <trkpt lat="33.084748" lon="131.195521"><ele>1142.4</ele><time>2026-09-22T01:15:43Z</time></trkpt>
      <trkpt lat="33.085000" lon="131.195175"><ele>1139.6</ele><time>2026-09-22T01:15:48Z</time></trkpt>
      <trkpt lat="33.085620" lon="131.195080"><ele>1136.2</ele><time>2026-09-22T01:15:56Z</time></trkpt>
      <trkpt lat="33.085747" lon="131.194888"><ele>1134.6</ele><time>2026-09-22T01:15:59Z</time></trkpt>
      <trkpt lat="33.085753" lon="131.194743"><ele>1133.8</ele><time>2026-09-22T01:16:01Z</time></trkpt>
      <trkpt lat="33.085560" lon="131.194465"><ele>1132.2</ele><time>2026-09-22T01:16:05Z</time></trkpt>
      <trkpt lat="33.084686" lon="131.193892"><ele>1126.2</ele><time>2026-09-22T01:16:16Z</time></trkpt>
      <trkpt lat="33.084220" lon="131.193334"><ele>1123.6</ele><time>2026-09-22T01:16:24Z</time></trkpt>
      <trkpt lat="33.084119" lon="131.192711"><ele>1120.4</ele><time>2026-09-22T01:16:31Z</time></trkpt>
      <trkpt lat="33.084141" lon="131.192289"><ele>1117.6</ele><time>2026-09-22T01:16:35Z</time></trkpt>
      <trkpt lat="33.084090" lon="131.191955"><ele>1117.6</ele><time>2026-09-22T01:16:39Z</time></trkpt>
      <trkpt lat="33.083982" lon="131.191779"><ele>1116.8</ele><time>2026-09-22T01:16:42Z</time></trkpt>
      <trkpt lat="33.082780" lon="131.191064"><ele>1110.8</ele><time>2026-09-22T01:17:04Z</time></trkpt>
      <trkpt lat="33.082660" lon="131.190809"><ele>1109.8</ele><time>2026-09-22T01:17:07Z</time></trkpt>
      <trkpt lat="33.082647" lon="131.190497"><ele>1108.4</ele><time>2026-09-22T01:17:10Z</time></trkpt>
      <trkpt lat="33.082884" lon="131.189853"><ele>1103.6</ele><time>2026-09-22T01:17:17Z</time></trkpt>
      <trkpt lat="33.082929" lon="131.189451"><ele>1100.4</ele><time>2026-09-22T01:17:21Z</time></trkpt>
      <trkpt lat="33.082838" lon="131.189189"><ele>1099.0</ele><time>2026-09-22T01:17:24Z</time></trkpt>
      <trkpt lat="33.082663" lon="131.188993"><ele>1098.2</ele><time>2026-09-22T01:17:27Z</time></trkpt>
      <trkpt lat="33.082262" lon="131.188795"><ele>1095.4</ele><time>2026-09-22T01:17:33Z</time></trkpt>
      <trkpt lat="33.082140" lon="131.188865"><ele>1094.0</ele><time>2026-09-22T01:17:35Z</time></trkpt>
      <trkpt lat="33.082062" lon="131.189041"><ele>1093.0</ele><time>2026-09-22T01:17:37Z</time></trkpt>
      <trkpt lat="33.082230" lon="131.189691"><ele>1091.2</ele><time>2026-09-22T01:17:44Z</time></trkpt>
      <trkpt lat="33.082140" lon="131.190612"><ele>1084.8</ele><time>2026-09-22T01:17:55Z</time></trkpt>
      <trkpt lat="33.082502" lon="131.191807"><ele>1081.2</ele><time>2026-09-22T01:18:08Z</time></trkpt>
      <trkpt lat="33.082465" lon="131.192195"><ele>1080.6</ele><time>2026-09-22T01:18:12Z</time></trkpt>
      <trkpt lat="33.082319" lon="131.192651"><ele>1079.6</ele><time>2026-09-22T01:18:18Z</time></trkpt>
      <trkpt lat="33.081287" lon="131.194361"><ele>1064.8</ele><time>2026-09-22T01:19:51Z</time></trkpt>
      <trkpt lat="33.081218" lon="131.194612"><ele>1063.2</ele><time>2026-09-22T01:19:54Z</time></trkpt>
      <trkpt lat="33.081272" lon="131.195690"><ele>1060.4</ele><time>2026-09-22T01:20:05Z</time></trkpt>
      <trkpt lat="33.081050" lon="131.196237"><ele>1059.4</ele><time>2026-09-22T01:20:12Z</time></trkpt>
      <trkpt lat="33.080655" lon="131.196682"><ele>1059.6</ele><time>2026-09-22T01:20:20Z</time></trkpt>
      <trkpt lat="33.080167" lon="131.196871"><ele>1058.2</ele><time>2026-09-22T01:20:29Z</time></trkpt>
      <trkpt lat="33.079825" lon="131.196819"><ele>1056.8</ele><time>2026-09-22T01:20:35Z</time></trkpt>
      <trkpt lat="33.078932" lon="131.196441"><ele>1051.6</ele><time>2026-09-22T01:20:47Z</time></trkpt>
      <trkpt lat="33.077635" lon="131.195676"><ele>1042.8</ele><time>2026-09-22T01:21:04Z</time></trkpt>
      <trkpt lat="33.076305" lon="131.195599"><ele>1034.6</ele><time>2026-09-22T01:21:23Z</time></trkpt>
      <trkpt lat="33.075547" lon="131.195434"><ele>1026.0</ele><time>2026-09-22T01:22:55Z</time></trkpt>
      <trkpt lat="33.074385" lon="131.195003"><ele>1017.2</ele><time>2026-09-22T01:23:32Z</time></trkpt>
      <trkpt lat="33.074065" lon="131.194722"><ele>1016.0</ele><time>2026-09-22T01:23:37Z</time></trkpt>
      <trkpt lat="33.073872" lon="131.194310"><ele>1014.0</ele><time>2026-09-22T01:23:42Z</time></trkpt>
      <trkpt lat="33.073677" lon="131.190801"><ele>984.2</ele><time>2026-09-22T01:24:50Z</time></trkpt>
      <trkpt lat="33.073464" lon="131.190152"><ele>978.0</ele><time>2026-09-22T01:25:02Z</time></trkpt>
      <trkpt lat="33.073049" lon="131.189621"><ele>972.8</ele><time>2026-09-22T01:25:14Z</time></trkpt>
      <trkpt lat="33.072435" lon="131.189244"><ele>968.0</ele><time>2026-09-22T01:25:24Z</time></trkpt>
      <trkpt lat="33.070882" lon="131.188595"><ele>962.4</ele><time>2026-09-22T01:25:57Z</time></trkpt>
      <trkpt lat="33.070815" lon="131.188627"><ele>962.0</ele><time>2026-09-22T01:26:01Z</time></trkpt>
      <trkpt lat="33.070852" lon="131.188718"><ele>962.6</ele><time>2026-09-22T01:26:10Z</time></trkpt>
      <trkpt lat="33.070728" lon="131.188696"><ele>962.4</ele><time>2026-09-22T01:28:28Z</time></trkpt>
      <trkpt lat="33.070804" lon="131.188759"><ele>962.4</ele><time>2026-09-22T01:29:06Z</time></trkpt>
      <trkpt lat="33.070777" lon="131.188866"><ele>963.0</ele><time>2026-09-22T01:29:16Z</time></trkpt>
      <trkpt lat="33.070469" lon="131.189134"><ele>963.0</ele><time>2026-09-22T01:29:54Z</time></trkpt>
      <trkpt lat="33.070179" lon="131.189174"><ele>962.6</ele><time>2026-09-22T01:29:55Z</time></trkpt>
      <trkpt lat="33.070461" lon="131.189065"><ele>962.6</ele><time>2026-09-22T01:29:59Z</time></trkpt>
      <trkpt lat="33.070631" lon="131.188919"><ele>962.0</ele><time>2026-09-22T01:31:00Z</time></trkpt>
      <trkpt lat="33.070591" lon="131.188949"><ele>963.0</ele><time>2026-09-22T01:32:15Z</time></trkpt>
      <trkpt lat="33.070592" lon="131.188846"><ele>963.0</ele><time>2026-09-22T01:33:53Z</time></trkpt>
      <trkpt lat="33.070675" lon="131.188923"><ele>962.6</ele><time>2026-09-22T01:35:08Z</time></trkpt>
      <trkpt lat="33.070657" lon="131.188864"><ele>962.4</ele><time>2026-09-22T01:35:14Z</time></trkpt>
      <trkpt lat="33.070578" lon="131.188938"><ele>962.4</ele><time>2026-09-22T01:37:11Z</time></trkpt>
      <trkpt lat="33.070573" lon="131.188875"><ele>962.4</ele><time>2026-09-22T01:37:23Z</time></trkpt>
      <trkpt lat="33.070579" lon="131.188952"><ele>962.4</ele><time>2026-09-22T01:37:44Z</time></trkpt>
      <trkpt lat="33.070628" lon="131.188907"><ele>962.2</ele><time>2026-09-22T01:39:29Z</time></trkpt>
      <trkpt lat="33.070598" lon="131.188864"><ele>962.0</ele><time>2026-09-22T01:41:50Z</time></trkpt>
      <trkpt lat="33.070599" lon="131.188956"><ele>961.8</ele><time>2026-09-22T01:44:57Z</time></trkpt>
      <trkpt lat="33.070577" lon="131.188845"><ele>961.8</ele><time>2026-09-22T01:45:32Z</time></trkpt>
      <trkpt lat="33.070701" lon="131.188889"><ele>961.8</ele><time>2026-09-22T01:46:11Z</time></trkpt>
      <trkpt lat="33.070596" lon="131.188897"><ele>961.8</ele><time>2026-09-22T01:46:39Z</time></trkpt>
      <trkpt lat="33.070336" lon="131.189836"><ele>961.8</ele><time>2026-09-22T01:48:44Z</time></trkpt>
      <trkpt lat="33.070562" lon="131.189575"><ele>961.8</ele><time>2026-09-22T01:48:46Z</time></trkpt>
      <trkpt lat="33.070593" lon="131.189154"><ele>962.0</ele><time>2026-09-22T01:48:55Z</time></trkpt>
      <trkpt lat="33.070702" lon="131.189096"><ele>962.4</ele><time>2026-09-22T01:49:05Z</time></trkpt>
      <trkpt lat="33.070583" lon="131.188903"><ele>960.6</ele><time>2026-09-22T01:50:05Z</time></trkpt>
      <trkpt lat="33.070648" lon="131.188993"><ele>960.6</ele><time>2026-09-22T01:54:45Z</time></trkpt>
      <trkpt lat="33.070575" lon="131.188934"><ele>960.6</ele><time>2026-09-22T01:57:12Z</time></trkpt>
      <trkpt lat="33.070675" lon="131.188902"><ele>960.6</ele><time>2026-09-22T01:58:28Z</time></trkpt>
      <trkpt lat="33.070618" lon="131.188882"><ele>960.6</ele><time>2026-09-22T01:59:33Z</time></trkpt>
      <trkpt lat="33.070638" lon="131.188967"><ele>960.6</ele><time>2026-09-22T02:01:54Z</time></trkpt>
      <trkpt lat="33.070660" lon="131.188843"><ele>960.6</ele><time>2026-09-22T02:06:34Z</time></trkpt>
      <trkpt lat="33.070591" lon="131.189043"><ele>960.6</ele><time>2026-09-22T02:11:30Z</time></trkpt>
      <trkpt lat="33.070641" lon="131.188876"><ele>960.6</ele><time>2026-09-22T02:16:09Z</time></trkpt>
      <trkpt lat="33.070619" lon="131.189004"><ele>960.6</ele><time>2026-09-22T02:16:46Z</time></trkpt>
      <trkpt lat="33.070632" lon="131.188923"><ele>960.6</ele><time>2026-09-22T02:17:21Z</time></trkpt>
      <trkpt lat="33.070728" lon="131.188931"><ele>960.6</ele><time>2026-09-22T02:18:43Z</time></trkpt>
      <trkpt lat="33.070607" lon="131.189100"><ele>960.4</ele><time>2026-09-22T02:23:34Z</time></trkpt>
      <trkpt lat="33.070985" lon="131.187944"><ele>959.4</ele><time>2026-09-22T02:26:08Z</time></trkpt>
      <trkpt lat="33.070722" lon="131.188021"><ele>959.6</ele><time>2026-09-22T02:26:10Z</time></trkpt>
      <trkpt lat="33.070810" lon="131.188334"><ele>959.8</ele><time>2026-09-22T02:26:11Z</time></trkpt>
      <trkpt lat="33.070740" lon="131.188787"><ele>959.8</ele><time>2026-09-22T02:26:14Z</time></trkpt>
      <trkpt lat="33.070737" lon="131.188648"><ele>959.4</ele><time>2026-09-22T02:28:36Z</time></trkpt>
      <trkpt lat="33.070804" lon="131.188733"><ele>960.0</ele><time>2026-09-22T02:29:36Z</time></trkpt>
      <trkpt lat="33.070861" lon="131.188695"><ele>960.2</ele><time>2026-09-22T02:29:41Z</time></trkpt>
      <trkpt lat="33.070804" lon="131.188534"><ele>959.2</ele><time>2026-09-22T02:30:10Z</time></trkpt>
      <trkpt lat="33.069134" lon="131.187773"><ele>951.8</ele><time>2026-09-22T02:30:40Z</time></trkpt>
      <trkpt lat="33.067397" lon="131.186053"><ele>937.4</ele><time>2026-09-22T02:31:03Z</time></trkpt>
      <trkpt lat="33.066841" lon="131.185720"><ele>937.0</ele><time>2026-09-22T02:31:09Z</time></trkpt>
      <trkpt lat="33.064382" lon="131.184563"><ele>926.2</ele><time>2026-09-22T02:31:34Z</time></trkpt>
      <trkpt lat="33.062385" lon="131.182932"><ele>912.8</ele><time>2026-09-22T02:32:06Z</time></trkpt>
      <trkpt lat="33.061408" lon="131.181752"><ele>904.2</ele><time>2026-09-22T02:32:19Z</time></trkpt>
      <trkpt lat="33.061113" lon="131.181518"><ele>901.0</ele><time>2026-09-22T02:32:23Z</time></trkpt>
      <trkpt lat="33.059964" lon="131.181358"><ele>896.0</ele><time>2026-09-22T02:32:35Z</time></trkpt>
      <trkpt lat="33.059703" lon="131.181204"><ele>897.2</ele><time>2026-09-22T02:32:39Z</time></trkpt>
      <trkpt lat="33.059490" lon="131.180741"><ele>897.4</ele><time>2026-09-22T02:32:47Z</time></trkpt>
      <trkpt lat="33.059468" lon="131.179693"><ele>897.8</ele><time>2026-09-22T02:33:35Z</time></trkpt>
      <trkpt lat="33.059301" lon="131.179220"><ele>898.4</ele><time>2026-09-22T02:33:45Z</time></trkpt>
      <trkpt lat="33.058834" lon="131.178572"><ele>898.6</ele><time>2026-09-22T02:34:04Z</time></trkpt>
      <trkpt lat="33.058606" lon="131.178493"><ele>898.4</ele><time>2026-09-22T02:34:14Z</time></trkpt>
      <trkpt lat="33.058474" lon="131.178053"><ele>896.4</ele><time>2026-09-22T02:36:18Z</time></trkpt>
      <trkpt lat="33.057846" lon="131.177204"><ele>892.2</ele><time>2026-09-22T02:36:36Z</time></trkpt>
      <trkpt lat="33.056328" lon="131.176329"><ele>879.4</ele><time>2026-09-22T02:36:55Z</time></trkpt>
      <trkpt lat="33.056123" lon="131.176060"><ele>878.2</ele><time>2026-09-22T02:36:58Z</time></trkpt>
      <trkpt lat="33.055508" lon="131.174840"><ele>876.6</ele><time>2026-09-22T02:37:11Z</time></trkpt>
      <trkpt lat="33.055180" lon="131.174480"><ele>876.0</ele><time>2026-09-22T02:37:16Z</time></trkpt>
      <trkpt lat="33.053350" lon="131.173438"><ele>872.8</ele><time>2026-09-22T02:37:38Z</time></trkpt>
      <trkpt lat="33.053051" lon="131.173197"><ele>872.0</ele><time>2026-09-22T02:37:42Z</time></trkpt>
      <trkpt lat="33.052908" lon="131.172790"><ele>871.8</ele><time>2026-09-22T02:37:46Z</time></trkpt>
      <trkpt lat="33.052787" lon="131.171931"><ele>866.4</ele><time>2026-09-22T02:37:54Z</time></trkpt>
      <trkpt lat="33.052687" lon="131.171656"><ele>864.8</ele><time>2026-09-22T02:37:57Z</time></trkpt>
      <trkpt lat="33.051823" lon="131.170608"><ele>856.4</ele><time>2026-09-22T02:38:09Z</time></trkpt>
      <trkpt lat="33.050486" lon="131.169813"><ele>851.2</ele><time>2026-09-22T02:38:24Z</time></trkpt>
      <trkpt lat="33.049079" lon="131.168674"><ele>844.2</ele><time>2026-09-22T02:38:40Z</time></trkpt>
      <trkpt lat="33.048305" lon="131.168172"><ele>837.4</ele><time>2026-09-22T02:38:52Z</time></trkpt>
      <trkpt lat="33.048094" lon="131.167925"><ele>836.0</ele><time>2026-09-22T02:39:07Z</time></trkpt>
      <trkpt lat="33.046512" lon="131.166923"><ele>822.0</ele><time>2026-09-22T02:39:26Z</time></trkpt>
      <trkpt lat="33.045173" lon="131.166496"><ele>810.2</ele><time>2026-09-22T02:39:38Z</time></trkpt>
      <trkpt lat="33.044258" lon="131.166365"><ele>804.2</ele><time>2026-09-22T02:39:45Z</time></trkpt>
      <trkpt lat="33.043498" lon="131.166325"><ele>801.2</ele><time>2026-09-22T02:39:51Z</time></trkpt>
      <trkpt lat="33.042698" lon="131.166411"><ele>805.6</ele><time>2026-09-22T02:39:59Z</time></trkpt>
      <trkpt lat="33.041755" lon="131.167131"><ele>805.8</ele><time>2026-09-22T02:40:11Z</time></trkpt>
      <trkpt lat="33.041358" lon="131.167325"><ele>804.4</ele><time>2026-09-22T02:40:16Z</time></trkpt>
      <trkpt lat="33.040432" lon="131.167300"><ele>798.2</ele><time>2026-09-22T02:40:25Z</time></trkpt>
      <trkpt lat="33.039911" lon="131.167055"><ele>791.2</ele><time>2026-09-22T02:40:30Z</time></trkpt>
      <trkpt lat="33.039731" lon="131.166886"><ele>790.0</ele><time>2026-09-22T02:40:32Z</time></trkpt>
      <trkpt lat="33.039188" lon="131.165960"><ele>787.4</ele><time>2026-09-22T02:40:39Z</time></trkpt>
      <trkpt lat="33.039110" lon="131.165669"><ele>786.4</ele><time>2026-09-22T02:40:41Z</time></trkpt>
      <trkpt lat="33.038846" lon="131.165218"><ele>786.8</ele><time>2026-09-22T02:40:45Z</time></trkpt>
      <trkpt lat="33.038692" lon="131.165086"><ele>787.4</ele><time>2026-09-22T02:40:47Z</time></trkpt>
      <trkpt lat="33.037942" lon="131.164989"><ele>791.2</ele><time>2026-09-22T02:40:56Z</time></trkpt>
      <trkpt lat="33.036358" lon="131.165026"><ele>801.0</ele><time>2026-09-22T02:41:33Z</time></trkpt>
      <trkpt lat="33.035000" lon="131.164435"><ele>802.0</ele><time>2026-09-22T02:42:12Z</time></trkpt>
      <trkpt lat="33.034550" lon="131.164358"><ele>802.2</ele><time>2026-09-22T02:42:26Z</time></trkpt>
      <trkpt lat="33.032547" lon="131.164315"><ele>806.6</ele><time>2026-09-22T02:43:37Z</time></trkpt>
      <trkpt lat="33.032260" lon="131.164201"><ele>806.8</ele><time>2026-09-22T02:43:45Z</time></trkpt>
      <trkpt lat="33.031509" lon="131.163140"><ele>805.0</ele><time>2026-09-22T02:44:10Z</time></trkpt>
      <trkpt lat="33.030964" lon="131.162695"><ele>804.4</ele><time>2026-09-22T02:44:25Z</time></trkpt>
      <trkpt lat="33.030329" lon="131.162509"><ele>805.2</ele><time>2026-09-22T02:44:40Z</time></trkpt>
      <trkpt lat="33.028094" lon="131.162263"><ele>804.0</ele><time>2026-09-22T02:45:31Z</time></trkpt>
      <trkpt lat="33.027726" lon="131.162171"><ele>804.6</ele><time>2026-09-22T02:45:38Z</time></trkpt>
      <trkpt lat="33.026941" lon="131.161691"><ele>804.4</ele><time>2026-09-22T02:45:54Z</time></trkpt>
      <trkpt lat="33.026402" lon="131.161091"><ele>803.6</ele><time>2026-09-22T02:46:08Z</time></trkpt>
      <trkpt lat="33.026008" lon="131.160499"><ele>802.6</ele><time>2026-09-22T02:47:14Z</time></trkpt>
      <trkpt lat="33.026032" lon="131.160372"><ele>802.4</ele><time>2026-09-22T02:48:27Z</time></trkpt>
      <trkpt lat="33.024824" lon="131.157514"><ele>803.6</ele><time>2026-09-22T02:49:26Z</time></trkpt>
      <trkpt lat="33.024679" lon="131.157016"><ele>803.6</ele><time>2026-09-22T02:49:35Z</time></trkpt>
      <trkpt lat="33.024335" lon="131.154246"><ele>806.2</ele><time>2026-09-22T02:50:21Z</time></trkpt>
      <trkpt lat="33.023920" lon="131.152130"><ele>806.8</ele><time>2026-09-22T02:50:55Z</time></trkpt>
      <trkpt lat="33.023768" lon="131.151623"><ele>805.4</ele><time>2026-09-22T02:51:02Z</time></trkpt>
      <trkpt lat="33.023572" lon="131.151289"><ele>804.4</ele><time>2026-09-22T02:51:07Z</time></trkpt>
      <trkpt lat="33.023211" lon="131.151020"><ele>803.8</ele><time>2026-09-22T02:51:13Z</time></trkpt>
      <trkpt lat="33.022859" lon="131.150928"><ele>802.4</ele><time>2026-09-22T02:51:18Z</time></trkpt>
      <trkpt lat="33.022522" lon="131.150965"><ele>802.2</ele><time>2026-09-22T02:51:23Z</time></trkpt>
      <trkpt lat="33.019993" lon="131.151897"><ele>798.0</ele><time>2026-09-22T02:52:02Z</time></trkpt>
      <trkpt lat="33.018621" lon="131.152497"><ele>796.4</ele><time>2026-09-22T02:52:23Z</time></trkpt>
      <trkpt lat="33.017062" lon="131.153338"><ele>792.0</ele><time>2026-09-22T02:52:45Z</time></trkpt>
      <trkpt lat="33.016638" lon="131.153385"><ele>787.6</ele><time>2026-09-22T02:52:49Z</time></trkpt>
      <trkpt lat="33.015614" lon="131.153216"><ele>776.6</ele><time>2026-09-22T02:52:59Z</time></trkpt>
      <trkpt lat="33.014221" lon="131.153775"><ele>763.6</ele><time>2026-09-22T02:53:13Z</time></trkpt>
      <trkpt lat="33.013304" lon="131.153803"><ele>755.6</ele><time>2026-09-22T02:53:21Z</time></trkpt>
      <trkpt lat="33.012685" lon="131.153622"><ele>745.6</ele><time>2026-09-22T02:53:26Z</time></trkpt>
      <trkpt lat="33.012374" lon="131.153381"><ele>745.8</ele><time>2026-09-22T02:53:29Z</time></trkpt>
      <trkpt lat="33.012154" lon="131.153055"><ele>747.4</ele><time>2026-09-22T02:53:32Z</time></trkpt>
      <trkpt lat="33.010948" lon="131.148452"><ele>748.0</ele><time>2026-09-22T02:54:21Z</time></trkpt>
      <trkpt lat="33.010751" lon="131.147889"><ele>748.0</ele><time>2026-09-22T02:54:30Z</time></trkpt>
      <trkpt lat="33.010535" lon="131.147573"><ele>748.0</ele><time>2026-09-22T02:54:36Z</time></trkpt>
      <trkpt lat="33.007144" lon="131.144499"><ele>753.6</ele><time>2026-09-22T02:56:22Z</time></trkpt>
      <trkpt lat="33.006911" lon="131.144152"><ele>754.8</ele><time>2026-09-22T02:56:30Z</time></trkpt>
      <trkpt lat="33.006091" lon="131.142326"><ele>757.0</ele><time>2026-09-22T02:57:05Z</time></trkpt>
      <trkpt lat="33.005841" lon="131.141964"><ele>757.2</ele><time>2026-09-22T02:57:13Z</time></trkpt>
      <trkpt lat="33.004218" lon="131.140969"><ele>760.0</ele><time>2026-09-22T02:57:55Z</time></trkpt>
      <trkpt lat="33.001731" lon="131.139597"><ele>769.4</ele><time>2026-09-22T02:59:25Z</time></trkpt>
      <trkpt lat="33.000400" lon="131.138355"><ele>774.2</ele><time>2026-09-22T03:00:22Z</time></trkpt>
      <trkpt lat="33.000152" lon="131.138244"><ele>775.8</ele><time>2026-09-22T03:00:33Z</time></trkpt>
      <trkpt lat="32.999935" lon="131.138262"><ele>778.0</ele><time>2026-09-22T03:00:44Z</time></trkpt>
      <trkpt lat="32.999581" lon="131.138444"><ele>782.2</ele><time>2026-09-22T03:01:07Z</time></trkpt>
      <trkpt lat="32.997922" lon="131.139579"><ele>788.4</ele><time>2026-09-22T03:02:46Z</time></trkpt>
      <trkpt lat="32.995564" lon="131.141116"><ele>781.8</ele><time>2026-09-22T03:10:43Z</time></trkpt>
      <trkpt lat="32.995098" lon="131.141152"><ele>782.8</ele><time>2026-09-22T03:10:50Z</time></trkpt>
      <trkpt lat="32.993998" lon="131.140682"><ele>780.8</ele><time>2026-09-22T03:11:08Z</time></trkpt>
      <trkpt lat="32.993768" lon="131.140675"><ele>778.0</ele><time>2026-09-22T03:11:11Z</time></trkpt>
      <trkpt lat="32.993540" lon="131.140771"><ele>776.4</ele><time>2026-09-22T03:11:14Z</time></trkpt>
      <trkpt lat="32.993352" lon="131.140995"><ele>775.4</ele><time>2026-09-22T03:11:17Z</time></trkpt>
      <trkpt lat="32.992953" lon="131.142054"><ele>770.0</ele><time>2026-09-22T03:11:28Z</time></trkpt>
      <trkpt lat="32.992717" lon="131.142233"><ele>768.6</ele><time>2026-09-22T03:11:31Z</time></trkpt>
      <trkpt lat="32.990919" lon="131.142102"><ele>763.2</ele><time>2026-09-22T03:11:48Z</time></trkpt>
      <trkpt lat="32.990582" lon="131.142209"><ele>763.6</ele><time>2026-09-22T03:11:52Z</time></trkpt>
      <trkpt lat="32.990350" lon="131.142486"><ele>770.2</ele><time>2026-09-22T03:11:58Z</time></trkpt>
      <trkpt lat="32.989713" lon="131.143654"><ele>780.2</ele><time>2026-09-22T03:12:54Z</time></trkpt>
      <trkpt lat="32.988852" lon="131.145160"><ele>781.2</ele><time>2026-09-22T03:13:57Z</time></trkpt>
      <trkpt lat="32.988516" lon="131.145425"><ele>783.2</ele><time>2026-09-22T03:14:05Z</time></trkpt>
      <trkpt lat="32.987913" lon="131.145663"><ele>772.0</ele><time>2026-09-22T03:14:13Z</time></trkpt>
      <trkpt lat="32.987055" lon="131.146067"><ele>769.0</ele><time>2026-09-22T03:14:22Z</time></trkpt>
      <trkpt lat="32.986699" lon="131.146138"><ele>769.6</ele><time>2026-09-22T03:14:26Z</time></trkpt>
      <trkpt lat="32.986389" lon="131.146010"><ele>771.0</ele><time>2026-09-22T03:14:30Z</time></trkpt>
      <trkpt lat="32.985794" lon="131.145212"><ele>775.0</ele><time>2026-09-22T03:14:42Z</time></trkpt>
      <trkpt lat="32.985408" lon="131.144896"><ele>777.4</ele><time>2026-09-22T03:14:53Z</time></trkpt>
      <trkpt lat="32.984997" lon="131.145016"><ele>780.2</ele><time>2026-09-22T03:15:06Z</time></trkpt>
      <trkpt lat="32.984263" lon="131.145723"><ele>785.0</ele><time>2026-09-22T03:15:57Z</time></trkpt>
      <trkpt lat="32.984380" lon="131.145901"><ele>785.2</ele><time>2026-09-22T03:17:43Z</time></trkpt>
      <trkpt lat="32.984207" lon="131.145781"><ele>785.0</ele><time>2026-09-22T03:18:26Z</time></trkpt>
      <trkpt lat="32.983647" lon="131.146182"><ele>789.6</ele><time>2026-09-22T03:19:02Z</time></trkpt>
      <trkpt lat="32.983264" lon="131.146163"><ele>790.0</ele><time>2026-09-22T03:19:17Z</time></trkpt>
      <trkpt lat="32.982656" lon="131.145777"><ele>791.2</ele><time>2026-09-22T03:19:37Z</time></trkpt>
      <trkpt lat="32.981726" lon="131.145684"><ele>788.4</ele><time>2026-09-22T03:19:57Z</time></trkpt>
      <trkpt lat="32.980521" lon="131.145152"><ele>779.8</ele><time>2026-09-22T03:20:15Z</time></trkpt>
      <trkpt lat="32.979987" lon="131.144248"><ele>781.8</ele><time>2026-09-22T03:20:28Z</time></trkpt>
      <trkpt lat="32.979191" lon="131.143534"><ele>777.2</ele><time>2026-09-22T03:20:39Z</time></trkpt>
      <trkpt lat="32.978603" lon="131.142816"><ele>773.4</ele><time>2026-09-22T03:20:49Z</time></trkpt>
      <trkpt lat="32.977762" lon="131.142399"><ele>765.8</ele><time>2026-09-22T03:20:59Z</time></trkpt>
      <trkpt lat="32.977284" lon="131.141947"><ele>762.0</ele><time>2026-09-22T03:21:06Z</time></trkpt>
      <trkpt lat="32.977131" lon="131.141725"><ele>759.2</ele><time>2026-09-22T03:21:09Z</time></trkpt>
      <trkpt lat="32.976900" lon="131.140937"><ele>754.0</ele><time>2026-09-22T03:21:17Z</time></trkpt>
      <trkpt lat="32.976547" lon="131.140427"><ele>751.4</ele><time>2026-09-22T03:21:24Z</time></trkpt>
      <trkpt lat="32.976203" lon="131.140191"><ele>750.0</ele><time>2026-09-22T03:21:34Z</time></trkpt>
      <trkpt lat="32.976307" lon="131.140001"><ele>750.6</ele><time>2026-09-22T03:21:43Z</time></trkpt>
      <trkpt lat="32.976075" lon="131.139919"><ele>750.8</ele><time>2026-09-22T03:21:53Z</time></trkpt>
      <trkpt lat="32.976022" lon="131.139604"><ele>745.6</ele><time>2026-09-22T03:23:09Z</time></trkpt>
      <trkpt lat="32.975794" lon="131.139361"><ele>742.4</ele><time>2026-09-22T03:25:37Z</time></trkpt>
      <trkpt lat="32.975981" lon="131.139484"><ele>742.8</ele><time>2026-09-22T03:26:48Z</time></trkpt>
      <trkpt lat="32.976100" lon="131.139771"><ele>744.8</ele><time>2026-09-22T03:27:34Z</time></trkpt>
      <trkpt lat="32.976108" lon="131.139899"><ele>746.0</ele><time>2026-09-22T03:27:59Z</time></trkpt>
      <trkpt lat="32.976022" lon="131.139935"><ele>744.2</ele><time>2026-09-22T03:30:19Z</time></trkpt>
      <trkpt lat="32.976133" lon="131.139934"><ele>745.0</ele><time>2026-09-22T03:31:30Z</time></trkpt>
      <trkpt lat="32.976174" lon="131.140033"><ele>744.0</ele><time>2026-09-22T03:31:37Z</time></trkpt>
      <trkpt lat="32.976039" lon="131.140546"><ele>743.6</ele><time>2026-09-22T03:31:51Z</time></trkpt>
      <trkpt lat="32.976441" lon="131.141284"><ele>741.0</ele><time>2026-09-22T03:32:05Z</time></trkpt>
      <trkpt lat="32.976497" lon="131.141579"><ele>739.6</ele><time>2026-09-22T03:32:08Z</time></trkpt>
      <trkpt lat="32.976467" lon="131.142099"><ele>736.4</ele><time>2026-09-22T03:32:13Z</time></trkpt>
      <trkpt lat="32.976295" lon="131.142286"><ele>732.8</ele><time>2026-09-22T03:32:16Z</time></trkpt>
      <trkpt lat="32.975914" lon="131.142396"><ele>728.0</ele><time>2026-09-22T03:32:22Z</time></trkpt>
      <trkpt lat="32.976051" lon="131.141538"><ele>723.0</ele><time>2026-09-22T03:32:31Z</time></trkpt>
      <trkpt lat="32.975719" lon="131.141031"><ele>717.8</ele><time>2026-09-22T03:32:39Z</time></trkpt>
      <trkpt lat="32.975621" lon="131.140734"><ele>716.2</ele><time>2026-09-22T03:32:42Z</time></trkpt>
      <trkpt lat="32.975555" lon="131.139739"><ele>711.0</ele><time>2026-09-22T03:32:51Z</time></trkpt>
      <trkpt lat="32.974617" lon="131.136863"><ele>686.4</ele><time>2026-09-22T03:33:18Z</time></trkpt>
      <trkpt lat="32.974727" lon="131.136336"><ele>684.2</ele><time>2026-09-22T03:33:25Z</time></trkpt>
      <trkpt lat="32.974946" lon="131.137018"><ele>681.8</ele><time>2026-09-22T03:33:32Z</time></trkpt>
      <trkpt lat="32.975503" lon="131.137806"><ele>676.4</ele><time>2026-09-22T03:33:42Z</time></trkpt>
      <trkpt lat="32.976364" lon="131.138314"><ele>667.8</ele><time>2026-09-22T03:33:57Z</time></trkpt>
      <trkpt lat="32.976497" lon="131.138268"><ele>666.8</ele><time>2026-09-22T03:34:00Z</time></trkpt>
      <trkpt lat="32.976522" lon="131.138118"><ele>665.4</ele><time>2026-09-22T03:34:04Z</time></trkpt>
      <trkpt lat="32.976464" lon="131.138047"><ele>664.6</ele><time>2026-09-22T03:34:06Z</time></trkpt>
      <trkpt lat="32.975925" lon="131.137925"><ele>662.0</ele><time>2026-09-22T03:34:21Z</time></trkpt>
      <trkpt lat="32.975676" lon="131.137756"><ele>660.6</ele><time>2026-09-22T03:34:29Z</time></trkpt>
      <trkpt lat="32.975415" lon="131.137145"><ele>657.4</ele><time>2026-09-22T03:34:41Z</time></trkpt>
      <trkpt lat="32.975364" lon="131.136812"><ele>656.0</ele><time>2026-09-22T03:34:45Z</time></trkpt>
      <trkpt lat="32.975380" lon="131.136284"><ele>653.2</ele><time>2026-09-22T03:34:51Z</time></trkpt>
      <trkpt lat="32.976133" lon="131.133276"><ele>635.2</ele><time>2026-09-22T03:35:17Z</time></trkpt>
      <trkpt lat="32.976077" lon="131.132655"><ele>633.6</ele><time>2026-09-22T03:35:22Z</time></trkpt>
      <trkpt lat="32.975763" lon="131.132257"><ele>631.0</ele><time>2026-09-22T03:35:27Z</time></trkpt>
      <trkpt lat="32.975538" lon="131.132230"><ele>630.0</ele><time>2026-09-22T03:35:29Z</time></trkpt>
      <trkpt lat="32.974759" lon="131.132585"><ele>627.2</ele><time>2026-09-22T03:35:37Z</time></trkpt>
      <trkpt lat="32.973472" lon="131.132568"><ele>619.2</ele><time>2026-09-22T03:35:53Z</time></trkpt>
      <trkpt lat="32.973209" lon="131.132644"><ele>618.4</ele><time>2026-09-22T03:35:56Z</time></trkpt>
      <trkpt lat="32.972914" lon="131.132802"><ele>616.0</ele><time>2026-09-22T03:36:00Z</time></trkpt>
      <trkpt lat="32.972767" lon="131.133155"><ele>614.4</ele><time>2026-09-22T03:36:03Z</time></trkpt>
      <trkpt lat="32.972995" lon="131.134674"><ele>602.8</ele><time>2026-09-22T03:36:16Z</time></trkpt>
      <trkpt lat="32.973369" lon="131.135910"><ele>592.6</ele><time>2026-09-22T03:36:26Z</time></trkpt>
      <trkpt lat="32.973343" lon="131.136280"><ele>589.6</ele><time>2026-09-22T03:36:29Z</time></trkpt>
      <trkpt lat="32.972984" lon="131.137589"><ele>584.4</ele><time>2026-09-22T03:36:41Z</time></trkpt>
      <trkpt lat="32.973075" lon="131.138011"><ele>582.2</ele><time>2026-09-22T03:36:46Z</time></trkpt>
      <trkpt lat="32.973331" lon="131.138383"><ele>579.4</ele><time>2026-09-22T03:36:52Z</time></trkpt>
      <trkpt lat="32.973387" lon="131.138704"><ele>575.8</ele><time>2026-09-22T03:36:55Z</time></trkpt>
      <trkpt lat="32.973338" lon="131.139067"><ele>575.0</ele><time>2026-09-22T03:36:58Z</time></trkpt>
      <trkpt lat="32.972480" lon="131.140283"><ele>570.6</ele><time>2026-09-22T03:37:15Z</time></trkpt>
      <trkpt lat="32.972467" lon="131.140637"><ele>568.6</ele><time>2026-09-22T03:37:20Z</time></trkpt>
      <trkpt lat="32.972654" lon="131.141402"><ele>566.2</ele><time>2026-09-22T03:37:29Z</time></trkpt>
      <trkpt lat="32.972513" lon="131.141644"><ele>565.2</ele><time>2026-09-22T03:37:35Z</time></trkpt>
      <trkpt lat="32.972308" lon="131.140322"><ele>557.8</ele><time>2026-09-22T03:37:55Z</time></trkpt>
      <trkpt lat="32.972646" lon="131.138947"><ele>551.0</ele><time>2026-09-22T03:38:10Z</time></trkpt>
      <trkpt lat="32.972560" lon="131.138112"><ele>545.8</ele><time>2026-09-22T03:38:20Z</time></trkpt>
      <trkpt lat="32.972442" lon="131.137654"><ele>546.2</ele><time>2026-09-22T03:38:25Z</time></trkpt>
      <trkpt lat="32.972479" lon="131.136379"><ele>539.8</ele><time>2026-09-22T03:38:39Z</time></trkpt>
      <trkpt lat="32.972116" lon="131.135299"><ele>532.8</ele><time>2026-09-22T03:38:50Z</time></trkpt>
      <trkpt lat="32.971823" lon="131.134111"><ele>527.2</ele><time>2026-09-22T03:39:02Z</time></trkpt>
      <trkpt lat="32.971307" lon="131.132669"><ele>520.2</ele><time>2026-09-22T03:39:15Z</time></trkpt>
      <trkpt lat="32.971398" lon="131.131915"><ele>516.0</ele><time>2026-09-22T03:39:24Z</time></trkpt>
      <trkpt lat="32.971290" lon="131.131370"><ele>512.4</ele><time>2026-09-22T03:39:31Z</time></trkpt>
      <trkpt lat="32.970943" lon="131.130967"><ele>511.2</ele><time>2026-09-22T03:39:38Z</time></trkpt>
      <trkpt lat="32.969898" lon="131.130480"><ele>505.0</ele><time>2026-09-22T03:39:56Z</time></trkpt>
      <trkpt lat="32.969295" lon="131.130346"><ele>504.0</ele><time>2026-09-22T03:40:07Z</time></trkpt>
      <trkpt lat="32.968729" lon="131.130285"><ele>504.6</ele><time>2026-09-22T03:40:17Z</time></trkpt>
      <trkpt lat="32.968080" lon="131.130424"><ele>505.6</ele><time>2026-09-22T03:40:33Z</time></trkpt>
      <trkpt lat="32.966840" lon="131.130458"><ele>505.4</ele><time>2026-09-22T03:41:01Z</time></trkpt>
      <trkpt lat="32.965809" lon="131.130448"><ele>505.0</ele><time>2026-09-22T03:41:23Z</time></trkpt>
      <trkpt lat="32.965438" lon="131.130357"><ele>504.4</ele><time>2026-09-22T03:41:31Z</time></trkpt>
      <trkpt lat="32.962996" lon="131.129341"><ele>505.0</ele><time>2026-09-22T03:42:20Z</time></trkpt>
      <trkpt lat="32.960789" lon="131.128258"><ele>502.8</ele><time>2026-09-22T03:43:04Z</time></trkpt>
      <trkpt lat="32.953284" lon="131.123510"><ele>509.8</ele><time>2026-09-22T03:46:05Z</time></trkpt>
      <trkpt lat="32.952874" lon="131.123318"><ele>511.6</ele><time>2026-09-22T03:46:17Z</time></trkpt>
      <trkpt lat="32.952847" lon="131.123216"><ele>511.0</ele><time>2026-09-22T03:46:43Z</time></trkpt>
      <trkpt lat="32.952083" lon="131.122737"><ele>512.4</ele><time>2026-09-22T03:47:09Z</time></trkpt>
      <trkpt lat="32.951765" lon="131.122315"><ele>512.4</ele><time>2026-09-22T03:47:21Z</time></trkpt>
      <trkpt lat="32.950616" lon="131.120113"><ele>511.0</ele><time>2026-09-22T03:48:06Z</time></trkpt>
      <trkpt lat="32.950251" lon="131.119569"><ele>508.6</ele><time>2026-09-22T03:48:14Z</time></trkpt>
      <trkpt lat="32.948841" lon="131.118228"><ele>511.6</ele><time>2026-09-22T03:48:43Z</time></trkpt>
      <trkpt lat="32.948159" lon="131.117905"><ele>514.4</ele><time>2026-09-22T03:49:00Z</time></trkpt>
      <trkpt lat="32.947895" lon="131.117860"><ele>515.4</ele><time>2026-09-22T03:49:11Z</time></trkpt>
      <trkpt lat="32.947960" lon="131.117262"><ele>516.0</ele><time>2026-09-22T03:49:35Z</time></trkpt>
      <trkpt lat="32.946966" lon="131.116669"><ele>518.8</ele><time>2026-09-22T03:50:11Z</time></trkpt>
      <trkpt lat="32.945511" lon="131.116419"><ele>519.2</ele><time>2026-09-22T03:50:49Z</time></trkpt>
      <trkpt lat="32.945565" lon="131.116310"><ele>518.4</ele><time>2026-09-22T03:51:40Z</time></trkpt>
      <trkpt lat="32.945502" lon="131.116164"><ele>517.6</ele><time>2026-09-22T03:51:55Z</time></trkpt>
      <trkpt lat="32.945477" lon="131.116354"><ele>518.4</ele><time>2026-09-22T03:52:05Z</time></trkpt>
      <trkpt lat="32.945413" lon="131.116262"><ele>519.0</ele><time>2026-09-22T03:52:27Z</time></trkpt>
      <trkpt lat="32.945493" lon="131.116317"><ele>519.2</ele><time>2026-09-22T03:52:42Z</time></trkpt>
      <trkpt lat="32.945480" lon="131.116538"><ele>519.2</ele><time>2026-09-22T03:55:51Z</time></trkpt>
      <trkpt lat="32.945538" lon="131.116462"><ele>519.2</ele><time>2026-09-22T03:56:13Z</time></trkpt>
      <trkpt lat="32.945501" lon="131.116334"><ele>519.2</ele><time>2026-09-22T03:56:52Z</time></trkpt>
      <trkpt lat="32.945478" lon="131.116411"><ele>519.2</ele><time>2026-09-22T03:57:50Z</time></trkpt>
      <trkpt lat="32.945178" lon="131.116393"><ele>518.8</ele><time>2026-09-22T03:58:10Z</time></trkpt>
      <trkpt lat="32.943223" lon="131.116176"><ele>524.4</ele><time>2026-09-22T03:59:28Z</time></trkpt>
      <trkpt lat="32.939142" lon="131.115089"><ele>534.4</ele><time>2026-09-22T04:02:08Z</time></trkpt>
      <trkpt lat="32.937937" lon="131.114732"><ele>538.2</ele><time>2026-09-22T04:03:00Z</time></trkpt>
      <trkpt lat="32.937763" lon="131.114602"><ele>538.6</ele><time>2026-09-22T04:03:37Z</time></trkpt>
      <trkpt lat="32.937699" lon="131.114405"><ele>538.8</ele><time>2026-09-22T04:03:42Z</time></trkpt>
      <trkpt lat="32.937774" lon="131.113758"><ele>538.2</ele><time>2026-09-22T04:03:54Z</time></trkpt>
      <trkpt lat="32.938157" lon="131.111834"><ele>536.8</ele><time>2026-09-22T04:04:27Z</time></trkpt>
      <trkpt lat="32.938273" lon="131.110836"><ele>537.8</ele><time>2026-09-22T04:04:43Z</time></trkpt>
      <trkpt lat="32.938065" lon="131.100901"><ele>537.8</ele><time>2026-09-22T04:07:20Z</time></trkpt>
      <trkpt lat="32.937874" lon="131.099416"><ele>536.2</ele><time>2026-09-22T04:07:39Z</time></trkpt>
      <trkpt lat="32.936642" lon="131.093995"><ele>536.8</ele><time>2026-09-22T04:08:49Z</time></trkpt>
      <trkpt lat="32.936409" lon="131.092458"><ele>535.6</ele><time>2026-09-22T04:10:18Z</time></trkpt>
      <trkpt lat="32.936504" lon="131.091307"><ele>533.2</ele><time>2026-09-22T04:10:59Z</time></trkpt>
      <trkpt lat="32.936656" lon="131.090569"><ele>532.6</ele><time>2026-09-22T04:11:09Z</time></trkpt>
      <trkpt lat="32.937804" lon="131.087111"><ele>526.2</ele><time>2026-09-22T04:12:26Z</time></trkpt>
      <trkpt lat="32.937919" lon="131.086559"><ele>526.0</ele><time>2026-09-22T04:12:34Z</time></trkpt>
      <trkpt lat="32.937963" lon="131.085850"><ele>524.6</ele><time>2026-09-22T04:12:47Z</time></trkpt>
      <trkpt lat="32.937900" lon="131.085262"><ele>525.0</ele><time>2026-09-22T04:12:58Z</time></trkpt>
      <trkpt lat="32.937658" lon="131.084559"><ele>526.2</ele><time>2026-09-22T04:13:12Z</time></trkpt>
      <trkpt lat="32.936621" lon="131.082837"><ele>530.8</ele><time>2026-09-22T04:14:17Z</time></trkpt>
      <trkpt lat="32.936407" lon="131.082316"><ele>529.6</ele><time>2026-09-22T04:14:30Z</time></trkpt>
      <trkpt lat="32.936075" lon="131.080749"><ele>526.8</ele><time>2026-09-22T04:14:58Z</time></trkpt>
      <trkpt lat="32.935871" lon="131.080248"><ele>527.6</ele><time>2026-09-22T04:15:24Z</time></trkpt>
      <trkpt lat="32.935857" lon="131.079942"><ele>528.2</ele><time>2026-09-22T04:15:32Z</time></trkpt>
      <trkpt lat="32.935630" lon="131.079601"><ele>529.0</ele><time>2026-09-22T04:15:54Z</time></trkpt>
      <trkpt lat="32.935695" lon="131.079599"><ele>528.6</ele><time>2026-09-22T04:16:09Z</time></trkpt>
      <trkpt lat="32.935584" lon="131.079716"><ele>530.2</ele><time>2026-09-22T04:16:41Z</time></trkpt>
      <trkpt lat="32.935979" lon="131.079878"><ele>529.2</ele><time>2026-09-22T04:19:36Z</time></trkpt>
      <trkpt lat="32.935595" lon="131.079630"><ele>529.2</ele><time>2026-09-22T04:19:40Z</time></trkpt>
      <trkpt lat="32.935618" lon="131.079705"><ele>529.2</ele><time>2026-09-22T04:19:50Z</time></trkpt>
      <trkpt lat="32.935492" lon="131.079702"><ele>529.2</ele><time>2026-09-22T04:20:29Z</time></trkpt>
      <trkpt lat="32.935630" lon="131.079738"><ele>529.2</ele><time>2026-09-22T04:29:11Z</time></trkpt>
      <trkpt lat="32.935671" lon="131.079592"><ele>528.0</ele><time>2026-09-22T04:34:46Z</time></trkpt>
      <trkpt lat="32.935589" lon="131.079575"><ele>528.0</ele><time>2026-09-22T04:35:35Z</time></trkpt>
      <trkpt lat="32.935859" lon="131.079939"><ele>526.6</ele><time>2026-09-22T04:36:45Z</time></trkpt>
      <trkpt lat="32.935879" lon="131.080227"><ele>526.8</ele><time>2026-09-22T04:36:52Z</time></trkpt>
      <trkpt lat="32.935712" lon="131.080325"><ele>526.6</ele><time>2026-09-22T04:36:58Z</time></trkpt>
      <trkpt lat="32.933895" lon="131.080007"><ele>531.4</ele><time>2026-09-22T04:38:01Z</time></trkpt>
      <trkpt lat="32.931503" lon="131.079754"><ele>536.8</ele><time>2026-09-22T04:39:23Z</time></trkpt>
      <trkpt lat="32.930621" lon="131.079442"><ele>543.8</ele><time>2026-09-22T04:40:17Z</time></trkpt>
      <trkpt lat="32.929912" lon="131.078761"><ele>549.8</ele><time>2026-09-22T04:41:18Z</time></trkpt>
      <trkpt lat="32.929746" lon="131.078707"><ele>551.0</ele><time>2026-09-22T04:41:28Z</time></trkpt>
      <trkpt lat="32.929448" lon="131.078785"><ele>553.0</ele><time>2026-09-22T04:41:48Z</time></trkpt>
      <trkpt lat="32.928977" lon="131.079252"><ele>558.6</ele><time>2026-09-22T04:42:28Z</time></trkpt>
      <trkpt lat="32.928692" lon="131.079389"><ele>560.4</ele><time>2026-09-22T04:42:47Z</time></trkpt>
      <trkpt lat="32.928220" lon="131.079359"><ele>563.6</ele><time>2026-09-22T04:43:17Z</time></trkpt>
      <trkpt lat="32.927977" lon="131.079166"><ele>565.4</ele><time>2026-09-22T04:43:37Z</time></trkpt>
      <trkpt lat="32.927873" lon="131.078972"><ele>566.2</ele><time>2026-09-22T04:43:49Z</time></trkpt>
      <trkpt lat="32.927884" lon="131.078820"><ele>567.2</ele><time>2026-09-22T04:43:58Z</time></trkpt>
      <trkpt lat="32.928366" lon="131.077831"><ele>572.4</ele><time>2026-09-22T04:45:01Z</time></trkpt>
      <trkpt lat="32.928431" lon="131.077566"><ele>574.4</ele><time>2026-09-22T04:45:20Z</time></trkpt>
      <trkpt lat="32.928357" lon="131.077587"><ele>574.0</ele><time>2026-09-22T04:45:51Z</time></trkpt>
      <trkpt lat="32.928420" lon="131.077556"><ele>574.6</ele><time>2026-09-22T04:46:16Z</time></trkpt>
      <trkpt lat="32.928398" lon="131.077331"><ele>575.6</ele><time>2026-09-22T04:46:25Z</time></trkpt>
      <trkpt lat="32.928171" lon="131.076671"><ele>578.8</ele><time>2026-09-22T04:46:58Z</time></trkpt>
      <trkpt lat="32.927196" lon="131.075440"><ele>583.8</ele><time>2026-09-22T04:48:05Z</time></trkpt>
      <trkpt lat="32.926788" lon="131.074720"><ele>586.8</ele><time>2026-09-22T04:48:41Z</time></trkpt>
      <trkpt lat="32.926966" lon="131.074060"><ele>590.6</ele><time>2026-09-22T04:49:14Z</time></trkpt>
      <trkpt lat="32.927428" lon="131.072998"><ele>596.6</ele><time>2026-09-22T04:50:00Z</time></trkpt>
      <trkpt lat="32.927458" lon="131.072448"><ele>599.2</ele><time>2026-09-22T04:50:23Z</time></trkpt>
      <trkpt lat="32.927395" lon="131.072075"><ele>601.2</ele><time>2026-09-22T04:50:38Z</time></trkpt>
      <trkpt lat="32.926912" lon="131.070918"><ele>608.6</ele><time>2026-09-22T04:51:35Z</time></trkpt>
      <trkpt lat="32.926764" lon="131.070716"><ele>608.8</ele><time>2026-09-22T04:52:00Z</time></trkpt>
      <trkpt lat="32.926807" lon="131.070647"><ele>610.4</ele><time>2026-09-22T04:52:42Z</time></trkpt>
      <trkpt lat="32.926633" lon="131.070291"><ele>612.2</ele><time>2026-09-22T04:53:04Z</time></trkpt>
      <trkpt lat="32.926274" lon="131.069094"><ele>619.4</ele><time>2026-09-22T04:54:03Z</time></trkpt>
      <trkpt lat="32.925807" lon="131.068039"><ele>626.0</ele><time>2026-09-22T04:55:02Z</time></trkpt>
      <trkpt lat="32.925932" lon="131.067497"><ele>628.0</ele><time>2026-09-22T04:55:29Z</time></trkpt>
      <trkpt lat="32.926181" lon="131.066915"><ele>631.0</ele><time>2026-09-22T04:55:57Z</time></trkpt>
      <trkpt lat="32.926108" lon="131.065650"><ele>637.4</ele><time>2026-09-22T04:57:01Z</time></trkpt>
      <trkpt lat="32.925982" lon="131.064851"><ele>642.0</ele><time>2026-09-22T04:57:42Z</time></trkpt>
      <trkpt lat="32.925282" lon="131.064003"><ele>649.2</ele><time>2026-09-22T04:58:36Z</time></trkpt>
      <trkpt lat="32.924649" lon="131.063700"><ele>653.4</ele><time>2026-09-22T04:59:15Z</time></trkpt>
      <trkpt lat="32.924535" lon="131.063483"><ele>654.4</ele><time>2026-09-22T04:59:27Z</time></trkpt>
      <trkpt lat="32.924373" lon="131.062504"><ele>659.0</ele><time>2026-09-22T05:00:11Z</time></trkpt>
      <trkpt lat="32.924178" lon="131.062285"><ele>661.4</ele><time>2026-09-22T05:00:27Z</time></trkpt>
      <trkpt lat="32.923965" lon="131.062248"><ele>662.6</ele><time>2026-09-22T05:00:38Z</time></trkpt>
      <trkpt lat="32.923763" lon="131.062336"><ele>664.0</ele><time>2026-09-22T05:00:51Z</time></trkpt>
      <trkpt lat="32.923434" lon="131.062936"><ele>666.8</ele><time>2026-09-22T05:01:22Z</time></trkpt>
      <trkpt lat="32.923356" lon="131.063288"><ele>667.6</ele><time>2026-09-22T05:01:39Z</time></trkpt>
      <trkpt lat="32.923498" lon="131.064353"><ele>668.8</ele><time>2026-09-22T05:02:10Z</time></trkpt>
      <trkpt lat="32.923975" lon="131.065552"><ele>672.6</ele><time>2026-09-22T05:02:49Z</time></trkpt>
      <trkpt lat="32.923989" lon="131.066104"><ele>674.2</ele><time>2026-09-22T05:03:08Z</time></trkpt>
      <trkpt lat="32.923112" lon="131.067503"><ele>678.6</ele><time>2026-09-22T05:04:08Z</time></trkpt>
      <trkpt lat="32.922496" lon="131.069142"><ele>683.4</ele><time>2026-09-22T05:05:11Z</time></trkpt>
      <trkpt lat="32.921809" lon="131.069893"><ele>685.8</ele><time>2026-09-22T05:05:48Z</time></trkpt>
      <trkpt lat="32.921716" lon="131.070565"><ele>688.2</ele><time>2026-09-22T05:06:21Z</time></trkpt>
      <trkpt lat="32.921618" lon="131.070583"><ele>688.2</ele><time>2026-09-22T05:07:47Z</time></trkpt>
      <trkpt lat="32.921678" lon="131.070610"><ele>688.2</ele><time>2026-09-22T05:08:13Z</time></trkpt>
      <trkpt lat="32.921613" lon="131.070657"><ele>688.2</ele><time>2026-09-22T05:08:29Z</time></trkpt>
      <trkpt lat="32.921691" lon="131.070653"><ele>688.2</ele><time>2026-09-22T05:08:44Z</time></trkpt>
      <trkpt lat="32.921688" lon="131.070544"><ele>688.2</ele><time>2026-09-22T05:09:04Z</time></trkpt>
      <trkpt lat="32.921600" lon="131.070519"><ele>688.2</ele><time>2026-09-22T05:10:04Z</time></trkpt>
      <trkpt lat="32.921712" lon="131.070553"><ele>688.2</ele><time>2026-09-22T05:11:09Z</time></trkpt>
      <trkpt lat="32.921645" lon="131.071344"><ele>690.6</ele><time>2026-09-22T05:11:46Z</time></trkpt>
      <trkpt lat="32.921447" lon="131.071966"><ele>693.0</ele><time>2026-09-22T05:12:14Z</time></trkpt>
      <trkpt lat="32.921028" lon="131.072340"><ele>695.2</ele><time>2026-09-22T05:12:37Z</time></trkpt>
      <trkpt lat="32.919931" lon="131.072458"><ele>700.0</ele><time>2026-09-22T05:13:26Z</time></trkpt>
      <trkpt lat="32.918926" lon="131.072976"><ele>705.0</ele><time>2026-09-22T05:14:15Z</time></trkpt>
      <trkpt lat="32.919024" lon="131.073080"><ele>704.8</ele><time>2026-09-22T05:14:38Z</time></trkpt>
      <trkpt lat="32.919020" lon="131.073234"><ele>703.4</ele><time>2026-09-22T05:15:11Z</time></trkpt>
      <trkpt lat="32.919065" lon="131.073122"><ele>704.8</ele><time>2026-09-22T05:15:44Z</time></trkpt>
      <trkpt lat="32.919798" lon="131.072817"><ele>699.6</ele><time>2026-09-22T05:16:02Z</time></trkpt>
      <trkpt lat="32.920394" lon="131.073721"><ele>688.2</ele><time>2026-09-22T05:16:17Z</time></trkpt>
      <trkpt lat="32.920775" lon="131.074027"><ele>686.4</ele><time>2026-09-22T05:17:04Z</time></trkpt>
      <trkpt lat="32.920628" lon="131.073831"><ele>685.6</ele><time>2026-09-22T05:17:30Z</time></trkpt>
      <trkpt lat="32.920668" lon="131.073864"><ele>685.4</ele><time>2026-09-22T05:17:34Z</time></trkpt>
    </trkseg>
  </trk>
</gpx>
