<?xml version="1.0" encoding="UTF-8"?>
<gpx version="1.1" creator="gpx2reel" xmlns="http://www.topografix.com/GPX/1/1">
  <trk><name>Day 5</name>
    <trkseg>
      <trkpt lat="32.384869" lon="131.627872"><ele>10.6</ele><time>2026-09-25T00:32:15Z</time></trkpt>
      <trkpt lat="32.384941" lon="131.627569"><ele>10.8</ele><time>2026-09-25T00:32:29Z</time></trkpt>
      <trkpt lat="32.384546" lon="131.627521"><ele>11.2</ele><time>2026-09-25T00:32:42Z</time></trkpt>
      <trkpt lat="32.381012" lon="131.627665"><ele>11.2</ele><time>2026-09-25T00:34:02Z</time></trkpt>
      <trkpt lat="32.379783" lon="131.627791"><ele>11.8</ele><time>2026-09-25T00:34:34Z</time></trkpt>
      <trkpt lat="32.378436" lon="131.627684"><ele>16.4</ele><time>2026-09-25T00:35:25Z</time></trkpt>
      <trkpt lat="32.377976" lon="131.627745"><ele>19.8</ele><time>2026-09-25T00:35:53Z</time></trkpt>
      <trkpt lat="32.377520" lon="131.627982"><ele>23.0</ele><time>2026-09-25T00:36:22Z</time></trkpt>
      <trkpt lat="32.377193" lon="131.628328"><ele>24.4</ele><time>2026-09-25T00:36:42Z</time></trkpt>
      <trkpt lat="32.376356" lon="131.629493"><ele>24.8</ele><time>2026-09-25T00:37:20Z</time></trkpt>
      <trkpt lat="32.375626" lon="131.630023"><ele>24.2</ele><time>2026-09-25T00:37:36Z</time></trkpt>
      <trkpt lat="32.373707" lon="131.630821"><ele>26.2</ele><time>2026-09-25T00:38:08Z</time></trkpt>
      <trkpt lat="32.373314" lon="131.630875"><ele>27.6</ele><time>2026-09-25T00:38:14Z</time></trkpt>
      <trkpt lat="32.372579" lon="131.630811"><ele>28.8</ele><time>2026-09-25T00:38:26Z</time></trkpt>
      <trkpt lat="32.371916" lon="131.630553"><ele>28.2</ele><time>2026-09-25T00:38:36Z</time></trkpt>
      <trkpt lat="32.371398" lon="131.630195"><ele>27.4</ele><time>2026-09-25T00:38:44Z</time></trkpt>
      <trkpt lat="32.367693" lon="131.627370"><ele>20.8</ele><time>2026-09-25T00:39:40Z</time></trkpt>
      <trkpt lat="32.366859" lon="131.626502"><ele>19.0</ele><time>2026-09-25T00:39:54Z</time></trkpt>
      <trkpt lat="32.365101" lon="131.623963"><ele>14.8</ele><time>2026-09-25T00:40:30Z</time></trkpt>
      <trkpt lat="32.364442" lon="131.623471"><ele>13.6</ele><time>2026-09-25T00:40:42Z</time></trkpt>
      <trkpt lat="32.362170" lon="131.622890"><ele>12.2</ele><time>2026-09-25T00:41:13Z</time></trkpt>
      <trkpt lat="32.360197" lon="131.621963"><ele>13.8</ele><time>2026-09-25T00:41:43Z</time></trkpt>
      <trkpt lat="32.358539" lon="131.621877"><ele>16.4</ele><time>2026-09-25T00:42:20Z</time></trkpt>
      <trkpt lat="32.357189" lon="131.621252"><ele>13.8</ele><time>2026-09-25T00:42:41Z</time></trkpt>
      <trkpt lat="32.356758" lon="131.621150"><ele>13.6</ele><time>2026-09-25T00:42:47Z</time></trkpt>
      <trkpt lat="32.354463" lon="131.621126"><ele>16.8</ele><time>2026-09-25T00:43:33Z</time></trkpt>
      <trkpt lat="32.353757" lon="131.621560"><ele>20.4</ele><time>2026-09-25T00:43:56Z</time></trkpt>
      <trkpt lat="32.352677" lon="131.622996"><ele>31.2</ele><time>2026-09-25T00:45:15Z</time></trkpt>
      <trkpt lat="32.352372" lon="131.623160"><ele>33.4</ele><time>2026-09-25T00:45:37Z</time></trkpt>
      <trkpt lat="32.351650" lon="131.623327"><ele>34.8</ele><time>2026-09-25T00:46:11Z</time></trkpt>
      <trkpt lat="32.348088" lon="131.622593"><ele>29.8</ele><time>2026-09-25T00:47:17Z</time></trkpt>
      <trkpt lat="32.347546" lon="131.622603"><ele>31.8</ele><time>2026-09-25T00:47:34Z</time></trkpt>
      <trkpt lat="32.347085" lon="131.622797"><ele>33.4</ele><time>2026-09-25T00:47:52Z</time></trkpt>
      <trkpt lat="32.345214" lon="131.624434"><ele>37.0</ele><time>2026-09-25T00:48:41Z</time></trkpt>
      <trkpt lat="32.344724" lon="131.624539"><ele>38.6</ele><time>2026-09-25T00:48:56Z</time></trkpt>
      <trkpt lat="32.344074" lon="131.624433"><ele>38.2</ele><time>2026-09-25T00:49:11Z</time></trkpt>
      <trkpt lat="32.343699" lon="131.624189"><ele>37.0</ele><time>2026-09-25T00:49:18Z</time></trkpt>
      <trkpt lat="32.343298" lon="131.623542"><ele>35.0</ele><time>2026-09-25T00:49:27Z</time></trkpt>
      <trkpt lat="32.342551" lon="131.621630"><ele>30.0</ele><time>2026-09-25T00:49:45Z</time></trkpt>
      <trkpt lat="32.341262" lon="131.618510"><ele>36.0</ele><time>2026-09-25T00:50:36Z</time></trkpt>
      <trkpt lat="32.341177" lon="131.618122"><ele>35.0</ele><time>2026-09-25T00:50:41Z</time></trkpt>
      <trkpt lat="32.341237" lon="131.617491"><ele>31.4</ele><time>2026-09-25T00:50:47Z</time></trkpt>
      <trkpt lat="32.341799" lon="131.614893"><ele>24.8</ele><time>2026-09-25T00:51:07Z</time></trkpt>
      <trkpt lat="32.341841" lon="131.614285"><ele>23.8</ele><time>2026-09-25T00:51:12Z</time></trkpt>
      <trkpt lat="32.341703" lon="131.613591"><ele>24.0</ele><time>2026-09-25T00:51:18Z</time></trkpt>
      <trkpt lat="32.341310" lon="131.612968"><ele>22.4</ele><time>2026-09-25T00:51:25Z</time></trkpt>
      <trkpt lat="32.340782" lon="131.612598"><ele>20.8</ele><time>2026-09-25T00:51:31Z</time></trkpt>
      <trkpt lat="32.338398" lon="131.611413"><ele>17.0</ele><time>2026-09-25T00:51:58Z</time></trkpt>
      <trkpt lat="32.338306" lon="131.611431"><ele>16.2</ele><time>2026-09-25T00:52:00Z</time></trkpt>
      <trkpt lat="32.338010" lon="131.611835"><ele>15.2</ele><time>2026-09-25T00:52:08Z</time></trkpt>
      <trkpt lat="32.337327" lon="131.612241"><ele>10.6</ele><time>2026-09-25T00:52:19Z</time></trkpt>
      <trkpt lat="32.333991" lon="131.610599"><ele>8.6</ele><time>2026-09-25T00:53:18Z</time></trkpt>
      <trkpt lat="32.333467" lon="131.610455"><ele>9.0</ele><time>2026-09-25T00:53:27Z</time></trkpt>
      <trkpt lat="32.333270" lon="131.610521"><ele>9.0</ele><time>2026-09-25T00:53:30Z</time></trkpt>
      <trkpt lat="32.333079" lon="131.610465"><ele>8.6</ele><time>2026-09-25T00:53:33Z</time></trkpt>
      <trkpt lat="32.331379" lon="131.609222"><ele>8.6</ele><time>2026-09-25T00:54:04Z</time></trkpt>
      <trkpt lat="32.330886" lon="131.608408"><ele>8.2</ele><time>2026-09-25T00:54:19Z</time></trkpt>
      <trkpt lat="32.330711" lon="131.607556"><ele>7.4</ele><time>2026-09-25T00:54:32Z</time></trkpt>
      <trkpt lat="32.330718" lon="131.607190"><ele>6.6</ele><time>2026-09-25T00:54:37Z</time></trkpt>
      <trkpt lat="32.330962" lon="131.604025"><ele>12.6</ele><time>2026-09-25T00:56:01Z</time></trkpt>
      <trkpt lat="32.330315" lon="131.603663"><ele>12.2</ele><time>2026-09-25T00:56:30Z</time></trkpt>
      <trkpt lat="32.329887" lon="131.603833"><ele>11.8</ele><time>2026-09-25T00:56:40Z</time></trkpt>
      <trkpt lat="32.329033" lon="131.604450"><ele>10.8</ele><time>2026-09-25T00:57:02Z</time></trkpt>
      <trkpt lat="32.328617" lon="131.605070"><ele>9.6</ele><time>2026-09-25T00:57:14Z</time></trkpt>
      <trkpt lat="32.328426" lon="131.605227"><ele>8.6</ele><time>2026-09-25T00:57:17Z</time></trkpt>
      <trkpt lat="32.327884" lon="131.605514"><ele>8.2</ele><time>2026-09-25T00:57:25Z</time></trkpt>
      <trkpt lat="32.327744" lon="131.605457"><ele>8.4</ele><time>2026-09-25T00:57:27Z</time></trkpt>
      <trkpt lat="32.327027" lon="131.604617"><ele>8.8</ele><time>2026-09-25T00:57:45Z</time></trkpt>
      <trkpt lat="32.325208" lon="131.603336"><ele>8.0</ele><time>2026-09-25T00:58:19Z</time></trkpt>
      <trkpt lat="32.323279" lon="131.601658"><ele>8.0</ele><time>2026-09-25T00:58:59Z</time></trkpt>
      <trkpt lat="32.320887" lon="131.599835"><ele>8.2</ele><time>2026-09-25T00:59:52Z</time></trkpt>
      <trkpt lat="32.318053" lon="131.598003"><ele>7.4</ele><time>2026-09-25T01:00:49Z</time></trkpt>
      <trkpt lat="32.311652" lon="131.594665"><ele>7.4</ele><time>2026-09-25T01:02:50Z</time></trkpt>
      <trkpt lat="32.311624" lon="131.594522"><ele>7.4</ele><time>2026-09-25T01:02:52Z</time></trkpt>
      <trkpt lat="32.311963" lon="131.592988"><ele>8.0</ele><time>2026-09-25T01:03:14Z</time></trkpt>
      <trkpt lat="32.311963" lon="131.592725"><ele>8.4</ele><time>2026-09-25T01:03:18Z</time></trkpt>
      <trkpt lat="32.308769" lon="131.591307"><ele>9.4</ele><time>2026-09-25T01:04:34Z</time></trkpt>
      <trkpt lat="32.308735" lon="131.591211"><ele>9.6</ele><time>2026-09-25T01:04:39Z</time></trkpt>
      <trkpt lat="32.308814" lon="131.590999"><ele>9.6</ele><time>2026-09-25T01:04:49Z</time></trkpt>
      <trkpt lat="32.308746" lon="131.591130"><ele>11.4</ele><time>2026-09-25T01:05:06Z</time></trkpt>
      <trkpt lat="32.308889" lon="131.590594"><ele>9.4</ele><time>2026-09-25T01:05:36Z</time></trkpt>
      <trkpt lat="32.308812" lon="131.590213"><ele>9.4</ele><time>2026-09-25T01:05:43Z</time></trkpt>
      <trkpt lat="32.308570" lon="131.589850"><ele>9.6</ele><time>2026-09-25T01:05:50Z</time></trkpt>
      <trkpt lat="32.307854" lon="131.589404"><ele>10.0</ele><time>2026-09-25T01:06:05Z</time></trkpt>
      <trkpt lat="32.307832" lon="131.589045"><ele>11.4</ele><time>2026-09-25T01:06:11Z</time></trkpt>
      <trkpt lat="32.308017" lon="131.588386"><ele>14.0</ele><time>2026-09-25T01:06:28Z</time></trkpt>
      <trkpt lat="32.307936" lon="131.588079"><ele>15.2</ele><time>2026-09-25T01:06:38Z</time></trkpt>
      <trkpt lat="32.307422" lon="131.588072"><ele>15.6</ele><time>2026-09-25T01:06:52Z</time></trkpt>
      <trkpt lat="32.306917" lon="131.587896"><ele>14.8</ele><time>2026-09-25T01:07:03Z</time></trkpt>
      <trkpt lat="32.302647" lon="131.585702"><ele>10.2</ele><time>2026-09-25T01:08:09Z</time></trkpt>
      <trkpt lat="32.302304" lon="131.585714"><ele>12.2</ele><time>2026-09-25T01:08:16Z</time></trkpt>
      <trkpt lat="32.301721" lon="131.586299"><ele>14.6</ele><time>2026-09-25T01:08:38Z</time></trkpt>
      <trkpt lat="32.301354" lon="131.586330"><ele>12.6</ele><time>2026-09-25T01:08:44Z</time></trkpt>
      <trkpt lat="32.297314" lon="131.584493"><ele>10.2</ele><time>2026-09-25T01:09:41Z</time></trkpt>
      <trkpt lat="32.295899" lon="131.583726"><ele>9.0</ele><time>2026-09-25T01:10:03Z</time></trkpt>
      <trkpt lat="32.294258" lon="131.582952"><ele>12.6</ele><time>2026-09-25T01:10:32Z</time></trkpt>
      <trkpt lat="32.292408" lon="131.582182"><ele>10.8</ele><time>2026-09-25T01:10:59Z</time></trkpt>
      <trkpt lat="32.289961" lon="131.581393"><ele>10.6</ele><time>2026-09-25T01:11:35Z</time></trkpt>
      <trkpt lat="32.288656" lon="131.580869"><ele>11.2</ele><time>2026-09-25T01:11:54Z</time></trkpt>
      <trkpt lat="32.284899" lon="131.579143"><ele>10.6</ele><time>2026-09-25T01:12:51Z</time></trkpt>
      <trkpt lat="32.283093" lon="131.578398"><ele>11.6</ele><time>2026-09-25T01:13:22Z</time></trkpt>
      <trkpt lat="32.281437" lon="131.577541"><ele>9.8</ele><time>2026-09-25T01:13:47Z</time></trkpt>
      <trkpt lat="32.280990" lon="131.577141"><ele>9.2</ele><time>2026-09-25T01:13:55Z</time></trkpt>
      <trkpt lat="32.279991" lon="131.576002"><ele>11.6</ele><time>2026-09-25T01:14:22Z</time></trkpt>
      <trkpt lat="32.279506" lon="131.575640"><ele>13.0</ele><time>2026-09-25T01:14:39Z</time></trkpt>
      <trkpt lat="32.278938" lon="131.575553"><ele>14.0</ele><time>2026-09-25T01:14:56Z</time></trkpt>
      <trkpt lat="32.277410" lon="131.575981"><ele>12.8</ele><time>2026-09-25T01:15:27Z</time></trkpt>
      <trkpt lat="32.276612" lon="131.575956"><ele>9.2</ele><time>2026-09-25T01:15:40Z</time></trkpt>
      <trkpt lat="32.270959" lon="131.573880"><ele>7.6</ele><time>2026-09-25T01:17:08Z</time></trkpt>
      <trkpt lat="32.270443" lon="131.573671"><ele>9.4</ele><time>2026-09-25T01:17:17Z</time></trkpt>
      <trkpt lat="32.270442" lon="131.573550"><ele>9.6</ele><time>2026-09-25T01:18:56Z</time></trkpt>
      <trkpt lat="32.270389" lon="131.573690"><ele>10.0</ele><time>2026-09-25T01:23:09Z</time></trkpt>
      <trkpt lat="32.270451" lon="131.573575"><ele>10.0</ele><time>2026-09-25T01:23:26Z</time></trkpt>
      <trkpt lat="32.269787" lon="131.573483"><ele>9.4</ele><time>2026-09-25T01:23:43Z</time></trkpt>
      <trkpt lat="32.268046" lon="131.572915"><ele>11.2</ele><time>2026-09-25T01:24:14Z</time></trkpt>
      <trkpt lat="32.266034" lon="131.572645"><ele>10.2</ele><time>2026-09-25T01:24:46Z</time></trkpt>
      <trkpt lat="32.265692" lon="131.572696"><ele>10.6</ele><time>2026-09-25T01:24:52Z</time></trkpt>
      <trkpt lat="32.264564" lon="131.573255"><ele>11.8</ele><time>2026-09-25T01:25:14Z</time></trkpt>
      <trkpt lat="32.263735" lon="131.573320"><ele>12.6</ele><time>2026-09-25T01:25:29Z</time></trkpt>
      <trkpt lat="32.260942" lon="131.572544"><ele>12.2</ele><time>2026-09-25T01:26:13Z</time></trkpt>
      <trkpt lat="32.260059" lon="131.572006"><ele>12.8</ele><time>2026-09-25T01:26:26Z</time></trkpt>
      <trkpt lat="32.254678" lon="131.568276"><ele>18.4</ele><time>2026-09-25T01:28:17Z</time></trkpt>
      <trkpt lat="32.254148" lon="131.567982"><ele>18.4</ele><time>2026-09-25T01:28:30Z</time></trkpt>
      <trkpt lat="32.250539" lon="131.567425"><ele>21.2</ele><time>2026-09-25T01:29:45Z</time></trkpt>
      <trkpt lat="32.246863" lon="131.567668"><ele>19.4</ele><time>2026-09-25T01:30:43Z</time></trkpt>
      <trkpt lat="32.245672" lon="131.567939"><ele>19.0</ele><time>2026-09-25T01:31:00Z</time></trkpt>
      <trkpt lat="32.241275" lon="131.569206"><ele>16.0</ele><time>2026-09-25T01:32:05Z</time></trkpt>
      <trkpt lat="32.234844" lon="131.570220"><ele>14.4</ele><time>2026-09-25T01:33:42Z</time></trkpt>
      <trkpt lat="32.233998" lon="131.570145"><ele>14.0</ele><time>2026-09-25T01:33:58Z</time></trkpt>
      <trkpt lat="32.233201" lon="131.569693"><ele>13.0</ele><time>2026-09-25T01:34:10Z</time></trkpt>
      <trkpt lat="32.229080" lon="131.566942"><ele>10.6</ele><time>2026-09-25T01:35:15Z</time></trkpt>
      <trkpt lat="32.223405" lon="131.565218"><ele>13.2</ele><time>2026-09-25T01:36:39Z</time></trkpt>
      <trkpt lat="32.218551" lon="131.562808"><ele>14.8</ele><time>2026-09-25T01:38:04Z</time></trkpt>
      <trkpt lat="32.216124" lon="131.561814"><ele>14.0</ele><time>2026-09-25T01:38:50Z</time></trkpt>
      <trkpt lat="32.213571" lon="131.560584"><ele>13.2</ele><time>2026-09-25T01:39:56Z</time></trkpt>
      <trkpt lat="32.209614" lon="131.558885"><ele>13.6</ele><time>2026-09-25T01:41:18Z</time></trkpt>
      <trkpt lat="32.204660" lon="131.556907"><ele>15.0</ele><time>2026-09-25T01:42:53Z</time></trkpt>
      <trkpt lat="32.203970" lon="131.556364"><ele>16.4</ele><time>2026-09-25T01:43:23Z</time></trkpt>
      <trkpt lat="32.204027" lon="131.556376"><ele>16.4</ele><time>2026-09-25T01:43:41Z</time></trkpt>
      <trkpt lat="32.203705" lon="131.555998"><ele>16.8</ele><time>2026-09-25T01:43:58Z</time></trkpt>
      <trkpt lat="32.203523" lon="131.555688"><ele>17.0</ele><time>2026-09-25T01:44:05Z</time></trkpt>
      <trkpt lat="32.203002" lon="131.554181"><ele>18.8</ele><time>2026-09-25T01:44:38Z</time></trkpt>
      <trkpt lat="32.202874" lon="131.554166"><ele>19.0</ele><time>2026-09-25T01:44:41Z</time></trkpt>
      <trkpt lat="32.200503" lon="131.554958"><ele>13.0</ele><time>2026-09-25T01:45:19Z</time></trkpt>
      <trkpt lat="32.200179" lon="131.554956"><ele>12.4</ele><time>2026-09-25T01:45:23Z</time></trkpt>
      <trkpt lat="32.198634" lon="131.554111"><ele>10.6</ele><time>2026-09-25T01:45:46Z</time></trkpt>
      <trkpt lat="32.196871" lon="131.553349"><ele>10.0</ele><time>2026-09-25T01:46:11Z</time></trkpt>
      <trkpt lat="32.196578" lon="131.553340"><ele>10.4</ele><time>2026-09-25T01:46:16Z</time></trkpt>
      <trkpt lat="32.195579" lon="131.553655"><ele>11.4</ele><time>2026-09-25T01:46:34Z</time></trkpt>
      <trkpt lat="32.194175" lon="131.553615"><ele>12.4</ele><time>2026-09-25T01:47:03Z</time></trkpt>
      <trkpt lat="32.193357" lon="131.553391"><ele>12.8</ele><time>2026-09-25T01:47:21Z</time></trkpt>
      <trkpt lat="32.192954" lon="131.553128"><ele>12.6</ele><time>2026-09-25T01:47:30Z</time></trkpt>
      <trkpt lat="32.192256" lon="131.552871"><ele>13.0</ele><time>2026-09-25T01:47:43Z</time></trkpt>
      <trkpt lat="32.190847" lon="131.552631"><ele>12.8</ele><time>2026-09-25T01:48:09Z</time></trkpt>
      <trkpt lat="32.186578" lon="131.551498"><ele>14.2</ele><time>2026-09-25T01:49:37Z</time></trkpt>
      <trkpt lat="32.179726" lon="131.551156"><ele>14.4</ele><time>2026-09-25T01:51:41Z</time></trkpt>
      <trkpt lat="32.177369" lon="131.550743"><ele>13.8</ele><time>2026-09-25T01:52:22Z</time></trkpt>
      <trkpt lat="32.176055" lon="131.550252"><ele>11.0</ele><time>2026-09-25T01:52:44Z</time></trkpt>
      <trkpt lat="32.174549" lon="131.549618"><ele>12.8</ele><time>2026-09-25T01:53:10Z</time></trkpt>
      <trkpt lat="32.173929" lon="131.549266"><ele>13.6</ele><time>2026-09-25T01:53:31Z</time></trkpt>
      <trkpt lat="32.172518" lon="131.548256"><ele>15.8</ele><time>2026-09-25T01:54:10Z</time></trkpt>
      <trkpt lat="32.170333" lon="131.546480"><ele>25.4</ele><time>2026-09-25T01:55:41Z</time></trkpt>
      <trkpt lat="32.170019" lon="131.546041"><ele>27.8</ele><time>2026-09-25T01:56:08Z</time></trkpt>
      <trkpt lat="32.169942" lon="131.545435"><ele>28.6</ele><time>2026-09-25T01:57:32Z</time></trkpt>
      <trkpt lat="32.169958" lon="131.544773"><ele>34.2</ele><time>2026-09-25T01:58:03Z</time></trkpt>
      <trkpt lat="32.170294" lon="131.544432"><ele>39.4</ele><time>2026-09-25T01:58:27Z</time></trkpt>
      <trkpt lat="32.170448" lon="131.544063"><ele>42.8</ele><time>2026-09-25T01:58:51Z</time></trkpt>
      <trkpt lat="32.170701" lon="131.543198"><ele>49.8</ele><time>2026-09-25T01:59:50Z</time></trkpt>
      <trkpt lat="32.170804" lon="131.542554"><ele>54.6</ele><time>2026-09-25T02:00:36Z</time></trkpt>
      <trkpt lat="32.170518" lon="131.539168"><ele>56.8</ele><time>2026-09-25T02:02:28Z</time></trkpt>
      <trkpt lat="32.170229" lon="131.537799"><ele>57.8</ele><time>2026-09-25T02:02:59Z</time></trkpt>
      <trkpt lat="32.169659" lon="131.535859"><ele>60.6</ele><time>2026-09-25T02:03:50Z</time></trkpt>
      <trkpt lat="32.169649" lon="131.535253"><ele>61.4</ele><time>2026-09-25T02:04:06Z</time></trkpt>
      <trkpt lat="32.169805" lon="131.534363"><ele>61.0</ele><time>2026-09-25T02:04:26Z</time></trkpt>
      <trkpt lat="32.169777" lon="131.534239"><ele>61.0</ele><time>2026-09-25T02:04:30Z</time></trkpt>
      <trkpt lat="32.169595" lon="131.534189"><ele>61.6</ele><time>2026-09-25T02:05:00Z</time></trkpt>
      <trkpt lat="32.169646" lon="131.534029"><ele>61.2</ele><time>2026-09-25T02:06:40Z</time></trkpt>
      <trkpt lat="32.169620" lon="131.534167"><ele>61.2</ele><time>2026-09-25T02:08:21Z</time></trkpt>
      <trkpt lat="32.169597" lon="131.534018"><ele>61.2</ele><time>2026-09-25T02:09:15Z</time></trkpt>
      <trkpt lat="32.169686" lon="131.534092"><ele>61.4</ele><time>2026-09-25T02:09:34Z</time></trkpt>
      <trkpt lat="32.167720" lon="131.533868"><ele>58.2</ele><time>2026-09-25T02:10:11Z</time></trkpt>
      <trkpt lat="32.164415" lon="131.532162"><ele>60.4</ele><time>2026-09-25T02:11:16Z</time></trkpt>
      <trkpt lat="32.163203" lon="131.530616"><ele>62.4</ele><time>2026-09-25T02:11:49Z</time></trkpt>
      <trkpt lat="32.162541" lon="131.530128"><ele>63.2</ele><time>2026-09-25T02:12:05Z</time></trkpt>
      <trkpt lat="32.160951" lon="131.529765"><ele>63.8</ele><time>2026-09-25T02:12:44Z</time></trkpt>
      <trkpt lat="32.158654" lon="131.529098"><ele>62.8</ele><time>2026-09-25T02:13:32Z</time></trkpt>
      <trkpt lat="32.155401" lon="131.527637"><ele>58.4</ele><time>2026-09-25T02:14:41Z</time></trkpt>
      <trkpt lat="32.151177" lon="131.527501"><ele>55.4</ele><time>2026-09-25T02:15:58Z</time></trkpt>
      <trkpt lat="32.150186" lon="131.527300"><ele>52.2</ele><time>2026-09-25T02:16:12Z</time></trkpt>
      <trkpt lat="32.149878" lon="131.527155"><ele>48.4</ele><time>2026-09-25T02:16:16Z</time></trkpt>
      <trkpt lat="32.149609" lon="131.526468"><ele>42.4</ele><time>2026-09-25T02:16:24Z</time></trkpt>
      <trkpt lat="32.149160" lon="131.526052"><ele>37.4</ele><time>2026-09-25T02:16:30Z</time></trkpt>
      <trkpt lat="32.147226" lon="131.525462"><ele>25.2</ele><time>2026-09-25T02:16:49Z</time></trkpt>
      <trkpt lat="32.146761" lon="131.525610"><ele>22.8</ele><time>2026-09-25T02:16:54Z</time></trkpt>
      <trkpt lat="32.146095" lon="131.525982"><ele>18.2</ele><time>2026-09-25T02:17:03Z</time></trkpt>
      <trkpt lat="32.145942" lon="131.526210"><ele>16.8</ele><time>2026-09-25T02:17:07Z</time></trkpt>
      <trkpt lat="32.145830" lon="131.526578"><ele>14.6</ele><time>2026-09-25T02:17:12Z</time></trkpt>
      <trkpt lat="32.145631" lon="131.526744"><ele>14.2</ele><time>2026-09-25T02:17:19Z</time></trkpt>
      <trkpt lat="32.145497" lon="131.526116"><ele>13.2</ele><time>2026-09-25T02:17:53Z</time></trkpt>
      <trkpt lat="32.145377" lon="131.526105"><ele>13.6</ele><time>2026-09-25T02:17:57Z</time></trkpt>
      <trkpt lat="32.140726" lon="131.527555"><ele>10.4</ele><time>2026-09-25T02:19:47Z</time></trkpt>
      <trkpt lat="32.138998" lon="131.527771"><ele>10.6</ele><time>2026-09-25T02:20:14Z</time></trkpt>
      <trkpt lat="32.137736" lon="131.527640"><ele>10.4</ele><time>2026-09-25T02:20:34Z</time></trkpt>
      <trkpt lat="32.136818" lon="131.527362"><ele>9.8</ele><time>2026-09-25T02:20:49Z</time></trkpt>
      <trkpt lat="32.135421" lon="131.526636"><ele>9.0</ele><time>2026-09-25T02:21:15Z</time></trkpt>
      <trkpt lat="32.129537" lon="131.522225"><ele>10.8</ele><time>2026-09-25T02:23:28Z</time></trkpt>
      <trkpt lat="32.128315" lon="131.521494"><ele>9.4</ele><time>2026-09-25T02:23:49Z</time></trkpt>
      <trkpt lat="32.128207" lon="131.521549"><ele>9.6</ele><time>2026-09-25T02:23:51Z</time></trkpt>
      <trkpt lat="32.126819" lon="131.523478"><ele>8.2</ele><time>2026-09-25T02:24:26Z</time></trkpt>
      <trkpt lat="32.125697" lon="131.526075"><ele>7.8</ele><time>2026-09-25T02:25:08Z</time></trkpt>
      <trkpt lat="32.124347" lon="131.528209"><ele>7.8</ele><time>2026-09-25T02:25:52Z</time></trkpt>
      <trkpt lat="32.122606" lon="131.532471"><ele>9.6</ele><time>2026-09-25T02:27:16Z</time></trkpt>
      <trkpt lat="32.122327" lon="131.532443"><ele>9.2</ele><time>2026-09-25T02:27:23Z</time></trkpt>
      <trkpt lat="32.121887" lon="131.532210"><ele>9.4</ele><time>2026-09-25T02:27:33Z</time></trkpt>
      <trkpt lat="32.119736" lon="131.530564"><ele>7.2</ele><time>2026-09-25T02:28:18Z</time></trkpt>
      <trkpt lat="32.117462" lon="131.529228"><ele>8.0</ele><time>2026-09-25T02:28:56Z</time></trkpt>
      <trkpt lat="32.116968" lon="131.528403"><ele>11.2</ele><time>2026-09-25T02:29:25Z</time></trkpt>
      <trkpt lat="32.116084" lon="131.528727"><ele>11.6</ele><time>2026-09-25T02:29:58Z</time></trkpt>
      <trkpt lat="32.115473" lon="131.528783"><ele>11.8</ele><time>2026-09-25T02:30:13Z</time></trkpt>
      <trkpt lat="32.114675" lon="131.528596"><ele>14.6</ele><time>2026-09-25T02:30:51Z</time></trkpt>
      <trkpt lat="32.113728" lon="131.528102"><ele>16.4</ele><time>2026-09-25T02:31:41Z</time></trkpt>
      <trkpt lat="32.113395" lon="131.528034"><ele>14.4</ele><time>2026-09-25T02:32:07Z</time></trkpt>
      <trkpt lat="32.113225" lon="131.528452"><ele>13.2</ele><time>2026-09-25T02:32:14Z</time></trkpt>
      <trkpt lat="32.113139" lon="131.528481"><ele>13.0</ele><time>2026-09-25T02:32:16Z</time></trkpt>
      <trkpt lat="32.112502" lon="131.528273"><ele>12.0</ele><time>2026-09-25T02:32:28Z</time></trkpt>
      <trkpt lat="32.106487" lon="131.524674"><ele>14.0</ele><time>2026-09-25T02:34:26Z</time></trkpt>
      <trkpt lat="32.105672" lon="131.524088"><ele>13.2</ele><time>2026-09-25T02:34:42Z</time></trkpt>
      <trkpt lat="32.105291" lon="131.524657"><ele>14.0</ele><time>2026-09-25T02:34:57Z</time></trkpt>
      <trkpt lat="32.102911" lon="131.523705"><ele>13.8</ele><time>2026-09-25T02:35:43Z</time></trkpt>
      <trkpt lat="32.101752" lon="131.523120"><ele>14.6</ele><time>2026-09-25T02:36:09Z</time></trkpt>
      <trkpt lat="32.100211" lon="131.522091"><ele>15.2</ele><time>2026-09-25T02:36:42Z</time></trkpt>
      <trkpt lat="32.099270" lon="131.521649"><ele>13.4</ele><time>2026-09-25T02:36:58Z</time></trkpt>
      <trkpt lat="32.096439" lon="131.520080"><ele>11.8</ele><time>2026-09-25T02:37:41Z</time></trkpt>
      <trkpt lat="32.094285" lon="131.518822"><ele>12.0</ele><time>2026-09-25T02:38:21Z</time></trkpt>
      <trkpt lat="32.093815" lon="131.518473"><ele>12.6</ele><time>2026-09-25T02:38:32Z</time></trkpt>
      <trkpt lat="32.093580" lon="131.518431"><ele>12.8</ele><time>2026-09-25T02:38:38Z</time></trkpt>
      <trkpt lat="32.092283" lon="131.517537"><ele>13.2</ele><time>2026-09-25T02:39:14Z</time></trkpt>
      <trkpt lat="32.090248" lon="131.516838"><ele>12.0</ele><time>2026-09-25T02:39:50Z</time></trkpt>
      <trkpt lat="32.089192" lon="131.516790"><ele>12.2</ele><time>2026-09-25T02:40:07Z</time></trkpt>
      <trkpt lat="32.088233" lon="131.516384"><ele>15.2</ele><time>2026-09-25T02:40:58Z</time></trkpt>
      <trkpt lat="32.086215" lon="131.515214"><ele>15.0</ele><time>2026-09-25T02:41:52Z</time></trkpt>
      <trkpt lat="32.085290" lon="131.514512"><ele>14.4</ele><time>2026-09-25T02:42:09Z</time></trkpt>
      <trkpt lat="32.083809" lon="131.513615"><ele>15.0</ele><time>2026-09-25T02:42:41Z</time></trkpt>
      <trkpt lat="32.082169" lon="131.511646"><ele>15.8</ele><time>2026-09-25T02:43:21Z</time></trkpt>
      <trkpt lat="32.075350" lon="131.507880"><ele>15.4</ele><time>2026-09-25T02:45:40Z</time></trkpt>
      <trkpt lat="32.071314" lon="131.506120"><ele>14.0</ele><time>2026-09-25T02:46:49Z</time></trkpt>
      <trkpt lat="32.069684" lon="131.505193"><ele>13.2</ele><time>2026-09-25T02:47:14Z</time></trkpt>
      <trkpt lat="32.067834" lon="131.503877"><ele>12.2</ele><time>2026-09-25T02:47:43Z</time></trkpt>
      <trkpt lat="32.067512" lon="131.503452"><ele>12.2</ele><time>2026-09-25T02:47:51Z</time></trkpt>
      <trkpt lat="32.067459" lon="131.502916"><ele>12.2</ele><time>2026-09-25T02:47:58Z</time></trkpt>
      <trkpt lat="32.067750" lon="131.501614"><ele>12.6</ele><time>2026-09-25T02:48:15Z</time></trkpt>
      <trkpt lat="32.067870" lon="131.500521"><ele>12.6</ele><time>2026-09-25T02:48:30Z</time></trkpt>
      <trkpt lat="32.067619" lon="131.496840"><ele>12.6</ele><time>2026-09-25T02:49:19Z</time></trkpt>
      <trkpt lat="32.067736" lon="131.496537"><ele>12.4</ele><time>2026-09-25T02:49:23Z</time></trkpt>
      <trkpt lat="32.068051" lon="131.496242"><ele>12.4</ele><time>2026-09-25T02:49:32Z</time></trkpt>
      <trkpt lat="32.068650" lon="131.495423"><ele>14.8</ele><time>2026-09-25T02:50:10Z</time></trkpt>
      <trkpt lat="32.068721" lon="131.495172"><ele>15.6</ele><time>2026-09-25T02:50:16Z</time></trkpt>
      <trkpt lat="32.068654" lon="131.495062"><ele>16.2</ele><time>2026-09-25T02:50:19Z</time></trkpt>
      <trkpt lat="32.067639" lon="131.494172"><ele>15.8</ele><time>2026-09-25T02:50:42Z</time></trkpt>
      <trkpt lat="32.066069" lon="131.492076"><ele>13.2</ele><time>2026-09-25T02:51:13Z</time></trkpt>
      <trkpt lat="32.064546" lon="131.489831"><ele>11.6</ele><time>2026-09-25T02:51:47Z</time></trkpt>
      <trkpt lat="32.064492" lon="131.489170"><ele>11.4</ele><time>2026-09-25T02:51:56Z</time></trkpt>
      <trkpt lat="32.064367" lon="131.488979"><ele>11.4</ele><time>2026-09-25T02:51:59Z</time></trkpt>
      <trkpt lat="32.061176" lon="131.486393"><ele>10.6</ele><time>2026-09-25T02:53:03Z</time></trkpt>
      <trkpt lat="32.060717" lon="131.485865"><ele>12.0</ele><time>2026-09-25T02:53:15Z</time></trkpt>
      <trkpt lat="32.060421" lon="131.485893"><ele>12.6</ele><time>2026-09-25T02:53:21Z</time></trkpt>
      <trkpt lat="32.059759" lon="131.485214"><ele>11.0</ele><time>2026-09-25T02:53:36Z</time></trkpt>
      <trkpt lat="32.053661" lon="131.480140"><ele>10.0</ele><time>2026-09-25T02:56:03Z</time></trkpt>
      <trkpt lat="32.053644" lon="131.480047"><ele>9.8</ele><time>2026-09-25T02:56:05Z</time></trkpt>
      <trkpt lat="32.054343" lon="131.478931"><ele>9.6</ele><time>2026-09-25T02:56:30Z</time></trkpt>
      <trkpt lat="32.051546" lon="131.476611"><ele>9.0</ele><time>2026-09-25T02:57:31Z</time></trkpt>
      <trkpt lat="32.051417" lon="131.476411"><ele>8.4</ele><time>2026-09-25T02:57:35Z</time></trkpt>
      <trkpt lat="32.051516" lon="131.475984"><ele>8.8</ele><time>2026-09-25T02:57:42Z</time></trkpt>
      <trkpt lat="32.051458" lon="131.474881"><ele>9.0</ele><time>2026-09-25T02:58:00Z</time></trkpt>
      <trkpt lat="32.051864" lon="131.474201"><ele>9.6</ele><time>2026-09-25T02:58:13Z</time></trkpt>
      <trkpt lat="32.052067" lon="131.473959"><ele>9.2</ele><time>2026-09-25T02:58:18Z</time></trkpt>
      <trkpt lat="32.052171" lon="131.473953"><ele>9.6</ele><time>2026-09-25T02:58:20Z</time></trkpt>
      <trkpt lat="32.052934" lon="131.474597"><ele>9.8</ele><time>2026-09-25T02:58:36Z</time></trkpt>
      <trkpt lat="32.053194" lon="131.474481"><ele>10.4</ele><time>2026-09-25T02:58:41Z</time></trkpt>
      <trkpt lat="32.053228" lon="131.474355"><ele>10.8</ele><time>2026-09-25T02:58:43Z</time></trkpt>
      <trkpt lat="32.053138" lon="131.474215"><ele>11.8</ele><time>2026-09-25T02:58:46Z</time></trkpt>
      <trkpt lat="32.052344" lon="131.473695"><ele>13.2</ele><time>2026-09-25T02:59:04Z</time></trkpt>
      <trkpt lat="32.051081" lon="131.473326"><ele>15.2</ele><time>2026-09-25T02:59:32Z</time></trkpt>
      <trkpt lat="32.047066" lon="131.471874"><ele>13.6</ele><time>2026-09-25T03:00:50Z</time></trkpt>
      <trkpt lat="32.046396" lon="131.471518"><ele>13.4</ele><time>2026-09-25T03:01:04Z</time></trkpt>
      <trkpt lat="32.044830" lon="131.470929"><ele>9.8</ele><time>2026-09-25T03:01:38Z</time></trkpt>
      <trkpt lat="32.044730" lon="131.470930"><ele>9.4</ele><time>2026-09-25T03:01:40Z</time></trkpt>
      <trkpt lat="32.044635" lon="131.471076"><ele>8.8</ele><time>2026-09-25T03:01:43Z</time></trkpt>
      <trkpt lat="32.044162" lon="131.472834"><ele>7.4</ele><time>2026-09-25T03:02:11Z</time></trkpt>
      <trkpt lat="32.043920" lon="131.473141"><ele>7.6</ele><time>2026-09-25T03:02:18Z</time></trkpt>
      <trkpt lat="32.043081" lon="131.473869"><ele>7.2</ele><time>2026-09-25T03:02:35Z</time></trkpt>
      <trkpt lat="32.042708" lon="131.474423"><ele>8.4</ele><time>2026-09-25T03:02:47Z</time></trkpt>
      <trkpt lat="32.041813" lon="131.477284"><ele>7.0</ele><time>2026-09-25T03:03:56Z</time></trkpt>
      <trkpt lat="32.041139" lon="131.478513"><ele>6.4</ele><time>2026-09-25T03:04:26Z</time></trkpt>
      <trkpt lat="32.039582" lon="131.480648"><ele>6.4</ele><time>2026-09-25T03:05:11Z</time></trkpt>
      <trkpt lat="32.037840" lon="131.482644"><ele>5.8</ele><time>2026-09-25T03:05:57Z</time></trkpt>
      <trkpt lat="32.036970" lon="131.483755"><ele>6.4</ele><time>2026-09-25T03:06:24Z</time></trkpt>
      <trkpt lat="32.036631" lon="131.484055"><ele>6.6</ele><time>2026-09-25T03:06:34Z</time></trkpt>
      <trkpt lat="32.032967" lon="131.486328"><ele>6.0</ele><time>2026-09-25T03:07:58Z</time></trkpt>
      <trkpt lat="32.030237" lon="131.487784"><ele>6.6</ele><time>2026-09-25T03:09:47Z</time></trkpt>
      <trkpt lat="32.029743" lon="131.487981"><ele>6.2</ele><time>2026-09-25T03:09:57Z</time></trkpt>
      <trkpt lat="32.029330" lon="131.488028"><ele>6.2</ele><time>2026-09-25T03:10:05Z</time></trkpt>
      <trkpt lat="32.028032" lon="131.487766"><ele>5.8</ele><time>2026-09-25T03:10:28Z</time></trkpt>
      <trkpt lat="32.027640" lon="131.487611"><ele>6.2</ele><time>2026-09-25T03:10:36Z</time></trkpt>
      <trkpt lat="32.026567" lon="131.486840"><ele>6.6</ele><time>2026-09-25T03:11:00Z</time></trkpt>
      <trkpt lat="32.026240" lon="131.486717"><ele>6.2</ele><time>2026-09-25T03:11:07Z</time></trkpt>
      <trkpt lat="32.019910" lon="131.485407"><ele>9.0</ele><time>2026-09-25T03:12:53Z</time></trkpt>
      <trkpt lat="32.019047" lon="131.484733"><ele>10.0</ele><time>2026-09-25T03:13:12Z</time></trkpt>
      <trkpt lat="32.017339" lon="131.483965"><ele>13.0</ele><time>2026-09-25T03:13:56Z</time></trkpt>
      <trkpt lat="32.015028" lon="131.482561"><ele>12.6</ele><time>2026-09-25T03:14:46Z</time></trkpt>
      <trkpt lat="32.010265" lon="131.480818"><ele>7.4</ele><time>2026-09-25T03:15:53Z</time></trkpt>
      <trkpt lat="32.003823" lon="131.477127"><ele>7.6</ele><time>2026-09-25T03:17:54Z</time></trkpt>
      <trkpt lat="32.003530" lon="131.476759"><ele>6.8</ele><time>2026-09-25T03:18:05Z</time></trkpt>
      <trkpt lat="32.003629" lon="131.476776"><ele>7.2</ele><time>2026-09-25T03:18:13Z</time></trkpt>
      <trkpt lat="32.003669" lon="131.476908"><ele>7.2</ele><time>2026-09-25T03:19:44Z</time></trkpt>
      <trkpt lat="32.003542" lon="131.476769"><ele>7.2</ele><time>2026-09-25T03:20:43Z</time></trkpt>
      <trkpt lat="32.003596" lon="131.476617"><ele>7.2</ele><time>2026-09-25T03:21:10Z</time></trkpt>
      <trkpt lat="32.003592" lon="131.476784"><ele>7.2</ele><time>2026-09-25T03:25:47Z</time></trkpt>
      <trkpt lat="32.003747" lon="131.476853"><ele>7.4</ele><time>2026-09-25T03:28:17Z</time></trkpt>
      <trkpt lat="32.003704" lon="131.476796"><ele>7.4</ele><time>2026-09-25T03:28:47Z</time></trkpt>
      <trkpt lat="32.003687" lon="131.476905"><ele>7.4</ele><time>2026-09-25T03:34:52Z</time></trkpt>
      <trkpt lat="32.003687" lon="131.476787"><ele>7.4</ele><time>2026-09-25T03:36:29Z</time></trkpt>
      <trkpt lat="32.003696" lon="131.476942"><ele>7.4</ele><time>2026-09-25T03:37:32Z</time></trkpt>
      <trkpt lat="32.003571" lon="131.476693"><ele>6.8</ele><time>2026-09-25T03:39:05Z</time></trkpt>
      <trkpt lat="32.003689" lon="131.476896"><ele>6.4</ele><time>2026-09-25T03:41:16Z</time></trkpt>
      <trkpt lat="32.002684" lon="131.476307"><ele>7.4</ele><time>2026-09-25T03:42:00Z</time></trkpt>
      <trkpt lat="32.002415" lon="131.476226"><ele>7.6</ele><time>2026-09-25T03:42:11Z</time></trkpt>
      <trkpt lat="32.002144" lon="131.476271"><ele>7.0</ele><time>2026-09-25T03:42:23Z</time></trkpt>
      <trkpt lat="32.000878" lon="131.476126"><ele>7.6</ele><time>2026-09-25T03:43:02Z</time></trkpt>
      <trkpt lat="32.000597" lon="131.476033"><ele>8.4</ele><time>2026-09-25T03:43:11Z</time></trkpt>
      <trkpt lat="32.000422" lon="131.476096"><ele>8.4</ele><time>2026-09-25T03:43:18Z</time></trkpt>
      <trkpt lat="31.997758" lon="131.475433"><ele>9.8</ele><time>2026-09-25T03:44:09Z</time></trkpt>
      <trkpt lat="31.993834" lon="131.474954"><ele>10.0</ele><time>2026-09-25T03:45:22Z</time></trkpt>
      <trkpt lat="31.991282" lon="131.474040"><ele>10.2</ele><time>2026-09-25T03:46:10Z</time></trkpt>
      <trkpt lat="31.987962" lon="131.472623"><ele>10.4</ele><time>2026-09-25T03:47:16Z</time></trkpt>
      <trkpt lat="31.986604" lon="131.472150"><ele>10.6</ele><time>2026-09-25T03:47:45Z</time></trkpt>
      <trkpt lat="31.985582" lon="131.472087"><ele>11.0</ele><time>2026-09-25T03:48:05Z</time></trkpt>
      <trkpt lat="31.983514" lon="131.472236"><ele>12.4</ele><time>2026-09-25T03:48:46Z</time></trkpt>
      <trkpt lat="31.982235" lon="131.472080"><ele>11.6</ele><time>2026-09-25T03:49:59Z</time></trkpt>
      <trkpt lat="31.980608" lon="131.471381"><ele>11.8</ele><time>2026-09-25T03:50:27Z</time></trkpt>
      <trkpt lat="31.978076" lon="131.470036"><ele>12.0</ele><time>2026-09-25T03:51:10Z</time></trkpt>
      <trkpt lat="31.975821" lon="131.469385"><ele>13.0</ele><time>2026-09-25T03:51:47Z</time></trkpt>
      <trkpt lat="31.974388" lon="131.469073"><ele>12.4</ele><time>2026-09-25T03:52:10Z</time></trkpt>
      <trkpt lat="31.969733" lon="131.467133"><ele>12.4</ele><time>2026-09-25T03:53:27Z</time></trkpt>
      <trkpt lat="31.968463" lon="131.466546"><ele>12.6</ele><time>2026-09-25T03:53:49Z</time></trkpt>
      <trkpt lat="31.966187" lon="131.465139"><ele>14.6</ele><time>2026-09-25T03:54:38Z</time></trkpt>
      <trkpt lat="31.965382" lon="131.464768"><ele>15.2</ele><time>2026-09-25T03:54:53Z</time></trkpt>
      <trkpt lat="31.961083" lon="131.463674"><ele>13.8</ele><time>2026-09-25T03:55:58Z</time></trkpt>
      <trkpt lat="31.959133" lon="131.463964"><ele>14.0</ele><time>2026-09-25T03:56:29Z</time></trkpt>
      <trkpt lat="31.958761" lon="131.463922"><ele>13.8</ele><time>2026-09-25T03:56:35Z</time></trkpt>
      <trkpt lat="31.957281" lon="131.463207"><ele>13.8</ele><time>2026-09-25T03:57:08Z</time></trkpt>
      <trkpt lat="31.956530" lon="131.463046"><ele>14.6</ele><time>2026-09-25T03:57:30Z</time></trkpt>
      <trkpt lat="31.956257" lon="131.463100"><ele>13.8</ele><time>2026-09-25T03:58:09Z</time></trkpt>
      <trkpt lat="31.955607" lon="131.462931"><ele>12.6</ele><time>2026-09-25T03:58:27Z</time></trkpt>
      <trkpt lat="31.955010" lon="131.462538"><ele>12.4</ele><time>2026-09-25T03:58:42Z</time></trkpt>
      <trkpt lat="31.953369" lon="131.460784"><ele>10.2</ele><time>2026-09-25T03:59:18Z</time></trkpt>
      <trkpt lat="31.952986" lon="131.460590"><ele>10.6</ele><time>2026-09-25T03:59:24Z</time></trkpt>
      <trkpt lat="31.950182" lon="131.460072"><ele>11.6</ele><time>2026-09-25T04:00:09Z</time></trkpt>
      <trkpt lat="31.948826" lon="131.460067"><ele>11.0</ele><time>2026-09-25T04:00:30Z</time></trkpt>
      <trkpt lat="31.943865" lon="131.458100"><ele>8.8</ele><time>2026-09-25T04:01:47Z</time></trkpt>
      <trkpt lat="31.942467" lon="131.457454"><ele>6.6</ele><time>2026-09-25T04:02:07Z</time></trkpt>
      <trkpt lat="31.940340" lon="131.457002"><ele>7.0</ele><time>2026-09-25T04:02:33Z</time></trkpt>
      <trkpt lat="31.939172" lon="131.456864"><ele>7.6</ele><time>2026-09-25T04:02:48Z</time></trkpt>
      <trkpt lat="31.937461" lon="131.456521"><ele>5.2</ele><time>2026-09-25T04:03:12Z</time></trkpt>
      <trkpt lat="31.923110" lon="131.452751"><ele>4.6</ele><time>2026-09-25T04:08:48Z</time></trkpt>
      <trkpt lat="31.916770" lon="131.449888"><ele>4.6</ele><time>2026-09-25T04:10:48Z</time></trkpt>
      <trkpt lat="31.916337" lon="131.449708"><ele>5.0</ele><time>2026-09-25T04:10:57Z</time></trkpt>
      <trkpt lat="31.916266" lon="131.449715"><ele>4.8</ele><time>2026-09-25T04:11:00Z</time></trkpt>
      <trkpt lat="31.916272" lon="131.449785"><ele>4.6</ele><time>2026-09-25T04:11:02Z</time></trkpt>
      <trkpt lat="31.916356" lon="131.449622"><ele>4.4</ele><time>2026-09-25T04:11:09Z</time></trkpt>
      <trkpt lat="31.916368" lon="131.448217"><ele>4.6</ele><time>2026-09-25T04:11:32Z</time></trkpt>
      <trkpt lat="31.916282" lon="131.444320"><ele>5.0</ele><time>2026-09-25T04:12:33Z</time></trkpt>
      <trkpt lat="31.916245" lon="131.444238"><ele>5.4</ele><time>2026-09-25T04:12:48Z</time></trkpt>
      <trkpt lat="31.915878" lon="131.444086"><ele>5.8</ele><time>2026-09-25T04:13:16Z</time></trkpt>
      <trkpt lat="31.914995" lon="131.443846"><ele>6.0</ele><time>2026-09-25T04:13:36Z</time></trkpt>
      <trkpt lat="31.914362" lon="131.443913"><ele>5.2</ele><time>2026-09-25T04:13:49Z</time></trkpt>
      <trkpt lat="31.914249" lon="131.443532"><ele>5.4</ele><time>2026-09-25T04:13:56Z</time></trkpt>
      <trkpt lat="31.914258" lon="131.443208"><ele>5.2</ele><time>2026-09-25T04:14:01Z</time></trkpt>
      <trkpt lat="31.914084" lon="131.442824"><ele>5.4</ele><time>2026-09-25T04:14:08Z</time></trkpt>
      <trkpt lat="31.913989" lon="131.442334"><ele>5.4</ele><time>2026-09-25T04:14:16Z</time></trkpt>
      <trkpt lat="31.913890" lon="131.442265"><ele>5.6</ele><time>2026-09-25T04:14:18Z</time></trkpt>
      <trkpt lat="31.907714" lon="131.442493"><ele>5.2</ele><time>2026-09-25T04:17:18Z</time></trkpt>
      <trkpt lat="31.901375" lon="131.440972"><ele>8.0</ele><time>2026-09-25T04:19:18Z</time></trkpt>
      <trkpt lat="31.900332" lon="131.440474"><ele>13.8</ele><time>2026-09-25T04:19:46Z</time></trkpt>
      <trkpt lat="31.895086" lon="131.435908"><ele>7.4</ele><time>2026-09-25T04:21:56Z</time></trkpt>
      <trkpt lat="31.890993" lon="131.433983"><ele>4.4</ele><time>2026-09-25T04:23:25Z</time></trkpt>
      <trkpt lat="31.890583" lon="131.433876"><ele>6.6</ele><time>2026-09-25T04:23:34Z</time></trkpt>
      <trkpt lat="31.889059" lon="131.433780"><ele>9.6</ele><time>2026-09-25T04:24:22Z</time></trkpt>
      <trkpt lat="31.885211" lon="131.433766"><ele>7.4</ele><time>2026-09-25T04:25:26Z</time></trkpt>
      <trkpt lat="31.884221" lon="131.433590"><ele>7.2</ele><time>2026-09-25T04:25:42Z</time></trkpt>
      <trkpt lat="31.882458" lon="131.433725"><ele>6.4</ele><time>2026-09-25T04:26:12Z</time></trkpt>
      <trkpt lat="31.880791" lon="131.433629"><ele>7.6</ele><time>2026-09-25T04:26:39Z</time></trkpt>
      <trkpt lat="31.879846" lon="131.433872"><ele>7.2</ele><time>2026-09-25T04:26:55Z</time></trkpt>
      <trkpt lat="31.879344" lon="131.433871"><ele>6.8</ele><time>2026-09-25T04:27:03Z</time></trkpt>
      <trkpt lat="31.878966" lon="131.433540"><ele>6.6</ele><time>2026-09-25T04:27:11Z</time></trkpt>
      <trkpt lat="31.877858" lon="131.431723"><ele>6.6</ele><time>2026-09-25T04:27:41Z</time></trkpt>
      <trkpt lat="31.877672" lon="131.431331"><ele>6.6</ele><time>2026-09-25T04:27:48Z</time></trkpt>
      <trkpt lat="31.877583" lon="131.430747"><ele>7.2</ele><time>2026-09-25T04:28:00Z</time></trkpt>
      <trkpt lat="31.877470" lon="131.430527"><ele>7.2</ele><time>2026-09-25T04:28:05Z</time></trkpt>
      <trkpt lat="31.877005" lon="131.430406"><ele>8.2</ele><time>2026-09-25T04:28:18Z</time></trkpt>
      <trkpt lat="31.876565" lon="131.430589"><ele>8.0</ele><time>2026-09-25T04:28:30Z</time></trkpt>
      <trkpt lat="31.876263" lon="131.430503"><ele>7.6</ele><time>2026-09-25T04:28:39Z</time></trkpt>
      <trkpt lat="31.875453" lon="131.430830"><ele>7.8</ele><time>2026-09-25T04:28:56Z</time></trkpt>
      <trkpt lat="31.871284" lon="131.431767"><ele>9.2</ele><time>2026-09-25T04:30:26Z</time></trkpt>
      <trkpt lat="31.869920" lon="131.431790"><ele>11.6</ele><time>2026-09-25T04:31:02Z</time></trkpt>
      <trkpt lat="31.868874" lon="131.431709"><ele>13.0</ele><time>2026-09-25T04:31:25Z</time></trkpt>
      <trkpt lat="31.866855" lon="131.431873"><ele>12.4</ele><time>2026-09-25T04:31:59Z</time></trkpt>
      <trkpt lat="31.865406" lon="131.432188"><ele>12.2</ele><time>2026-09-25T04:32:30Z</time></trkpt>
      <trkpt lat="31.861338" lon="131.432690"><ele>12.8</ele><time>2026-09-25T04:33:41Z</time></trkpt>
      <trkpt lat="31.860748" lon="131.432835"><ele>11.4</ele><time>2026-09-25T04:33:53Z</time></trkpt>
      <trkpt lat="31.860099" lon="131.433112"><ele>11.6</ele><time>2026-09-25T04:34:07Z</time></trkpt>
      <trkpt lat="31.857731" lon="131.434588"><ele>8.0</ele><time>2026-09-25T04:34:49Z</time></trkpt>
      <trkpt lat="31.857242" lon="131.434757"><ele>8.0</ele><time>2026-09-25T04:34:56Z</time></trkpt>
      <trkpt lat="31.855564" lon="131.434742"><ele>7.4</ele><time>2026-09-25T04:35:22Z</time></trkpt>
      <trkpt lat="31.852573" lon="131.435121"><ele>7.2</ele><time>2026-09-25T04:36:15Z</time></trkpt>
      <trkpt lat="31.847169" lon="131.435642"><ele>7.8</ele><time>2026-09-25T04:38:19Z</time></trkpt>
      <trkpt lat="31.846070" lon="131.435367"><ele>8.4</ele><time>2026-09-25T04:39:10Z</time></trkpt>
      <trkpt lat="31.846092" lon="131.435306"><ele>8.4</ele><time>2026-09-25T04:40:11Z</time></trkpt>
      <trkpt lat="31.844915" lon="131.434761"><ele>8.0</ele><time>2026-09-25T04:41:08Z</time></trkpt>
      <trkpt lat="31.844001" lon="131.434426"><ele>8.6</ele><time>2026-09-25T04:41:27Z</time></trkpt>
      <trkpt lat="31.843370" lon="131.434407"><ele>8.4</ele><time>2026-09-25T04:41:39Z</time></trkpt>
      <trkpt lat="31.841530" lon="131.434603"><ele>9.0</ele><time>2026-09-25T04:42:12Z</time></trkpt>
      <trkpt lat="31.841091" lon="131.434734"><ele>8.8</ele><time>2026-09-25T04:42:20Z</time></trkpt>
      <trkpt lat="31.840578" lon="131.435096"><ele>11.4</ele><time>2026-09-25T04:42:33Z</time></trkpt>
      <trkpt lat="31.840247" lon="131.435520"><ele>12.0</ele><time>2026-09-25T04:42:46Z</time></trkpt>
      <trkpt lat="31.839439" lon="131.436880"><ele>10.6</ele><time>2026-09-25T04:43:22Z</time></trkpt>
      <trkpt lat="31.838837" lon="131.437341"><ele>8.6</ele><time>2026-09-25T04:43:34Z</time></trkpt>
      <trkpt lat="31.836987" lon="131.437797"><ele>11.2</ele><time>2026-09-25T04:44:04Z</time></trkpt>
      <trkpt lat="31.834391" lon="131.437639"><ele>12.4</ele><time>2026-09-25T04:44:57Z</time></trkpt>
      <trkpt lat="31.833724" lon="131.437732"><ele>11.2</ele><time>2026-09-25T04:45:08Z</time></trkpt>
      <trkpt lat="31.831813" lon="131.439378"><ele>7.6</ele><time>2026-09-25T04:45:49Z</time></trkpt>
      <trkpt lat="31.828941" lon="131.441548"><ele>5.8</ele><time>2026-09-25T04:46:51Z</time></trkpt>
      <trkpt lat="31.828419" lon="131.442034"><ele>7.8</ele><time>2026-09-25T04:47:03Z</time></trkpt>
      <trkpt lat="31.827912" lon="131.442414"><ele>7.2</ele><time>2026-09-25T04:47:15Z</time></trkpt>
      <trkpt lat="31.827364" lon="131.442674"><ele>7.4</ele><time>2026-09-25T04:47:28Z</time></trkpt>
      <trkpt lat="31.823442" lon="131.443209"><ele>6.8</ele><time>2026-09-25T04:48:40Z</time></trkpt>
      <trkpt lat="31.819873" lon="131.443437"><ele>8.8</ele><time>2026-09-25T04:49:39Z</time></trkpt>
      <trkpt lat="31.819047" lon="131.443407"><ele>7.6</ele><time>2026-09-25T04:49:51Z</time></trkpt>
      <trkpt lat="31.816802" lon="131.442988"><ele>8.2</ele><time>2026-09-25T04:50:25Z</time></trkpt>
      <trkpt lat="31.815737" lon="131.443119"><ele>9.8</ele><time>2026-09-25T04:50:46Z</time></trkpt>
      <trkpt lat="31.815038" lon="131.443356"><ele>10.0</ele><time>2026-09-25T04:51:01Z</time></trkpt>
      <trkpt lat="31.813977" lon="131.444086"><ele>11.8</ele><time>2026-09-25T04:51:26Z</time></trkpt>
      <trkpt lat="31.813738" lon="131.444412"><ele>9.0</ele><time>2026-09-25T04:51:33Z</time></trkpt>
      <trkpt lat="31.813675" lon="131.444690"><ele>8.4</ele><time>2026-09-25T04:51:37Z</time></trkpt>
      <trkpt lat="31.813972" lon="131.449053"><ele>9.4</ele><time>2026-09-25T04:52:54Z</time></trkpt>
      <trkpt lat="31.813948" lon="131.452374"><ele>10.8</ele><time>2026-09-25T04:54:54Z</time></trkpt>
      <trkpt lat="31.813862" lon="131.452779"><ele>11.6</ele><time>2026-09-25T04:55:02Z</time></trkpt>
      <trkpt lat="31.813679" lon="131.453186"><ele>10.8</ele><time>2026-09-25T04:55:11Z</time></trkpt>
      <trkpt lat="31.813444" lon="131.453452"><ele>10.8</ele><time>2026-09-25T04:55:18Z</time></trkpt>
      <trkpt lat="31.812300" lon="131.454141"><ele>11.0</ele><time>2026-09-25T04:56:02Z</time></trkpt>
      <trkpt lat="31.813258" lon="131.453647"><ele>10.6</ele><time>2026-09-25T04:56:32Z</time></trkpt>
      <trkpt lat="31.813710" lon="131.453266"><ele>10.0</ele><time>2026-09-25T04:56:46Z</time></trkpt>
      <trkpt lat="31.813926" lon="131.453548"><ele>9.4</ele><time>2026-09-25T04:56:54Z</time></trkpt>
      <trkpt lat="31.813613" lon="131.454167"><ele>9.2</ele><time>2026-09-25T04:57:09Z</time></trkpt>
      <trkpt lat="31.813500" lon="131.454569"><ele>8.4</ele><time>2026-09-25T04:57:18Z</time></trkpt>
      <trkpt lat="31.813572" lon="131.454792"><ele>7.6</ele><time>2026-09-25T04:57:22Z</time></trkpt>
      <trkpt lat="31.813794" lon="131.454963"><ele>6.2</ele><time>2026-09-25T04:57:29Z</time></trkpt>
      <trkpt lat="31.813815" lon="131.455060"><ele>6.4</ele><time>2026-09-25T04:57:57Z</time></trkpt>
      <trkpt lat="31.813183" lon="131.455218"><ele>7.4</ele><time>2026-09-25T04:58:24Z</time></trkpt>
      <trkpt lat="31.812727" lon="131.455534"><ele>8.8</ele><time>2026-09-25T04:58:38Z</time></trkpt>
      <trkpt lat="31.812625" lon="131.455723"><ele>9.0</ele><time>2026-09-25T04:58:43Z</time></trkpt>
      <trkpt lat="31.812611" lon="131.456545"><ele>9.8</ele><time>2026-09-25T04:59:03Z</time></trkpt>
      <trkpt lat="31.812504" lon="131.456837"><ele>10.0</ele><time>2026-09-25T04:59:11Z</time></trkpt>
      <trkpt lat="31.812305" lon="131.457044"><ele>9.8</ele><time>2026-09-25T04:59:18Z</time></trkpt>
      <trkpt lat="31.810771" lon="131.458059"><ele>9.4</ele><time>2026-09-25T04:59:59Z</time></trkpt>
      <trkpt lat="31.810142" lon="131.458655"><ele>8.8</ele><time>2026-09-25T05:00:16Z</time></trkpt>
      <trkpt lat="31.807919" lon="131.460427"><ele>7.4</ele><time>2026-09-25T05:01:18Z</time></trkpt>
      <trkpt lat="31.807332" lon="131.461233"><ele>7.0</ele><time>2026-09-25T05:01:43Z</time></trkpt>
      <trkpt lat="31.806509" lon="131.462033"><ele>6.8</ele><time>2026-09-25T05:02:11Z</time></trkpt>
      <trkpt lat="31.805028" lon="131.464115"><ele>6.8</ele><time>2026-09-25T05:03:08Z</time></trkpt>
      <trkpt lat="31.804013" lon="131.466132"><ele>6.2</ele><time>2026-09-25T05:03:52Z</time></trkpt>
      <trkpt lat="31.803651" lon="131.467104"><ele>6.2</ele><time>2026-09-25T05:04:12Z</time></trkpt>
      <trkpt lat="31.803329" lon="131.468845"><ele>6.0</ele><time>2026-09-25T05:04:47Z</time></trkpt>
      <trkpt lat="31.802997" lon="131.470120"><ele>5.8</ele><time>2026-09-25T05:05:23Z</time></trkpt>
      <trkpt lat="31.803138" lon="131.469533"><ele>6.4</ele><time>2026-09-25T05:06:09Z</time></trkpt>
      <trkpt lat="31.803003" lon="131.469122"><ele>7.6</ele><time>2026-09-25T05:08:08Z</time></trkpt>
      <trkpt lat="31.802988" lon="131.469313"><ele>8.4</ele><time>2026-09-25T05:09:33Z</time></trkpt>
      <trkpt lat="31.803029" lon="131.469141"><ele>7.4</ele><time>2026-09-25T05:11:50Z</time></trkpt>
      <trkpt lat="31.802944" lon="131.469190"><ele>7.6</ele><time>2026-09-25T05:14:56Z</time></trkpt>
      <trkpt lat="31.803106" lon="131.469144"><ele>7.6</ele><time>2026-09-25T05:17:24Z</time></trkpt>
      <trkpt lat="31.802913" lon="131.469176"><ele>7.6</ele><time>2026-09-25T05:19:53Z</time></trkpt>
      <trkpt lat="31.803031" lon="131.469179"><ele>7.6</ele><time>2026-09-25T05:21:27Z</time></trkpt>
      <trkpt lat="31.802934" lon="131.469144"><ele>7.6</ele><time>2026-09-25T05:22:29Z</time></trkpt>
      <trkpt lat="31.802990" lon="131.469107"><ele>7.6</ele><time>2026-09-25T05:22:47Z</time></trkpt>
      <trkpt lat="31.802922" lon="131.469190"><ele>7.6</ele><time>2026-09-25T05:23:16Z</time></trkpt>
      <trkpt lat="31.803035" lon="131.469213"><ele>7.6</ele><time>2026-09-25T05:23:57Z</time></trkpt>
      <trkpt lat="31.802949" lon="131.469120"><ele>7.6</ele><time>2026-09-25T05:26:30Z</time></trkpt>
      <trkpt lat="31.803090" lon="131.469167"><ele>7.6</ele><time>2026-09-25T05:30:19Z</time></trkpt>
      <trkpt lat="31.802956" lon="131.469179"><ele>7.4</ele><time>2026-09-25T05:35:43Z</time></trkpt>
      <trkpt lat="31.803094" lon="131.469161"><ele>7.6</ele><time>2026-09-25T05:38:11Z</time></trkpt>
      <trkpt lat="31.802957" lon="131.469206"><ele>7.6</ele><time>2026-09-25T05:41:56Z</time></trkpt>
      <trkpt lat="31.803103" lon="131.469137"><ele>7.6</ele><time>2026-09-25T05:45:17Z</time></trkpt>
      <trkpt lat="31.802921" lon="131.469201"><ele>7.6</ele><time>2026-09-25T05:48:13Z</time></trkpt>
      <trkpt lat="31.803058" lon="131.469117"><ele>7.6</ele><time>2026-09-25T05:50:41Z</time></trkpt>
      <trkpt lat="31.802889" lon="131.469042"><ele>7.6</ele><time>2026-09-25T05:51:18Z</time></trkpt>
      <trkpt lat="31.803061" lon="131.469188"><ele>9.0</ele><time>2026-09-25T05:51:54Z</time></trkpt>
      <trkpt lat="31.803038" lon="131.469398"><ele>8.2</ele><time>2026-09-25T05:52:46Z</time></trkpt>
      <trkpt lat="31.803117" lon="131.469433"><ele>6.6</ele><time>2026-09-25T05:54:57Z</time></trkpt>
      <trkpt lat="31.803184" lon="131.469985"><ele>5.0</ele><time>2026-09-25T05:55:21Z</time></trkpt>
      <trkpt lat="31.802788" lon="131.470605"><ele>4.2</ele><time>2026-09-25T05:55:42Z</time></trkpt>
      <trkpt lat="31.802995" lon="131.471102"><ele>2.6</ele><time>2026-09-25T05:55:54Z</time></trkpt>
      <trkpt lat="31.803765" lon="131.473908"><ele>2.0</ele><time>2026-09-25T05:57:12Z</time></trkpt>
      <trkpt lat="31.803849" lon="131.475131"><ele>1.6</ele><time>2026-09-25T05:57:53Z</time></trkpt>
      <trkpt lat="31.803995" lon="131.475449"><ele>1.6</ele><time>2026-09-25T05:58:05Z</time></trkpt>
      <trkpt lat="31.804110" lon="131.475439"><ele>3.4</ele><time>2026-09-25T05:58:29Z</time></trkpt>
      <trkpt lat="31.804482" lon="131.475051"><ele>6.6</ele><time>2026-09-25T06:00:03Z</time></trkpt>
      <trkpt lat="31.804567" lon="131.475074"><ele>6.6</ele><time>2026-09-25T06:00:29Z</time></trkpt>
      <trkpt lat="31.804863" lon="131.475633"><ele>7.6</ele><time>2026-09-25T06:01:42Z</time></trkpt>
      <trkpt lat="31.804552" lon="131.475049"><ele>6.8</ele><time>2026-09-25T06:04:36Z</time></trkpt>
      <trkpt lat="31.804441" lon="131.475074"><ele>6.8</ele><time>2026-09-25T06:06:10Z</time></trkpt>
      <trkpt lat="31.804605" lon="131.475113"><ele>6.8</ele><time>2026-09-25T06:07:52Z</time></trkpt>
      <trkpt lat="31.804409" lon="131.475061"><ele>6.8</ele><time>2026-09-25T06:08:40Z</time></trkpt>
      <trkpt lat="31.804161" lon="131.475265"><ele>5.2</ele><time>2026-09-25T06:09:49Z</time></trkpt>
      <trkpt lat="31.804054" lon="131.475386"><ele>4.8</ele><time>2026-09-25T06:10:17Z</time></trkpt>
      <trkpt lat="31.804146" lon="131.475496"><ele>4.6</ele><time>2026-09-25T06:11:25Z</time></trkpt>
      <trkpt lat="31.804063" lon="131.475391"><ele>4.6</ele><time>2026-09-25T06:12:32Z</time></trkpt>
      <trkpt lat="31.803864" lon="131.475366"><ele>2.4</ele><time>2026-09-25T06:13:39Z</time></trkpt>
      <trkpt lat="31.803815" lon="131.474226"><ele>2.4</ele><time>2026-09-25T06:17:07Z</time></trkpt>
      <trkpt lat="31.803729" lon="131.473840"><ele>2.8</ele><time>2026-09-25T06:17:56Z</time></trkpt>
      <trkpt lat="31.803588" lon="131.473681"><ele>4.2</ele><time>2026-09-25T06:18:47Z</time></trkpt>
      <trkpt lat="31.803662" lon="131.473595"><ele>3.6</ele><time>2026-09-25T06:19:13Z</time></trkpt>
      <trkpt lat="31.803621" lon="131.473403"><ele>3.8</ele><time>2026-09-25T06:19:23Z</time></trkpt>
      <trkpt lat="31.803024" lon="131.471181"><ele>3.6</ele><time>2026-09-25T06:20:37Z</time></trkpt>
      <trkpt lat="31.802584" lon="131.470118"><ele>4.2</ele><time>2026-09-25T06:21:14Z</time></trkpt>
      <trkpt lat="31.802389" lon="131.469218"><ele>5.0</ele><time>2026-09-25T06:21:44Z</time></trkpt>
      <trkpt lat="31.802190" lon="131.468747"><ele>4.8</ele><time>2026-09-25T06:22:00Z</time></trkpt>
      <trkpt lat="31.799892" lon="131.468577"><ele>5.4</ele><time>2026-09-25T06:23:04Z</time></trkpt>
      <trkpt lat="31.796463" lon="131.469524"><ele>6.0</ele><time>2026-09-25T06:24:35Z</time></trkpt>
      <trkpt lat="31.796157" lon="131.469709"><ele>6.2</ele><time>2026-09-25T06:24:45Z</time></trkpt>
      <trkpt lat="31.796174" lon="131.470031"><ele>6.0</ele><time>2026-09-25T06:24:56Z</time></trkpt>
      <trkpt lat="31.796118" lon="131.470095"><ele>6.8</ele><time>2026-09-25T06:25:27Z</time></trkpt>
      <trkpt lat="31.796120" lon="131.469930"><ele>6.8</ele><time>2026-09-25T06:25:51Z</time></trkpt>
      <trkpt lat="31.795978" lon="131.469990"><ele>6.8</ele><time>2026-09-25T06:35:10Z</time></trkpt>
      <trkpt lat="31.796040" lon="131.469903"><ele>6.8</ele><time>2026-09-25T06:36:41Z</time></trkpt>
      <trkpt lat="31.796034" lon="131.469971"><ele>6.8</ele><time>2026-09-25T06:37:09Z</time></trkpt>
      <trkpt lat="31.795947" lon="131.469696"><ele>6.6</ele><time>2026-09-25T06:37:26Z</time></trkpt>
      <trkpt lat="31.795405" lon="131.469759"><ele>7.0</ele><time>2026-09-25T06:37:43Z</time></trkpt>
      <trkpt lat="31.793334" lon="131.470344"><ele>7.6</ele><time>2026-09-25T06:38:44Z</time></trkpt>
      <trkpt lat="31.792218" lon="131.470835"><ele>6.0</ele><time>2026-09-25T06:39:09Z</time></trkpt>
      <trkpt lat="31.792103" lon="131.471309"><ele>5.2</ele><time>2026-09-25T06:39:18Z</time></trkpt>
      <trkpt lat="31.792107" lon="131.472039"><ele>5.4</ele><time>2026-09-25T06:39:32Z</time></trkpt>
      <trkpt lat="31.792998" lon="131.473725"><ele>5.0</ele><time>2026-09-25T06:40:13Z</time></trkpt>
      <trkpt lat="31.793164" lon="131.474517"><ele>5.2</ele><time>2026-09-25T06:40:35Z</time></trkpt>
      <trkpt lat="31.793296" lon="131.474722"><ele>5.6</ele><time>2026-09-25T06:40:41Z</time></trkpt>
      <trkpt lat="31.793855" lon="131.475212"><ele>6.0</ele><time>2026-09-25T06:41:00Z</time></trkpt>
      <trkpt lat="31.794001" lon="131.475642"><ele>6.6</ele><time>2026-09-25T06:41:11Z</time></trkpt>
      <trkpt lat="31.793975" lon="131.476251"><ele>7.0</ele><time>2026-09-25T06:41:25Z</time></trkpt>
      <trkpt lat="31.793698" lon="131.476855"><ele>7.4</ele><time>2026-09-25T06:41:41Z</time></trkpt>
      <trkpt lat="31.793265" lon="131.477277"><ele>6.8</ele><time>2026-09-25T06:41:56Z</time></trkpt>
      <trkpt lat="31.792678" lon="131.477442"><ele>6.8</ele><time>2026-09-25T06:42:11Z</time></trkpt>
    </trkseg>
  </trk>
</gpx>
