<?xml version="1.0" encoding="UTF-8"?>
<gpx version="1.1" creator="gpx2reel" xmlns="http://www.topografix.com/GPX/1/1">
  <trk><name>Day 6</name>
    <trkseg>
      <trkpt lat="31.790741" lon="131.477789"><ele>4.6</ele><time>2026-09-25T23:17:17Z</time></trkpt>
      <trkpt lat="31.791514" lon="131.477297"><ele>5.6</ele><time>2026-09-25T23:17:37Z</time></trkpt>
      <trkpt lat="31.792702" lon="131.477401"><ele>5.6</ele><time>2026-09-25T23:18:11Z</time></trkpt>
      <trkpt lat="31.793166" lon="131.477241"><ele>6.2</ele><time>2026-09-25T23:18:23Z</time></trkpt>
      <trkpt lat="31.793218" lon="131.477198"><ele>6.2</ele><time>2026-09-25T23:18:27Z</time></trkpt>
      <trkpt lat="31.793157" lon="131.477166"><ele>5.8</ele><time>2026-09-25T23:19:21Z</time></trkpt>
      <trkpt lat="31.793448" lon="131.477039"><ele>6.0</ele><time>2026-09-25T23:20:04Z</time></trkpt>
      <trkpt lat="31.793686" lon="131.476749"><ele>6.0</ele><time>2026-09-25T23:20:13Z</time></trkpt>
      <trkpt lat="31.793857" lon="131.476425"><ele>5.8</ele><time>2026-09-25T23:20:21Z</time></trkpt>
      <trkpt lat="31.793956" lon="131.475902"><ele>6.2</ele><time>2026-09-25T23:20:32Z</time></trkpt>
      <trkpt lat="31.793967" lon="131.475646"><ele>6.0</ele><time>2026-09-25T23:20:37Z</time></trkpt>
      <trkpt lat="31.793860" lon="131.475289"><ele>5.6</ele><time>2026-09-25T23:20:44Z</time></trkpt>
      <trkpt lat="31.793046" lon="131.474629"><ele>4.4</ele><time>2026-09-25T23:21:05Z</time></trkpt>
      <trkpt lat="31.792829" lon="131.474266"><ele>4.8</ele><time>2026-09-25T23:21:14Z</time></trkpt>
      <trkpt lat="31.792589" lon="131.473568"><ele>5.4</ele><time>2026-09-25T23:21:31Z</time></trkpt>
      <trkpt lat="31.791777" lon="131.472179"><ele>6.6</ele><time>2026-09-25T23:22:05Z</time></trkpt>
      <trkpt lat="31.791462" lon="131.470932"><ele>6.4</ele><time>2026-09-25T23:22:37Z</time></trkpt>
      <trkpt lat="31.792029" lon="131.470834"><ele>5.4</ele><time>2026-09-25T23:22:53Z</time></trkpt>
      <trkpt lat="31.793388" lon="131.470276"><ele>8.0</ele><time>2026-09-25T23:23:37Z</time></trkpt>
      <trkpt lat="31.795670" lon="131.469687"><ele>9.0</ele><time>2026-09-25T23:24:36Z</time></trkpt>
      <trkpt lat="31.796027" lon="131.469674"><ele>8.8</ele><time>2026-09-25T23:24:44Z</time></trkpt>
      <trkpt lat="31.796046" lon="131.470049"><ele>9.0</ele><time>2026-09-25T23:24:54Z</time></trkpt>
      <trkpt lat="31.796187" lon="131.470053"><ele>8.8</ele><time>2026-09-25T23:25:38Z</time></trkpt>
      <trkpt lat="31.796064" lon="131.470125"><ele>8.8</ele><time>2026-09-25T23:27:14Z</time></trkpt>
      <trkpt lat="31.796129" lon="131.470090"><ele>8.8</ele><time>2026-09-25T23:27:18Z</time></trkpt>
      <trkpt lat="31.796096" lon="131.469984"><ele>8.8</ele><time>2026-09-25T23:28:14Z</time></trkpt>
      <trkpt lat="31.796131" lon="131.470040"><ele>8.8</ele><time>2026-09-25T23:29:30Z</time></trkpt>
      <trkpt lat="31.796100" lon="131.470080"><ele>8.8</ele><time>2026-09-25T23:30:20Z</time></trkpt>
      <trkpt lat="31.796071" lon="131.469953"><ele>8.8</ele><time>2026-09-25T23:31:32Z</time></trkpt>
      <trkpt lat="31.796044" lon="131.470019"><ele>8.8</ele><time>2026-09-25T23:32:03Z</time></trkpt>
      <trkpt lat="31.796107" lon="131.470088"><ele>8.8</ele><time>2026-09-25T23:33:24Z</time></trkpt>
      <trkpt lat="31.796074" lon="131.469779"><ele>8.4</ele><time>2026-09-25T23:34:06Z</time></trkpt>
      <trkpt lat="31.796384" lon="131.469488"><ele>8.8</ele><time>2026-09-25T23:34:18Z</time></trkpt>
      <trkpt lat="31.800005" lon="131.468516"><ele>8.2</ele><time>2026-09-25T23:35:34Z</time></trkpt>
      <trkpt lat="31.801299" lon="131.468679"><ele>8.6</ele><time>2026-09-25T23:36:04Z</time></trkpt>
      <trkpt lat="31.801751" lon="131.468604"><ele>8.6</ele><time>2026-09-25T23:36:14Z</time></trkpt>
      <trkpt lat="31.802014" lon="131.468464"><ele>8.4</ele><time>2026-09-25T23:36:20Z</time></trkpt>
      <trkpt lat="31.802262" lon="131.468238"><ele>8.2</ele><time>2026-09-25T23:36:26Z</time></trkpt>
      <trkpt lat="31.802500" lon="131.467844"><ele>8.8</ele><time>2026-09-25T23:36:34Z</time></trkpt>
      <trkpt lat="31.803441" lon="131.465607"><ele>10.0</ele><time>2026-09-25T23:37:18Z</time></trkpt>
      <trkpt lat="31.805039" lon="131.462210"><ele>8.4</ele><time>2026-09-25T23:38:16Z</time></trkpt>
      <trkpt lat="31.806552" lon="131.458587"><ele>8.8</ele><time>2026-09-25T23:39:22Z</time></trkpt>
      <trkpt lat="31.806957" lon="131.457756"><ele>9.6</ele><time>2026-09-25T23:39:39Z</time></trkpt>
      <trkpt lat="31.807229" lon="131.457365"><ele>9.2</ele><time>2026-09-25T23:39:48Z</time></trkpt>
      <trkpt lat="31.807883" lon="131.456783"><ele>10.2</ele><time>2026-09-25T23:40:07Z</time></trkpt>
      <trkpt lat="31.809651" lon="131.455493"><ele>11.2</ele><time>2026-09-25T23:40:52Z</time></trkpt>
      <trkpt lat="31.812948" lon="131.453710"><ele>10.8</ele><time>2026-09-25T23:41:59Z</time></trkpt>
      <trkpt lat="31.813394" lon="131.453417"><ele>10.8</ele><time>2026-09-25T23:42:08Z</time></trkpt>
      <trkpt lat="31.813647" lon="131.453110"><ele>10.8</ele><time>2026-09-25T23:42:14Z</time></trkpt>
      <trkpt lat="31.813846" lon="131.452683"><ele>10.8</ele><time>2026-09-25T23:42:21Z</time></trkpt>
      <trkpt lat="31.813914" lon="131.452254"><ele>10.8</ele><time>2026-09-25T23:42:27Z</time></trkpt>
      <trkpt lat="31.813917" lon="131.448716"><ele>8.6</ele><time>2026-09-25T23:43:13Z</time></trkpt>
      <trkpt lat="31.813623" lon="131.445354"><ele>7.8</ele><time>2026-09-25T23:43:55Z</time></trkpt>
      <trkpt lat="31.813557" lon="131.445016"><ele>7.2</ele><time>2026-09-25T23:44:00Z</time></trkpt>
      <trkpt lat="31.813241" lon="131.444563"><ele>8.0</ele><time>2026-09-25T23:44:08Z</time></trkpt>
      <trkpt lat="31.813244" lon="131.444293"><ele>8.8</ele><time>2026-09-25T23:44:12Z</time></trkpt>
      <trkpt lat="31.813463" lon="131.443940"><ele>10.0</ele><time>2026-09-25T23:44:20Z</time></trkpt>
      <trkpt lat="31.814809" lon="131.443257"><ele>10.8</ele><time>2026-09-25T23:44:51Z</time></trkpt>
      <trkpt lat="31.815450" lon="131.443013"><ele>10.0</ele><time>2026-09-25T23:45:02Z</time></trkpt>
      <trkpt lat="31.816551" lon="131.442776"><ele>8.6</ele><time>2026-09-25T23:45:20Z</time></trkpt>
      <trkpt lat="31.817446" lon="131.439309"><ele>3.0</ele><time>2026-09-25T23:46:15Z</time></trkpt>
      <trkpt lat="31.817574" lon="131.439285"><ele>3.4</ele><time>2026-09-25T23:46:18Z</time></trkpt>
      <trkpt lat="31.820503" lon="131.440366"><ele>4.0</ele><time>2026-09-25T23:47:15Z</time></trkpt>
      <trkpt lat="31.821725" lon="131.440215"><ele>2.2</ele><time>2026-09-25T23:47:38Z</time></trkpt>
      <trkpt lat="31.827586" lon="131.437687"><ele>2.0</ele><time>2026-09-25T23:49:32Z</time></trkpt>
      <trkpt lat="31.828445" lon="131.437293"><ele>3.2</ele><time>2026-09-25T23:49:56Z</time></trkpt>
      <trkpt lat="31.828456" lon="131.437223"><ele>3.2</ele><time>2026-09-25T23:50:16Z</time></trkpt>
      <trkpt lat="31.828591" lon="131.437265"><ele>3.2</ele><time>2026-09-25T23:50:27Z</time></trkpt>
      <trkpt lat="31.831252" lon="131.436117"><ele>5.8</ele><time>2026-09-25T23:51:48Z</time></trkpt>
      <trkpt lat="31.831339" lon="131.436054"><ele>6.2</ele><time>2026-09-25T23:51:53Z</time></trkpt>
      <trkpt lat="31.831416" lon="131.435793"><ele>6.4</ele><time>2026-09-25T23:52:02Z</time></trkpt>
      <trkpt lat="31.832464" lon="131.435357"><ele>6.0</ele><time>2026-09-25T23:52:27Z</time></trkpt>
      <trkpt lat="31.832579" lon="131.434739"><ele>6.6</ele><time>2026-09-25T23:52:40Z</time></trkpt>
      <trkpt lat="31.833615" lon="131.434444"><ele>6.8</ele><time>2026-09-25T23:53:07Z</time></trkpt>
      <trkpt lat="31.833848" lon="131.433588"><ele>7.4</ele><time>2026-09-25T23:53:29Z</time></trkpt>
      <trkpt lat="31.834238" lon="131.432620"><ele>9.4</ele><time>2026-09-25T23:53:53Z</time></trkpt>
      <trkpt lat="31.835255" lon="131.430620"><ele>8.8</ele><time>2026-09-25T23:54:31Z</time></trkpt>
      <trkpt lat="31.836038" lon="131.426952"><ele>9.2</ele><time>2026-09-25T23:55:24Z</time></trkpt>
      <trkpt lat="31.836229" lon="131.426402"><ele>10.2</ele><time>2026-09-25T23:55:36Z</time></trkpt>
      <trkpt lat="31.837493" lon="131.424254"><ele>9.2</ele><time>2026-09-25T23:56:15Z</time></trkpt>
      <trkpt lat="31.840631" lon="131.419891"><ele>10.4</ele><time>2026-09-25T23:57:48Z</time></trkpt>
      <trkpt lat="31.842013" lon="131.415721"><ele>13.6</ele><time>2026-09-25T23:59:03Z</time></trkpt>
      <trkpt lat="31.842238" lon="131.414978"><ele>14.2</ele><time>2026-09-25T23:59:17Z</time></trkpt>
      <trkpt lat="31.842362" lon="131.414222"><ele>15.2</ele><time>2026-09-25T23:59:32Z</time></trkpt>
      <trkpt lat="31.842288" lon="131.411947"><ele>17.0</ele><time>2026-09-26T00:00:16Z</time></trkpt>
      <trkpt lat="31.842384" lon="131.410943"><ele>17.8</ele><time>2026-09-26T00:00:36Z</time></trkpt>
      <trkpt lat="31.842902" lon="131.407862"><ele>15.0</ele><time>2026-09-26T00:01:22Z</time></trkpt>
      <trkpt lat="31.843073" lon="131.407173"><ele>14.8</ele><time>2026-09-26T00:01:36Z</time></trkpt>
      <trkpt lat="31.843528" lon="131.406048"><ele>15.2</ele><time>2026-09-26T00:01:56Z</time></trkpt>
      <trkpt lat="31.843686" lon="131.405070"><ele>17.2</ele><time>2026-09-26T00:02:13Z</time></trkpt>
      <trkpt lat="31.843613" lon="131.404029"><ele>18.2</ele><time>2026-09-26T00:02:31Z</time></trkpt>
      <trkpt lat="31.843772" lon="131.402960"><ele>18.8</ele><time>2026-09-26T00:02:50Z</time></trkpt>
      <trkpt lat="31.843580" lon="131.400388"><ele>20.6</ele><time>2026-09-26T00:03:36Z</time></trkpt>
      <trkpt lat="31.843679" lon="131.399837"><ele>21.6</ele><time>2026-09-26T00:03:50Z</time></trkpt>
      <trkpt lat="31.843929" lon="131.399273"><ele>21.8</ele><time>2026-09-26T00:04:05Z</time></trkpt>
      <trkpt lat="31.845169" lon="131.397565"><ele>22.4</ele><time>2026-09-26T00:04:48Z</time></trkpt>
      <trkpt lat="31.845496" lon="131.396980"><ele>22.4</ele><time>2026-09-26T00:05:02Z</time></trkpt>
      <trkpt lat="31.846038" lon="131.393975"><ele>22.6</ele><time>2026-09-26T00:06:12Z</time></trkpt>
      <trkpt lat="31.846227" lon="131.393345"><ele>22.4</ele><time>2026-09-26T00:06:25Z</time></trkpt>
      <trkpt lat="31.849517" lon="131.387452"><ele>22.0</ele><time>2026-09-26T00:08:30Z</time></trkpt>
      <trkpt lat="31.849513" lon="131.386611"><ele>26.4</ele><time>2026-09-26T00:08:47Z</time></trkpt>
      <trkpt lat="31.849725" lon="131.385768"><ele>31.2</ele><time>2026-09-26T00:09:20Z</time></trkpt>
      <trkpt lat="31.849587" lon="131.385100"><ele>35.0</ele><time>2026-09-26T00:09:44Z</time></trkpt>
      <trkpt lat="31.849822" lon="131.383613"><ele>42.8</ele><time>2026-09-26T00:10:55Z</time></trkpt>
      <trkpt lat="31.849665" lon="131.381931"><ele>44.2</ele><time>2026-09-26T00:11:44Z</time></trkpt>
      <trkpt lat="31.849998" lon="131.380748"><ele>47.0</ele><time>2026-09-26T00:12:18Z</time></trkpt>
      <trkpt lat="31.850581" lon="131.379274"><ele>50.0</ele><time>2026-09-26T00:13:01Z</time></trkpt>
      <trkpt lat="31.851391" lon="131.377210"><ele>39.0</ele><time>2026-09-26T00:13:24Z</time></trkpt>
      <trkpt lat="31.852193" lon="131.375381"><ele>44.0</ele><time>2026-09-26T00:13:49Z</time></trkpt>
      <trkpt lat="31.852717" lon="131.374888"><ele>43.4</ele><time>2026-09-26T00:14:02Z</time></trkpt>
      <trkpt lat="31.853558" lon="131.374455"><ele>37.8</ele><time>2026-09-26T00:14:14Z</time></trkpt>
      <trkpt lat="31.854419" lon="131.373902"><ele>37.4</ele><time>2026-09-26T00:14:27Z</time></trkpt>
      <trkpt lat="31.855937" lon="131.373263"><ele>32.0</ele><time>2026-09-26T00:14:48Z</time></trkpt>
      <trkpt lat="31.857020" lon="131.372313"><ele>31.8</ele><time>2026-09-26T00:15:04Z</time></trkpt>
      <trkpt lat="31.857339" lon="131.371813"><ele>33.6</ele><time>2026-09-26T00:15:13Z</time></trkpt>
      <trkpt lat="31.858022" lon="131.369850"><ele>41.8</ele><time>2026-09-26T00:16:17Z</time></trkpt>
      <trkpt lat="31.858672" lon="131.368231"><ele>34.8</ele><time>2026-09-26T00:16:58Z</time></trkpt>
      <trkpt lat="31.857060" lon="131.365917"><ele>40.4</ele><time>2026-09-26T00:17:45Z</time></trkpt>
      <trkpt lat="31.856276" lon="131.364990"><ele>42.8</ele><time>2026-09-26T00:18:11Z</time></trkpt>
      <trkpt lat="31.855360" lon="131.363490"><ele>47.6</ele><time>2026-09-26T00:18:57Z</time></trkpt>
      <trkpt lat="31.853812" lon="131.360453"><ele>61.2</ele><time>2026-09-26T00:21:10Z</time></trkpt>
      <trkpt lat="31.852998" lon="131.358089"><ele>64.2</ele><time>2026-09-26T00:22:17Z</time></trkpt>
      <trkpt lat="31.852661" lon="131.357408"><ele>65.2</ele><time>2026-09-26T00:22:36Z</time></trkpt>
      <trkpt lat="31.851455" lon="131.356238"><ele>67.6</ele><time>2026-09-26T00:23:20Z</time></trkpt>
      <trkpt lat="31.851174" lon="131.355888"><ele>67.8</ele><time>2026-09-26T00:23:40Z</time></trkpt>
      <trkpt lat="31.851242" lon="131.355749"><ele>67.4</ele><time>2026-09-26T00:25:15Z</time></trkpt>
      <trkpt lat="31.851043" lon="131.355915"><ele>67.4</ele><time>2026-09-26T00:26:08Z</time></trkpt>
      <trkpt lat="31.851175" lon="131.355832"><ele>67.4</ele><time>2026-09-26T00:27:07Z</time></trkpt>
      <trkpt lat="31.851143" lon="131.355891"><ele>67.4</ele><time>2026-09-26T00:27:47Z</time></trkpt>
      <trkpt lat="31.851002" lon="131.355723"><ele>68.0</ele><time>2026-09-26T00:28:07Z</time></trkpt>
      <trkpt lat="31.850297" lon="131.354539"><ele>69.2</ele><time>2026-09-26T00:29:01Z</time></trkpt>
      <trkpt lat="31.850356" lon="131.354523"><ele>69.6</ele><time>2026-09-26T00:29:58Z</time></trkpt>
      <trkpt lat="31.850265" lon="131.354504"><ele>69.8</ele><time>2026-09-26T00:31:04Z</time></trkpt>
      <trkpt lat="31.850353" lon="131.354514"><ele>69.8</ele><time>2026-09-26T00:34:36Z</time></trkpt>
      <trkpt lat="31.850232" lon="131.354354"><ele>69.6</ele><time>2026-09-26T00:34:44Z</time></trkpt>
      <trkpt lat="31.850064" lon="131.353857"><ele>70.2</ele><time>2026-09-26T00:34:58Z</time></trkpt>
      <trkpt lat="31.849854" lon="131.352580"><ele>72.4</ele><time>2026-09-26T00:35:31Z</time></trkpt>
      <trkpt lat="31.849668" lon="131.352118"><ele>73.4</ele><time>2026-09-26T00:35:45Z</time></trkpt>
      <trkpt lat="31.849072" lon="131.351092"><ele>75.6</ele><time>2026-09-26T00:36:18Z</time></trkpt>
      <trkpt lat="31.847766" lon="131.349491"><ele>79.0</ele><time>2026-09-26T00:37:10Z</time></trkpt>
      <trkpt lat="31.846755" lon="131.347645"><ele>82.4</ele><time>2026-09-26T00:37:58Z</time></trkpt>
      <trkpt lat="31.845861" lon="131.345816"><ele>89.0</ele><time>2026-09-26T00:39:03Z</time></trkpt>
      <trkpt lat="31.845015" lon="131.344350"><ele>93.2</ele><time>2026-09-26T00:39:52Z</time></trkpt>
      <trkpt lat="31.842845" lon="131.341074"><ele>99.4</ele><time>2026-09-26T00:41:19Z</time></trkpt>
      <trkpt lat="31.841467" lon="131.339310"><ele>108.4</ele><time>2026-09-26T00:42:25Z</time></trkpt>
      <trkpt lat="31.840623" lon="131.337469"><ele>112.0</ele><time>2026-09-26T00:43:26Z</time></trkpt>
      <trkpt lat="31.839580" lon="131.336218"><ele>117.2</ele><time>2026-09-26T00:44:14Z</time></trkpt>
      <trkpt lat="31.838582" lon="131.334822"><ele>120.0</ele><time>2026-09-26T00:44:54Z</time></trkpt>
      <trkpt lat="31.837914" lon="131.333268"><ele>125.6</ele><time>2026-09-26T00:45:40Z</time></trkpt>
      <trkpt lat="31.837374" lon="131.332650"><ele>128.4</ele><time>2026-09-26T00:46:13Z</time></trkpt>
      <trkpt lat="31.837225" lon="131.332108"><ele>128.4</ele><time>2026-09-26T00:46:29Z</time></trkpt>
      <trkpt lat="31.836969" lon="131.328623"><ele>133.0</ele><time>2026-09-26T00:47:45Z</time></trkpt>
      <trkpt lat="31.836745" lon="131.327575"><ele>134.6</ele><time>2026-09-26T00:48:10Z</time></trkpt>
      <trkpt lat="31.833459" lon="131.320701"><ele>145.4</ele><time>2026-09-26T00:52:21Z</time></trkpt>
      <trkpt lat="31.832663" lon="131.319144"><ele>144.6</ele><time>2026-09-26T00:52:52Z</time></trkpt>
      <trkpt lat="31.832689" lon="131.319204"><ele>145.8</ele><time>2026-09-26T00:53:03Z</time></trkpt>
      <trkpt lat="31.831898" lon="131.317827"><ele>139.8</ele><time>2026-09-26T00:54:05Z</time></trkpt>
      <trkpt lat="31.831424" lon="131.316558"><ele>134.8</ele><time>2026-09-26T00:54:17Z</time></trkpt>
      <trkpt lat="31.830925" lon="131.314514"><ele>126.8</ele><time>2026-09-26T00:54:34Z</time></trkpt>
      <trkpt lat="31.830909" lon="131.313026"><ele>123.6</ele><time>2026-09-26T00:54:45Z</time></trkpt>
      <trkpt lat="31.831271" lon="131.303595"><ele>135.8</ele><time>2026-09-26T00:57:13Z</time></trkpt>
      <trkpt lat="31.832528" lon="131.298123"><ele>142.0</ele><time>2026-09-26T00:59:46Z</time></trkpt>
      <trkpt lat="31.833168" lon="131.293126"><ele>146.6</ele><time>2026-09-26T01:01:38Z</time></trkpt>
      <trkpt lat="31.833206" lon="131.292769"><ele>146.4</ele><time>2026-09-26T01:01:47Z</time></trkpt>
      <trkpt lat="31.833146" lon="131.292568"><ele>146.4</ele><time>2026-09-26T01:01:53Z</time></trkpt>
      <trkpt lat="31.833258" lon="131.292366"><ele>146.8</ele><time>2026-09-26T01:01:59Z</time></trkpt>
      <trkpt lat="31.833382" lon="131.291296"><ele>146.6</ele><time>2026-09-26T01:02:23Z</time></trkpt>
      <trkpt lat="31.833250" lon="131.290522"><ele>146.0</ele><time>2026-09-26T01:02:42Z</time></trkpt>
      <trkpt lat="31.831585" lon="131.285095"><ele>131.0</ele><time>2026-09-26T01:03:50Z</time></trkpt>
      <trkpt lat="31.831461" lon="131.284163"><ele>131.0</ele><time>2026-09-26T01:04:03Z</time></trkpt>
      <trkpt lat="31.831482" lon="131.281711"><ele>136.4</ele><time>2026-09-26T01:05:04Z</time></trkpt>
      <trkpt lat="31.831321" lon="131.281009"><ele>137.4</ele><time>2026-09-26T01:05:30Z</time></trkpt>
      <trkpt lat="31.830931" lon="131.280147"><ele>138.6</ele><time>2026-09-26T01:05:58Z</time></trkpt>
      <trkpt lat="31.830565" lon="131.279687"><ele>139.0</ele><time>2026-09-26T01:06:51Z</time></trkpt>
      <trkpt lat="31.830614" lon="131.279658"><ele>139.0</ele><time>2026-09-26T01:07:31Z</time></trkpt>
      <trkpt lat="31.830568" lon="131.279622"><ele>139.0</ele><time>2026-09-26T01:07:51Z</time></trkpt>
      <trkpt lat="31.830556" lon="131.279712"><ele>139.0</ele><time>2026-09-26T01:09:43Z</time></trkpt>
      <trkpt lat="31.830020" lon="131.278995"><ele>139.2</ele><time>2026-09-26T01:10:35Z</time></trkpt>
      <trkpt lat="31.829707" lon="131.278230"><ele>140.4</ele><time>2026-09-26T01:11:03Z</time></trkpt>
      <trkpt lat="31.829623" lon="131.277526"><ele>141.4</ele><time>2026-09-26T01:11:29Z</time></trkpt>
      <trkpt lat="31.829678" lon="131.276385"><ele>143.0</ele><time>2026-09-26T01:12:00Z</time></trkpt>
      <trkpt lat="31.829511" lon="131.274879"><ele>148.6</ele><time>2026-09-26T01:12:47Z</time></trkpt>
      <trkpt lat="31.829387" lon="131.274183"><ele>152.0</ele><time>2026-09-26T01:13:16Z</time></trkpt>
      <trkpt lat="31.829007" lon="131.272847"><ele>158.4</ele><time>2026-09-26T01:14:32Z</time></trkpt>
      <trkpt lat="31.828923" lon="131.272231"><ele>162.6</ele><time>2026-09-26T01:15:02Z</time></trkpt>
      <trkpt lat="31.828996" lon="131.272020"><ele>163.6</ele><time>2026-09-26T01:15:14Z</time></trkpt>
      <trkpt lat="31.829447" lon="131.271606"><ele>166.8</ele><time>2026-09-26T01:15:53Z</time></trkpt>
      <trkpt lat="31.829848" lon="131.271002"><ele>170.4</ele><time>2026-09-26T01:16:30Z</time></trkpt>
      <trkpt lat="31.829830" lon="131.270145"><ele>175.4</ele><time>2026-09-26T01:17:13Z</time></trkpt>
      <trkpt lat="31.829735" lon="131.269767"><ele>178.4</ele><time>2026-09-26T01:17:47Z</time></trkpt>
      <trkpt lat="31.829630" lon="131.269819"><ele>177.8</ele><time>2026-09-26T01:19:53Z</time></trkpt>
      <trkpt lat="31.829750" lon="131.269791"><ele>179.4</ele><time>2026-09-26T01:21:09Z</time></trkpt>
      <trkpt lat="31.829757" lon="131.269714"><ele>179.0</ele><time>2026-09-26T01:21:22Z</time></trkpt>
      <trkpt lat="31.829627" lon="131.269830"><ele>179.0</ele><time>2026-09-26T01:21:47Z</time></trkpt>
      <trkpt lat="31.829681" lon="131.269860"><ele>179.0</ele><time>2026-09-26T01:22:18Z</time></trkpt>
      <trkpt lat="31.829551" lon="131.269886"><ele>179.0</ele><time>2026-09-26T01:23:03Z</time></trkpt>
      <trkpt lat="31.829738" lon="131.269755"><ele>179.0</ele><time>2026-09-26T01:24:00Z</time></trkpt>
      <trkpt lat="31.829643" lon="131.269802"><ele>179.0</ele><time>2026-09-26T01:25:14Z</time></trkpt>
      <trkpt lat="31.829627" lon="131.269156"><ele>182.0</ele><time>2026-09-26T01:27:16Z</time></trkpt>
      <trkpt lat="31.829761" lon="131.268467"><ele>186.4</ele><time>2026-09-26T01:28:20Z</time></trkpt>
      <trkpt lat="31.830206" lon="131.267597"><ele>190.6</ele><time>2026-09-26T01:29:08Z</time></trkpt>
      <trkpt lat="31.831108" lon="131.266642"><ele>195.0</ele><time>2026-09-26T01:30:12Z</time></trkpt>
      <trkpt lat="31.833003" lon="131.265046"><ele>204.8</ele><time>2026-09-26T01:32:18Z</time></trkpt>
      <trkpt lat="31.834676" lon="131.263404"><ele>204.6</ele><time>2026-09-26T01:33:10Z</time></trkpt>
      <trkpt lat="31.834847" lon="131.263119"><ele>205.0</ele><time>2026-09-26T01:33:15Z</time></trkpt>
      <trkpt lat="31.835082" lon="131.261954"><ele>207.8</ele><time>2026-09-26T01:33:42Z</time></trkpt>
      <trkpt lat="31.835063" lon="131.261446"><ele>210.2</ele><time>2026-09-26T01:33:56Z</time></trkpt>
      <trkpt lat="31.834785" lon="131.260679"><ele>212.2</ele><time>2026-09-26T01:34:21Z</time></trkpt>
      <trkpt lat="31.834298" lon="131.259867"><ele>211.0</ele><time>2026-09-26T01:34:45Z</time></trkpt>
      <trkpt lat="31.834310" lon="131.259491"><ele>211.0</ele><time>2026-09-26T01:34:51Z</time></trkpt>
      <trkpt lat="31.835184" lon="131.257473"><ele>202.8</ele><time>2026-09-26T01:35:13Z</time></trkpt>
      <trkpt lat="31.835579" lon="131.256745"><ele>200.2</ele><time>2026-09-26T01:35:20Z</time></trkpt>
      <trkpt lat="31.836067" lon="131.256054"><ele>196.2</ele><time>2026-09-26T01:35:27Z</time></trkpt>
      <trkpt lat="31.836593" lon="131.254785"><ele>196.2</ele><time>2026-09-26T01:35:39Z</time></trkpt>
      <trkpt lat="31.836488" lon="131.254206"><ele>197.6</ele><time>2026-09-26T01:35:45Z</time></trkpt>
      <trkpt lat="31.836013" lon="131.253543"><ele>202.0</ele><time>2026-09-26T01:36:04Z</time></trkpt>
      <trkpt lat="31.835314" lon="131.251586"><ele>210.6</ele><time>2026-09-26T01:37:48Z</time></trkpt>
      <trkpt lat="31.835327" lon="131.251313"><ele>211.6</ele><time>2026-09-26T01:38:06Z</time></trkpt>
      <trkpt lat="31.835743" lon="131.250627"><ele>216.0</ele><time>2026-09-26T01:39:40Z</time></trkpt>
      <trkpt lat="31.835808" lon="131.250317"><ele>218.0</ele><time>2026-09-26T01:39:57Z</time></trkpt>
      <trkpt lat="31.835736" lon="131.249870"><ele>221.0</ele><time>2026-09-26T01:40:22Z</time></trkpt>
      <trkpt lat="31.835303" lon="131.249149"><ele>226.4</ele><time>2026-09-26T01:41:13Z</time></trkpt>
      <trkpt lat="31.835274" lon="131.248837"><ele>228.6</ele><time>2026-09-26T01:41:31Z</time></trkpt>
      <trkpt lat="31.835788" lon="131.247599"><ele>237.0</ele><time>2026-09-26T01:43:01Z</time></trkpt>
      <trkpt lat="31.835986" lon="131.246880"><ele>241.2</ele><time>2026-09-26T01:43:41Z</time></trkpt>
      <trkpt lat="31.835936" lon="131.246615"><ele>243.0</ele><time>2026-09-26T01:43:49Z</time></trkpt>
      <trkpt lat="31.835768" lon="131.246348"><ele>245.4</ele><time>2026-09-26T01:44:03Z</time></trkpt>
      <trkpt lat="31.835664" lon="131.246323"><ele>247.0</ele><time>2026-09-26T01:44:36Z</time></trkpt>
      <trkpt lat="31.835667" lon="131.246209"><ele>246.4</ele><time>2026-09-26T01:44:58Z</time></trkpt>
      <trkpt lat="31.835371" lon="131.245758"><ele>247.8</ele><time>2026-09-26T01:45:47Z</time></trkpt>
      <trkpt lat="31.835295" lon="131.245442"><ele>248.2</ele><time>2026-09-26T01:46:00Z</time></trkpt>
      <trkpt lat="31.835439" lon="131.244947"><ele>249.4</ele><time>2026-09-26T01:46:25Z</time></trkpt>
      <trkpt lat="31.836192" lon="131.244472"><ele>251.0</ele><time>2026-09-26T01:47:03Z</time></trkpt>
      <trkpt lat="31.836386" lon="131.243966"><ele>253.0</ele><time>2026-09-26T01:47:25Z</time></trkpt>
      <trkpt lat="31.836539" lon="131.241904"><ele>258.8</ele><time>2026-09-26T01:48:55Z</time></trkpt>
      <trkpt lat="31.836142" lon="131.239946"><ele>265.0</ele><time>2026-09-26T01:50:18Z</time></trkpt>
      <trkpt lat="31.836122" lon="131.239447"><ele>266.6</ele><time>2026-09-26T01:50:38Z</time></trkpt>
      <trkpt lat="31.836248" lon="131.239069"><ele>267.4</ele><time>2026-09-26T01:50:55Z</time></trkpt>
      <trkpt lat="31.836642" lon="131.238438"><ele>269.6</ele><time>2026-09-26T01:51:19Z</time></trkpt>
      <trkpt lat="31.836707" lon="131.237828"><ele>271.6</ele><time>2026-09-26T01:51:39Z</time></trkpt>
      <trkpt lat="31.836634" lon="131.237609"><ele>271.8</ele><time>2026-09-26T01:51:47Z</time></trkpt>
      <trkpt lat="31.836026" lon="131.236739"><ele>271.4</ele><time>2026-09-26T01:52:17Z</time></trkpt>
      <trkpt lat="31.835321" lon="131.235902"><ele>270.2</ele><time>2026-09-26T01:52:42Z</time></trkpt>
      <trkpt lat="31.835250" lon="131.235427"><ele>269.4</ele><time>2026-09-26T01:52:49Z</time></trkpt>
      <trkpt lat="31.835307" lon="131.235251"><ele>268.8</ele><time>2026-09-26T01:52:51Z</time></trkpt>
      <trkpt lat="31.836103" lon="131.234708"><ele>265.8</ele><time>2026-09-26T01:53:03Z</time></trkpt>
      <trkpt lat="31.836379" lon="131.234465"><ele>264.6</ele><time>2026-09-26T01:53:07Z</time></trkpt>
      <trkpt lat="31.836543" lon="131.234199"><ele>263.2</ele><time>2026-09-26T01:53:10Z</time></trkpt>
      <trkpt lat="31.836878" lon="131.233002"><ele>261.0</ele><time>2026-09-26T01:53:21Z</time></trkpt>
      <trkpt lat="31.836868" lon="131.232696"><ele>260.2</ele><time>2026-09-26T01:53:24Z</time></trkpt>
      <trkpt lat="31.836701" lon="131.232214"><ele>260.6</ele><time>2026-09-26T01:53:29Z</time></trkpt>
      <trkpt lat="31.836492" lon="131.232160"><ele>260.0</ele><time>2026-09-26T01:53:32Z</time></trkpt>
      <trkpt lat="31.835374" lon="131.232358"><ele>258.6</ele><time>2026-09-26T01:53:45Z</time></trkpt>
      <trkpt lat="31.833776" lon="131.232368"><ele>258.4</ele><time>2026-09-26T01:54:09Z</time></trkpt>
      <trkpt lat="31.833459" lon="131.232138"><ele>258.0</ele><time>2026-09-26T01:54:14Z</time></trkpt>
      <trkpt lat="31.833222" lon="131.231778"><ele>256.0</ele><time>2026-09-26T01:54:19Z</time></trkpt>
      <trkpt lat="31.833196" lon="131.231583"><ele>255.6</ele><time>2026-09-26T01:54:21Z</time></trkpt>
      <trkpt lat="31.833377" lon="131.230902"><ele>254.8</ele><time>2026-09-26T01:54:28Z</time></trkpt>
      <trkpt lat="31.834150" lon="131.229852"><ele>253.6</ele><time>2026-09-26T01:54:43Z</time></trkpt>
      <trkpt lat="31.834940" lon="131.229446"><ele>253.4</ele><time>2026-09-26T01:54:55Z</time></trkpt>
      <trkpt lat="31.835085" lon="131.229080"><ele>252.4</ele><time>2026-09-26T01:55:00Z</time></trkpt>
      <trkpt lat="31.834999" lon="131.228773"><ele>253.0</ele><time>2026-09-26T01:55:04Z</time></trkpt>
      <trkpt lat="31.834854" lon="131.228603"><ele>253.0</ele><time>2026-09-26T01:55:07Z</time></trkpt>
      <trkpt lat="31.832747" lon="131.227229"><ele>250.6</ele><time>2026-09-26T01:55:48Z</time></trkpt>
      <trkpt lat="31.830894" lon="131.225771"><ele>247.6</ele><time>2026-09-26T01:56:20Z</time></trkpt>
      <trkpt lat="31.830476" lon="131.225337"><ele>247.4</ele><time>2026-09-26T01:56:28Z</time></trkpt>
      <trkpt lat="31.829926" lon="131.224302"><ele>246.2</ele><time>2026-09-26T01:56:45Z</time></trkpt>
      <trkpt lat="31.829767" lon="131.223863"><ele>247.0</ele><time>2026-09-26T01:56:52Z</time></trkpt>
      <trkpt lat="31.829576" lon="131.221998"><ele>246.2</ele><time>2026-09-26T01:57:22Z</time></trkpt>
      <trkpt lat="31.829359" lon="131.221445"><ele>245.4</ele><time>2026-09-26T01:57:31Z</time></trkpt>
      <trkpt lat="31.829004" lon="131.221225"><ele>246.2</ele><time>2026-09-26T01:57:38Z</time></trkpt>
      <trkpt lat="31.828718" lon="131.221159"><ele>247.0</ele><time>2026-09-26T01:57:44Z</time></trkpt>
      <trkpt lat="31.827805" lon="131.221289"><ele>249.4</ele><time>2026-09-26T01:58:10Z</time></trkpt>
      <trkpt lat="31.827327" lon="131.221134"><ele>250.8</ele><time>2026-09-26T01:58:28Z</time></trkpt>
      <trkpt lat="31.826163" lon="131.219924"><ele>251.8</ele><time>2026-09-26T01:59:06Z</time></trkpt>
      <trkpt lat="31.825755" lon="131.219315"><ele>254.2</ele><time>2026-09-26T01:59:25Z</time></trkpt>
      <trkpt lat="31.824931" lon="131.218648"><ele>259.2</ele><time>2026-09-26T02:00:33Z</time></trkpt>
      <trkpt lat="31.825017" lon="131.218614"><ele>259.6</ele><time>2026-09-26T02:02:26Z</time></trkpt>
      <trkpt lat="31.824905" lon="131.218554"><ele>260.0</ele><time>2026-09-26T02:03:06Z</time></trkpt>
      <trkpt lat="31.824930" lon="131.218467"><ele>259.6</ele><time>2026-09-26T02:03:24Z</time></trkpt>
      <trkpt lat="31.824951" lon="131.218605"><ele>259.6</ele><time>2026-09-26T02:04:02Z</time></trkpt>
      <trkpt lat="31.823321" lon="131.217021"><ele>263.8</ele><time>2026-09-26T02:06:43Z</time></trkpt>
      <trkpt lat="31.822888" lon="131.216784"><ele>264.6</ele><time>2026-09-26T02:07:03Z</time></trkpt>
      <trkpt lat="31.821685" lon="131.216610"><ele>267.2</ele><time>2026-09-26T02:07:57Z</time></trkpt>
      <trkpt lat="31.820825" lon="131.216370"><ele>269.4</ele><time>2026-09-26T02:08:36Z</time></trkpt>
      <trkpt lat="31.820532" lon="131.216196"><ele>270.2</ele><time>2026-09-26T02:08:51Z</time></trkpt>
      <trkpt lat="31.820166" lon="131.215892"><ele>271.2</ele><time>2026-09-26T02:09:12Z</time></trkpt>
      <trkpt lat="31.819704" lon="131.215130"><ele>273.0</ele><time>2026-09-26T02:09:44Z</time></trkpt>
      <trkpt lat="31.819052" lon="131.214400"><ele>273.8</ele><time>2026-09-26T02:10:10Z</time></trkpt>
      <trkpt lat="31.818792" lon="131.214185"><ele>273.6</ele><time>2026-09-26T02:10:17Z</time></trkpt>
      <trkpt lat="31.818210" lon="131.213935"><ele>273.2</ele><time>2026-09-26T02:10:31Z</time></trkpt>
      <trkpt lat="31.816114" lon="131.213762"><ele>275.4</ele><time>2026-09-26T02:11:21Z</time></trkpt>
      <trkpt lat="31.815507" lon="131.213502"><ele>276.2</ele><time>2026-09-26T02:11:39Z</time></trkpt>
      <trkpt lat="31.814072" lon="131.212692"><ele>278.2</ele><time>2026-09-26T02:12:21Z</time></trkpt>
      <trkpt lat="31.813222" lon="131.212466"><ele>279.2</ele><time>2026-09-26T02:12:44Z</time></trkpt>
      <trkpt lat="31.812589" lon="131.212504"><ele>280.2</ele><time>2026-09-26T02:13:01Z</time></trkpt>
      <trkpt lat="31.811119" lon="131.212932"><ele>283.6</ele><time>2026-09-26T02:13:45Z</time></trkpt>
      <trkpt lat="31.810682" lon="131.212963"><ele>284.6</ele><time>2026-09-26T02:14:00Z</time></trkpt>
      <trkpt lat="31.809693" lon="131.212825"><ele>287.6</ele><time>2026-09-26T02:14:33Z</time></trkpt>
      <trkpt lat="31.809096" lon="131.212554"><ele>289.8</ele><time>2026-09-26T02:14:53Z</time></trkpt>
      <trkpt lat="31.808356" lon="131.211932"><ele>291.8</ele><time>2026-09-26T02:15:26Z</time></trkpt>
      <trkpt lat="31.806713" lon="131.209756"><ele>297.8</ele><time>2026-09-26T02:16:57Z</time></trkpt>
      <trkpt lat="31.806728" lon="131.209865"><ele>299.0</ele><time>2026-09-26T02:17:17Z</time></trkpt>
      <trkpt lat="31.806726" lon="131.209753"><ele>298.6</ele><time>2026-09-26T02:18:07Z</time></trkpt>
      <trkpt lat="31.806635" lon="131.209730"><ele>299.0</ele><time>2026-09-26T02:18:33Z</time></trkpt>
      <trkpt lat="31.806718" lon="131.209623"><ele>299.0</ele><time>2026-09-26T02:19:44Z</time></trkpt>
      <trkpt lat="31.806722" lon="131.209700"><ele>297.2</ele><time>2026-09-26T02:19:59Z</time></trkpt>
      <trkpt lat="31.806617" lon="131.209666"><ele>297.2</ele><time>2026-09-26T02:20:16Z</time></trkpt>
      <trkpt lat="31.804156" lon="131.207384"><ele>310.0</ele><time>2026-09-26T02:22:34Z</time></trkpt>
      <trkpt lat="31.803736" lon="131.207253"><ele>312.4</ele><time>2026-09-26T02:23:03Z</time></trkpt>
      <trkpt lat="31.803179" lon="131.207202"><ele>315.0</ele><time>2026-09-26T02:23:36Z</time></trkpt>
      <trkpt lat="31.802672" lon="131.207303"><ele>316.4</ele><time>2026-09-26T02:24:01Z</time></trkpt>
      <trkpt lat="31.802039" lon="131.207179"><ele>319.6</ele><time>2026-09-26T02:24:36Z</time></trkpt>
      <trkpt lat="31.801532" lon="131.207313"><ele>320.0</ele><time>2026-09-26T02:24:56Z</time></trkpt>
      <trkpt lat="31.801079" lon="131.207329"><ele>319.2</ele><time>2026-09-26T02:25:08Z</time></trkpt>
      <trkpt lat="31.797968" lon="131.205840"><ele>307.8</ele><time>2026-09-26T02:25:54Z</time></trkpt>
      <trkpt lat="31.795426" lon="131.204429"><ele>295.4</ele><time>2026-09-26T02:26:25Z</time></trkpt>
      <trkpt lat="31.795029" lon="131.204015"><ele>292.6</ele><time>2026-09-26T02:26:30Z</time></trkpt>
      <trkpt lat="31.793769" lon="131.202296"><ele>282.0</ele><time>2026-09-26T02:26:46Z</time></trkpt>
      <trkpt lat="31.793230" lon="131.201815"><ele>279.6</ele><time>2026-09-26T02:26:52Z</time></trkpt>
      <trkpt lat="31.792662" lon="131.201477"><ele>277.0</ele><time>2026-09-26T02:26:58Z</time></trkpt>
      <trkpt lat="31.790484" lon="131.200675"><ele>268.2</ele><time>2026-09-26T02:27:22Z</time></trkpt>
      <trkpt lat="31.789279" lon="131.199715"><ele>263.4</ele><time>2026-09-26T02:27:37Z</time></trkpt>
      <trkpt lat="31.788842" lon="131.199222"><ele>261.6</ele><time>2026-09-26T02:27:43Z</time></trkpt>
      <trkpt lat="31.788569" lon="131.198653"><ele>259.8</ele><time>2026-09-26T02:27:49Z</time></trkpt>
      <trkpt lat="31.788553" lon="131.194442"><ele>245.6</ele><time>2026-09-26T02:28:26Z</time></trkpt>
      <trkpt lat="31.788226" lon="131.192068"><ele>240.2</ele><time>2026-09-26T02:28:45Z</time></trkpt>
      <trkpt lat="31.788374" lon="131.191599"><ele>238.6</ele><time>2026-09-26T02:28:49Z</time></trkpt>
      <trkpt lat="31.788643" lon="131.191221"><ele>236.6</ele><time>2026-09-26T02:28:53Z</time></trkpt>
      <trkpt lat="31.789339" lon="131.190902"><ele>232.2</ele><time>2026-09-26T02:29:00Z</time></trkpt>
      <trkpt lat="31.791484" lon="131.189661"><ele>225.4</ele><time>2026-09-26T02:29:23Z</time></trkpt>
      <trkpt lat="31.792152" lon="131.189110"><ele>225.0</ele><time>2026-09-26T02:29:32Z</time></trkpt>
      <trkpt lat="31.792385" lon="131.188670"><ele>224.8</ele><time>2026-09-26T02:29:37Z</time></trkpt>
      <trkpt lat="31.792880" lon="131.186534"><ele>221.8</ele><time>2026-09-26T02:30:03Z</time></trkpt>
      <trkpt lat="31.793046" lon="131.185137"><ele>217.0</ele><time>2026-09-26T02:30:16Z</time></trkpt>
      <trkpt lat="31.793249" lon="131.181520"><ele>215.4</ele><time>2026-09-26T02:30:47Z</time></trkpt>
      <trkpt lat="31.793418" lon="131.180832"><ele>213.8</ele><time>2026-09-26T02:30:56Z</time></trkpt>
      <trkpt lat="31.795072" lon="131.178129"><ele>206.2</ele><time>2026-09-26T02:31:35Z</time></trkpt>
      <trkpt lat="31.795893" lon="131.177317"><ele>203.6</ele><time>2026-09-26T02:31:49Z</time></trkpt>
      <trkpt lat="31.797336" lon="131.176397"><ele>198.6</ele><time>2026-09-26T02:32:10Z</time></trkpt>
      <trkpt lat="31.797698" lon="131.175947"><ele>196.2</ele><time>2026-09-26T02:32:16Z</time></trkpt>
      <trkpt lat="31.800509" lon="131.170909"><ele>187.0</ele><time>2026-09-26T02:33:26Z</time></trkpt>
      <trkpt lat="31.800735" lon="131.169515"><ele>189.4</ele><time>2026-09-26T02:33:52Z</time></trkpt>
      <trkpt lat="31.800710" lon="131.168429"><ele>191.4</ele><time>2026-09-26T02:34:18Z</time></trkpt>
      <trkpt lat="31.800590" lon="131.168056"><ele>191.6</ele><time>2026-09-26T02:34:48Z</time></trkpt>
      <trkpt lat="31.800648" lon="131.168124"><ele>190.8</ele><time>2026-09-26T02:35:13Z</time></trkpt>
      <trkpt lat="31.800482" lon="131.167066"><ele>190.2</ele><time>2026-09-26T02:35:38Z</time></trkpt>
      <trkpt lat="31.800009" lon="131.165260"><ele>188.6</ele><time>2026-09-26T02:36:08Z</time></trkpt>
      <trkpt lat="31.799764" lon="131.164635"><ele>188.6</ele><time>2026-09-26T02:36:19Z</time></trkpt>
      <trkpt lat="31.799487" lon="131.164251"><ele>188.8</ele><time>2026-09-26T02:36:41Z</time></trkpt>
      <trkpt lat="31.799515" lon="131.164305"><ele>187.4</ele><time>2026-09-26T02:36:53Z</time></trkpt>
      <trkpt lat="31.799600" lon="131.164174"><ele>187.6</ele><time>2026-09-26T02:37:04Z</time></trkpt>
      <trkpt lat="31.799600" lon="131.163940"><ele>187.8</ele><time>2026-09-26T02:37:10Z</time></trkpt>
      <trkpt lat="31.799297" lon="131.162844"><ele>187.2</ele><time>2026-09-26T02:37:32Z</time></trkpt>
      <trkpt lat="31.799060" lon="131.162461"><ele>186.4</ele><time>2026-09-26T02:37:40Z</time></trkpt>
      <trkpt lat="31.798433" lon="131.160777"><ele>184.0</ele><time>2026-09-26T02:38:08Z</time></trkpt>
      <trkpt lat="31.798097" lon="131.160198"><ele>183.0</ele><time>2026-09-26T02:38:20Z</time></trkpt>
      <trkpt lat="31.798246" lon="131.160236"><ele>182.8</ele><time>2026-09-26T02:38:26Z</time></trkpt>
      <trkpt lat="31.798343" lon="131.160080"><ele>182.8</ele><time>2026-09-26T02:38:30Z</time></trkpt>
      <trkpt lat="31.798908" lon="131.155986"><ele>169.8</ele><time>2026-09-26T02:39:28Z</time></trkpt>
      <trkpt lat="31.798913" lon="131.155012"><ele>167.0</ele><time>2026-09-26T02:39:43Z</time></trkpt>
      <trkpt lat="31.798777" lon="131.154029"><ele>164.0</ele><time>2026-09-26T02:40:04Z</time></trkpt>
      <trkpt lat="31.798833" lon="131.154100"><ele>163.8</ele><time>2026-09-26T02:40:08Z</time></trkpt>
      <trkpt lat="31.798919" lon="131.155003"><ele>165.8</ele><time>2026-09-26T02:40:35Z</time></trkpt>
      <trkpt lat="31.798946" lon="131.155104"><ele>165.8</ele><time>2026-09-26T02:40:42Z</time></trkpt>
      <trkpt lat="31.798980" lon="131.155066"><ele>166.0</ele><time>2026-09-26T02:41:34Z</time></trkpt>
      <trkpt lat="31.798915" lon="131.154994"><ele>166.0</ele><time>2026-09-26T02:44:22Z</time></trkpt>
      <trkpt lat="31.798668" lon="131.152547"><ele>164.8</ele><time>2026-09-26T02:45:02Z</time></trkpt>
      <trkpt lat="31.799411" lon="131.151193"><ele>165.2</ele><time>2026-09-26T02:45:33Z</time></trkpt>
      <trkpt lat="31.799438" lon="131.150839"><ele>165.2</ele><time>2026-09-26T02:45:39Z</time></trkpt>
      <trkpt lat="31.799168" lon="131.150415"><ele>167.0</ele><time>2026-09-26T02:45:51Z</time></trkpt>
      <trkpt lat="31.798023" lon="131.149354"><ele>170.0</ele><time>2026-09-26T02:46:46Z</time></trkpt>
      <trkpt lat="31.797702" lon="131.148867"><ele>169.6</ele><time>2026-09-26T02:46:57Z</time></trkpt>
      <trkpt lat="31.797578" lon="131.148332"><ele>169.6</ele><time>2026-09-26T02:47:07Z</time></trkpt>
      <trkpt lat="31.797217" lon="131.147823"><ele>170.0</ele><time>2026-09-26T02:47:19Z</time></trkpt>
      <trkpt lat="31.797109" lon="131.147089"><ele>170.2</ele><time>2026-09-26T02:47:34Z</time></trkpt>
      <trkpt lat="31.797517" lon="131.147157"><ele>170.6</ele><time>2026-09-26T02:47:44Z</time></trkpt>
      <trkpt lat="31.798881" lon="131.148203"><ele>174.4</ele><time>2026-09-26T02:48:27Z</time></trkpt>
      <trkpt lat="31.799259" lon="131.148343"><ele>176.6</ele><time>2026-09-26T02:48:38Z</time></trkpt>
      <trkpt lat="31.801192" lon="131.147961"><ele>183.6</ele><time>2026-09-26T02:49:59Z</time></trkpt>
      <trkpt lat="31.804585" lon="131.147216"><ele>178.8</ele><time>2026-09-26T02:51:00Z</time></trkpt>
      <trkpt lat="31.806816" lon="131.146864"><ele>178.6</ele><time>2026-09-26T02:51:35Z</time></trkpt>
      <trkpt lat="31.807005" lon="131.146753"><ele>179.8</ele><time>2026-09-26T02:51:40Z</time></trkpt>
      <trkpt lat="31.807595" lon="131.145650"><ele>179.4</ele><time>2026-09-26T02:52:09Z</time></trkpt>
      <trkpt lat="31.808337" lon="131.145659"><ele>177.4</ele><time>2026-09-26T02:52:30Z</time></trkpt>
      <trkpt lat="31.808832" lon="131.145383"><ele>176.6</ele><time>2026-09-26T02:52:38Z</time></trkpt>
      <trkpt lat="31.810800" lon="131.142328"><ele>167.6</ele><time>2026-09-26T02:53:11Z</time></trkpt>
      <trkpt lat="31.811503" lon="131.141858"><ele>163.8</ele><time>2026-09-26T02:53:19Z</time></trkpt>
      <trkpt lat="31.813666" lon="131.141402"><ele>150.6</ele><time>2026-09-26T02:53:36Z</time></trkpt>
      <trkpt lat="31.817612" lon="131.140803"><ele>156.0</ele><time>2026-09-26T02:54:49Z</time></trkpt>
      <trkpt lat="31.817999" lon="131.140683"><ele>156.8</ele><time>2026-09-26T02:55:04Z</time></trkpt>
      <trkpt lat="31.818962" lon="131.140162"><ele>156.6</ele><time>2026-09-26T02:55:32Z</time></trkpt>
      <trkpt lat="31.819651" lon="131.139606"><ele>155.2</ele><time>2026-09-26T02:55:47Z</time></trkpt>
      <trkpt lat="31.820400" lon="131.139301"><ele>154.0</ele><time>2026-09-26T02:55:59Z</time></trkpt>
      <trkpt lat="31.820796" lon="131.139263"><ele>154.2</ele><time>2026-09-26T02:56:05Z</time></trkpt>
      <trkpt lat="31.821144" lon="131.139348"><ele>154.6</ele><time>2026-09-26T02:56:10Z</time></trkpt>
      <trkpt lat="31.822444" lon="131.139949"><ele>159.0</ele><time>2026-09-26T02:56:52Z</time></trkpt>
      <trkpt lat="31.822477" lon="131.139888"><ele>158.8</ele><time>2026-09-26T02:58:35Z</time></trkpt>
      <trkpt lat="31.822632" lon="131.140014"><ele>159.4</ele><time>2026-09-26T02:58:53Z</time></trkpt>
      <trkpt lat="31.823124" lon="131.140143"><ele>159.6</ele><time>2026-09-26T02:59:11Z</time></trkpt>
      <trkpt lat="31.823945" lon="131.140079"><ele>157.8</ele><time>2026-09-26T02:59:34Z</time></trkpt>
      <trkpt lat="31.825124" lon="131.139322"><ele>155.4</ele><time>2026-09-26T02:59:54Z</time></trkpt>
      <trkpt lat="31.825164" lon="131.139203"><ele>155.2</ele><time>2026-09-26T02:59:56Z</time></trkpt>
      <trkpt lat="31.824999" lon="131.138856"><ele>154.2</ele><time>2026-09-26T03:00:03Z</time></trkpt>
      <trkpt lat="31.825001" lon="131.138489"><ele>154.2</ele><time>2026-09-26T03:00:11Z</time></trkpt>
      <trkpt lat="31.825419" lon="131.137953"><ele>154.4</ele><time>2026-09-26T03:00:32Z</time></trkpt>
      <trkpt lat="31.825261" lon="131.137870"><ele>154.2</ele><time>2026-09-26T03:00:48Z</time></trkpt>
      <trkpt lat="31.825289" lon="131.137914"><ele>154.6</ele><time>2026-09-26T03:01:11Z</time></trkpt>
      <trkpt lat="31.825160" lon="131.137955"><ele>154.4</ele><time>2026-09-26T03:01:54Z</time></trkpt>
      <trkpt lat="31.825270" lon="131.137860"><ele>154.0</ele><time>2026-09-26T03:03:12Z</time></trkpt>
      <trkpt lat="31.825213" lon="131.137978"><ele>154.6</ele><time>2026-09-26T03:03:36Z</time></trkpt>
      <trkpt lat="31.825207" lon="131.137815"><ele>154.2</ele><time>2026-09-26T03:05:05Z</time></trkpt>
      <trkpt lat="31.825110" lon="131.137696"><ele>153.4</ele><time>2026-09-26T03:06:24Z</time></trkpt>
      <trkpt lat="31.825239" lon="131.137455"><ele>154.2</ele><time>2026-09-26T03:06:48Z</time></trkpt>
      <trkpt lat="31.825184" lon="131.137294"><ele>154.0</ele><time>2026-09-26T03:07:09Z</time></trkpt>
      <trkpt lat="31.825171" lon="131.137361"><ele>155.0</ele><time>2026-09-26T03:07:18Z</time></trkpt>
      <trkpt lat="31.825353" lon="131.137254"><ele>154.0</ele><time>2026-09-26T03:07:36Z</time></trkpt>
      <trkpt lat="31.825146" lon="131.137327"><ele>154.4</ele><time>2026-09-26T03:08:00Z</time></trkpt>
      <trkpt lat="31.825313" lon="131.137350"><ele>155.8</ele><time>2026-09-26T03:10:52Z</time></trkpt>
      <trkpt lat="31.825236" lon="131.137291"><ele>155.2</ele><time>2026-09-26T03:11:00Z</time></trkpt>
      <trkpt lat="31.825305" lon="131.137803"><ele>156.0</ele><time>2026-09-26T03:14:44Z</time></trkpt>
      <trkpt lat="31.825215" lon="131.137712"><ele>157.0</ele><time>2026-09-26T03:14:49Z</time></trkpt>
      <trkpt lat="31.825195" lon="131.138001"><ele>157.2</ele><time>2026-09-26T03:16:16Z</time></trkpt>
      <trkpt lat="31.825047" lon="131.137950"><ele>157.2</ele><time>2026-09-26T03:16:57Z</time></trkpt>
      <trkpt lat="31.825123" lon="131.137755"><ele>157.2</ele><time>2026-09-26T03:17:26Z</time></trkpt>
      <trkpt lat="31.825176" lon="131.137907"><ele>157.2</ele><time>2026-09-26T03:18:27Z</time></trkpt>
      <trkpt lat="31.825076" lon="131.137861"><ele>157.2</ele><time>2026-09-26T03:18:56Z</time></trkpt>
      <trkpt lat="31.825157" lon="131.137873"><ele>157.2</ele><time>2026-09-26T03:19:53Z</time></trkpt>
      <trkpt lat="31.825167" lon="131.137727"><ele>157.2</ele><time>2026-09-26T03:20:19Z</time></trkpt>
      <trkpt lat="31.825117" lon="131.137879"><ele>157.2</ele><time>2026-09-26T03:22:14Z</time></trkpt>
      <trkpt lat="31.825143" lon="131.137824"><ele>157.2</ele><time>2026-09-26T03:24:06Z</time></trkpt>
      <trkpt lat="31.825164" lon="131.137944"><ele>157.2</ele><time>2026-09-26T03:25:57Z</time></trkpt>
      <trkpt lat="31.825134" lon="131.137893"><ele>157.2</ele><time>2026-09-26T03:26:45Z</time></trkpt>
      <trkpt lat="31.825206" lon="131.137859"><ele>157.2</ele><time>2026-09-26T03:27:50Z</time></trkpt>
      <trkpt lat="31.825128" lon="131.137854"><ele>157.2</ele><time>2026-09-26T03:28:53Z</time></trkpt>
      <trkpt lat="31.825198" lon="131.137783"><ele>157.2</ele><time>2026-09-26T03:29:13Z</time></trkpt>
      <trkpt lat="31.825229" lon="131.137937"><ele>157.2</ele><time>2026-09-26T03:29:44Z</time></trkpt>
      <trkpt lat="31.825176" lon="131.137828"><ele>157.2</ele><time>2026-09-26T03:30:41Z</time></trkpt>
      <trkpt lat="31.825122" lon="131.137928"><ele>157.2</ele><time>2026-09-26T03:31:06Z</time></trkpt>
      <trkpt lat="31.825198" lon="131.137799"><ele>157.2</ele><time>2026-09-26T03:35:05Z</time></trkpt>
      <trkpt lat="31.825211" lon="131.137873"><ele>157.2</ele><time>2026-09-26T03:38:40Z</time></trkpt>
      <trkpt lat="31.825084" lon="131.137903"><ele>157.2</ele><time>2026-09-26T03:38:54Z</time></trkpt>
      <trkpt lat="31.825243" lon="131.137933"><ele>157.2</ele><time>2026-09-26T03:40:05Z</time></trkpt>
      <trkpt lat="31.825154" lon="131.137960"><ele>157.2</ele><time>2026-09-26T03:42:25Z</time></trkpt>
      <trkpt lat="31.825204" lon="131.137888"><ele>157.2</ele><time>2026-09-26T03:43:06Z</time></trkpt>
      <trkpt lat="31.825066" lon="131.137827"><ele>157.2</ele><time>2026-09-26T03:44:26Z</time></trkpt>
      <trkpt lat="31.825185" lon="131.137921"><ele>157.2</ele><time>2026-09-26T03:46:32Z</time></trkpt>
      <trkpt lat="31.825211" lon="131.137841"><ele>157.2</ele><time>2026-09-26T03:47:31Z</time></trkpt>
      <trkpt lat="31.825187" lon="131.137992"><ele>157.2</ele><time>2026-09-26T03:48:24Z</time></trkpt>
      <trkpt lat="31.825166" lon="131.137890"><ele>157.2</ele><time>2026-09-26T03:49:50Z</time></trkpt>
      <trkpt lat="31.825265" lon="131.137870"><ele>157.2</ele><time>2026-09-26T03:52:06Z</time></trkpt>
      <trkpt lat="31.825167" lon="131.137893"><ele>157.2</ele><time>2026-09-26T03:52:25Z</time></trkpt>
      <trkpt lat="31.825184" lon="131.137823"><ele>157.2</ele><time>2026-09-26T03:52:46Z</time></trkpt>
      <trkpt lat="31.825121" lon="131.137900"><ele>157.4</ele><time>2026-09-26T03:53:50Z</time></trkpt>
      <trkpt lat="31.825214" lon="131.137828"><ele>157.8</ele><time>2026-09-26T03:54:23Z</time></trkpt>
      <trkpt lat="31.825128" lon="131.137892"><ele>158.4</ele><time>2026-09-26T03:55:11Z</time></trkpt>
      <trkpt lat="31.825249" lon="131.137972"><ele>157.0</ele><time>2026-09-26T03:55:42Z</time></trkpt>
      <trkpt lat="31.825308" lon="131.137922"><ele>157.0</ele><time>2026-09-26T03:56:15Z</time></trkpt>
      <trkpt lat="31.825260" lon="131.137864"><ele>157.0</ele><time>2026-09-26T03:56:53Z</time></trkpt>
      <trkpt lat="31.825332" lon="131.137963"><ele>156.8</ele><time>2026-09-26T03:57:50Z</time></trkpt>
      <trkpt lat="31.825489" lon="131.137944"><ele>156.4</ele><time>2026-09-26T03:57:59Z</time></trkpt>
      <trkpt lat="31.825662" lon="131.137681"><ele>156.4</ele><time>2026-09-26T03:58:10Z</time></trkpt>
      <trkpt lat="31.825680" lon="131.137413"><ele>155.6</ele><time>2026-09-26T03:58:19Z</time></trkpt>
      <trkpt lat="31.825788" lon="131.137183"><ele>154.8</ele><time>2026-09-26T03:58:54Z</time></trkpt>
      <trkpt lat="31.825578" lon="131.137882"><ele>154.2</ele><time>2026-09-26T03:59:20Z</time></trkpt>
      <trkpt lat="31.825121" lon="131.138318"><ele>154.4</ele><time>2026-09-26T03:59:41Z</time></trkpt>
      <trkpt lat="31.825048" lon="131.138542"><ele>154.2</ele><time>2026-09-26T03:59:47Z</time></trkpt>
      <trkpt lat="31.825076" lon="131.138876"><ele>154.4</ele><time>2026-09-26T03:59:55Z</time></trkpt>
      <trkpt lat="31.825193" lon="131.139146"><ele>154.6</ele><time>2026-09-26T04:00:02Z</time></trkpt>
      <trkpt lat="31.826000" lon="131.138759"><ele>154.2</ele><time>2026-09-26T04:00:23Z</time></trkpt>
      <trkpt lat="31.826671" lon="131.138645"><ele>153.2</ele><time>2026-09-26T04:00:36Z</time></trkpt>
      <trkpt lat="31.827095" lon="131.138679"><ele>152.8</ele><time>2026-09-26T04:00:43Z</time></trkpt>
      <trkpt lat="31.828553" lon="131.139202"><ele>155.6</ele><time>2026-09-26T04:01:29Z</time></trkpt>
      <trkpt lat="31.829080" lon="131.139243"><ele>155.0</ele><time>2026-09-26T04:01:43Z</time></trkpt>
      <trkpt lat="31.829375" lon="131.139177"><ele>153.6</ele><time>2026-09-26T04:01:48Z</time></trkpt>
      <trkpt lat="31.832551" lon="131.138271"><ele>153.2</ele><time>2026-09-26T04:02:33Z</time></trkpt>
      <trkpt lat="31.835106" lon="131.136898"><ele>155.4</ele><time>2026-09-26T04:03:51Z</time></trkpt>
      <trkpt lat="31.835499" lon="131.136570"><ele>152.6</ele><time>2026-09-26T04:03:56Z</time></trkpt>
      <trkpt lat="31.836204" lon="131.135723"><ele>146.4</ele><time>2026-09-26T04:04:05Z</time></trkpt>
      <trkpt lat="31.836591" lon="131.135418"><ele>145.0</ele><time>2026-09-26T04:04:09Z</time></trkpt>
      <trkpt lat="31.837193" lon="131.135178"><ele>143.8</ele><time>2026-09-26T04:04:15Z</time></trkpt>
      <trkpt lat="31.838205" lon="131.135000"><ele>143.4</ele><time>2026-09-26T04:04:26Z</time></trkpt>
      <trkpt lat="31.838891" lon="131.134511"><ele>143.6</ele><time>2026-09-26T04:04:36Z</time></trkpt>
      <trkpt lat="31.839376" lon="131.133980"><ele>143.2</ele><time>2026-09-26T04:04:46Z</time></trkpt>
      <trkpt lat="31.840058" lon="131.132742"><ele>144.2</ele><time>2026-09-26T04:05:06Z</time></trkpt>
      <trkpt lat="31.840397" lon="131.132267"><ele>144.6</ele><time>2026-09-26T04:05:15Z</time></trkpt>
      <trkpt lat="31.841811" lon="131.131414"><ele>144.0</ele><time>2026-09-26T04:05:41Z</time></trkpt>
      <trkpt lat="31.842096" lon="131.131108"><ele>145.4</ele><time>2026-09-26T04:05:49Z</time></trkpt>
      <trkpt lat="31.842257" lon="131.130765"><ele>146.4</ele><time>2026-09-26T04:05:58Z</time></trkpt>
      <trkpt lat="31.842517" lon="131.129411"><ele>145.0</ele><time>2026-09-26T04:06:50Z</time></trkpt>
      <trkpt lat="31.842552" lon="131.129453"><ele>145.0</ele><time>2026-09-26T04:07:10Z</time></trkpt>
      <trkpt lat="31.842514" lon="131.129288"><ele>144.8</ele><time>2026-09-26T04:07:31Z</time></trkpt>
      <trkpt lat="31.842986" lon="131.127629"><ele>144.6</ele><time>2026-09-26T04:08:03Z</time></trkpt>
      <trkpt lat="31.845181" lon="131.122741"><ele>140.6</ele><time>2026-09-26T04:09:23Z</time></trkpt>
      <trkpt lat="31.848932" lon="131.111585"><ele>138.6</ele><time>2026-09-26T04:13:00Z</time></trkpt>
      <trkpt lat="31.850749" lon="131.107447"><ele>133.6</ele><time>2026-09-26T04:14:05Z</time></trkpt>
      <trkpt lat="31.851100" lon="131.104748"><ele>137.8</ele><time>2026-09-26T04:15:15Z</time></trkpt>
      <trkpt lat="31.851192" lon="131.103423"><ele>142.4</ele><time>2026-09-26T04:16:06Z</time></trkpt>
      <trkpt lat="31.851111" lon="131.102737"><ele>142.8</ele><time>2026-09-26T04:16:27Z</time></trkpt>
      <trkpt lat="31.850983" lon="131.102332"><ele>142.6</ele><time>2026-09-26T04:16:39Z</time></trkpt>
      <trkpt lat="31.851024" lon="131.102251"><ele>142.8</ele><time>2026-09-26T04:16:41Z</time></trkpt>
      <trkpt lat="31.852016" lon="131.101496"><ele>152.4</ele><time>2026-09-26T04:17:35Z</time></trkpt>
      <trkpt lat="31.852677" lon="131.101099"><ele>154.0</ele><time>2026-09-26T04:18:16Z</time></trkpt>
      <trkpt lat="31.853862" lon="131.099735"><ele>155.8</ele><time>2026-09-26T04:20:13Z</time></trkpt>
      <trkpt lat="31.854800" lon="131.098037"><ele>157.2</ele><time>2026-09-26T04:20:55Z</time></trkpt>
      <trkpt lat="31.856574" lon="131.093618"><ele>158.4</ele><time>2026-09-26T04:22:28Z</time></trkpt>
      <trkpt lat="31.857186" lon="131.092530"><ele>159.4</ele><time>2026-09-26T04:22:50Z</time></trkpt>
      <trkpt lat="31.857718" lon="131.091320"><ele>160.0</ele><time>2026-09-26T04:23:14Z</time></trkpt>
      <trkpt lat="31.858761" lon="131.090359"><ele>161.8</ele><time>2026-09-26T04:23:41Z</time></trkpt>
      <trkpt lat="31.859764" lon="131.089604"><ele>162.0</ele><time>2026-09-26T04:24:05Z</time></trkpt>
      <trkpt lat="31.861519" lon="131.087241"><ele>161.0</ele><time>2026-09-26T04:24:54Z</time></trkpt>
      <trkpt lat="31.862692" lon="131.085414"><ele>160.2</ele><time>2026-09-26T04:25:28Z</time></trkpt>
      <trkpt lat="31.863424" lon="131.083561"><ele>160.8</ele><time>2026-09-26T04:25:59Z</time></trkpt>
      <trkpt lat="31.864192" lon="131.082540"><ele>161.0</ele><time>2026-09-26T04:26:21Z</time></trkpt>
      <trkpt lat="31.865656" lon="131.080156"><ele>163.4</ele><time>2026-09-26T04:27:10Z</time></trkpt>
      <trkpt lat="31.866623" lon="131.078994"><ele>164.0</ele><time>2026-09-26T04:27:43Z</time></trkpt>
      <trkpt lat="31.867379" lon="131.078351"><ele>164.8</ele><time>2026-09-26T04:28:02Z</time></trkpt>
      <trkpt lat="31.867639" lon="131.077754"><ele>164.2</ele><time>2026-09-26T04:28:14Z</time></trkpt>
      <trkpt lat="31.869997" lon="131.074029"><ele>162.8</ele><time>2026-09-26T04:29:28Z</time></trkpt>
      <trkpt lat="31.871037" lon="131.071719"><ele>159.8</ele><time>2026-09-26T04:30:00Z</time></trkpt>
      <trkpt lat="31.871592" lon="131.070857"><ele>157.2</ele><time>2026-09-26T04:30:10Z</time></trkpt>
      <trkpt lat="31.874164" lon="131.067942"><ele>151.2</ele><time>2026-09-26T04:30:48Z</time></trkpt>
      <trkpt lat="31.877333" lon="131.064009"><ele>149.6</ele><time>2026-09-26T04:32:14Z</time></trkpt>
      <trkpt lat="31.878618" lon="131.063095"><ele>149.4</ele><time>2026-09-26T04:32:50Z</time></trkpt>
      <trkpt lat="31.878761" lon="131.063111"><ele>149.4</ele><time>2026-09-26T04:32:54Z</time></trkpt>
      <trkpt lat="31.878825" lon="131.063372"><ele>149.8</ele><time>2026-09-26T04:33:03Z</time></trkpt>
      <trkpt lat="31.878964" lon="131.063259"><ele>150.2</ele><time>2026-09-26T04:33:23Z</time></trkpt>
      <trkpt lat="31.878882" lon="131.063221"><ele>150.2</ele><time>2026-09-26T04:33:38Z</time></trkpt>
      <trkpt lat="31.878936" lon="131.063317"><ele>150.8</ele><time>2026-09-26T04:34:00Z</time></trkpt>
      <trkpt lat="31.878978" lon="131.063278"><ele>150.4</ele><time>2026-09-26T04:34:17Z</time></trkpt>
      <trkpt lat="31.878905" lon="131.063227"><ele>150.6</ele><time>2026-09-26T04:34:28Z</time></trkpt>
      <trkpt lat="31.878771" lon="131.063333"><ele>151.6</ele><time>2026-09-26T04:35:01Z</time></trkpt>
      <trkpt lat="31.878817" lon="131.063218"><ele>151.4</ele><time>2026-09-26T04:35:37Z</time></trkpt>
      <trkpt lat="31.878440" lon="131.063159"><ele>151.4</ele><time>2026-09-26T04:42:50Z</time></trkpt>
      <trkpt lat="31.878497" lon="131.063229"><ele>151.4</ele><time>2026-09-26T04:42:52Z</time></trkpt>
      <trkpt lat="31.878353" lon="131.063195"><ele>151.4</ele><time>2026-09-26T04:43:02Z</time></trkpt>
      <trkpt lat="31.878331" lon="131.063491"><ele>152.8</ele><time>2026-09-26T04:43:24Z</time></trkpt>
      <trkpt lat="31.878482" lon="131.063256"><ele>152.6</ele><time>2026-09-26T04:43:31Z</time></trkpt>
      <trkpt lat="31.878788" lon="131.063386"><ele>151.6</ele><time>2026-09-26T04:44:04Z</time></trkpt>
      <trkpt lat="31.878985" lon="131.063258"><ele>152.2</ele><time>2026-09-26T04:44:46Z</time></trkpt>
      <trkpt lat="31.879015" lon="131.063350"><ele>150.8</ele><time>2026-09-26T04:45:31Z</time></trkpt>
      <trkpt lat="31.878989" lon="131.063230"><ele>151.4</ele><time>2026-09-26T04:46:27Z</time></trkpt>
      <trkpt lat="31.878814" lon="131.063139"><ele>150.8</ele><time>2026-09-26T04:47:27Z</time></trkpt>
      <trkpt lat="31.878839" lon="131.063081"><ele>151.0</ele><time>2026-09-26T04:47:31Z</time></trkpt>
      <trkpt lat="31.879269" lon="131.062791"><ele>149.8</ele><time>2026-09-26T04:47:46Z</time></trkpt>
      <trkpt lat="31.879538" lon="131.062434"><ele>149.6</ele><time>2026-09-26T04:47:54Z</time></trkpt>
      <trkpt lat="31.881176" lon="131.060930"><ele>151.8</ele><time>2026-09-26T04:48:41Z</time></trkpt>
      <trkpt lat="31.881475" lon="131.060480"><ele>152.4</ele><time>2026-09-26T04:48:54Z</time></trkpt>
      <trkpt lat="31.881954" lon="131.059499"><ele>154.4</ele><time>2026-09-26T04:49:23Z</time></trkpt>
      <trkpt lat="31.882159" lon="131.059253"><ele>154.4</ele><time>2026-09-26T04:49:31Z</time></trkpt>
      <trkpt lat="31.882795" lon="131.058909"><ele>153.6</ele><time>2026-09-26T04:49:45Z</time></trkpt>
      <trkpt lat="31.885016" lon="131.058013"><ele>154.2</ele><time>2026-09-26T04:50:26Z</time></trkpt>
      <trkpt lat="31.886895" lon="131.057592"><ele>154.8</ele><time>2026-09-26T04:51:00Z</time></trkpt>
      <trkpt lat="31.888364" lon="131.056976"><ele>155.6</ele><time>2026-09-26T04:51:29Z</time></trkpt>
      <trkpt lat="31.890169" lon="131.056447"><ele>153.4</ele><time>2026-09-26T04:51:56Z</time></trkpt>
      <trkpt lat="31.890434" lon="131.056238"><ele>153.4</ele><time>2026-09-26T04:52:00Z</time></trkpt>
      <trkpt lat="31.893975" lon="131.050407"><ele>154.2</ele><time>2026-09-26T04:53:44Z</time></trkpt>
      <trkpt lat="31.894725" lon="131.049095"><ele>154.6</ele><time>2026-09-26T04:54:17Z</time></trkpt>
      <trkpt lat="31.895103" lon="131.048267"><ele>156.8</ele><time>2026-09-26T04:54:40Z</time></trkpt>
      <trkpt lat="31.895302" lon="131.048040"><ele>157.6</ele><time>2026-09-26T04:54:49Z</time></trkpt>
      <trkpt lat="31.896806" lon="131.047266"><ele>159.6</ele><time>2026-09-26T04:55:27Z</time></trkpt>
      <trkpt lat="31.898570" lon="131.046044"><ele>161.6</ele><time>2026-09-26T04:56:05Z</time></trkpt>
      <trkpt lat="31.898961" lon="131.045960"><ele>162.8</ele><time>2026-09-26T04:56:15Z</time></trkpt>
      <trkpt lat="31.900157" lon="131.046204"><ele>163.0</ele><time>2026-09-26T04:56:41Z</time></trkpt>
      <trkpt lat="31.900446" lon="131.046110"><ele>162.2</ele><time>2026-09-26T04:56:45Z</time></trkpt>
      <trkpt lat="31.900699" lon="131.045885"><ele>161.0</ele><time>2026-09-26T04:56:49Z</time></trkpt>
      <trkpt lat="31.902013" lon="131.044072"><ele>160.6</ele><time>2026-09-26T04:57:15Z</time></trkpt>
      <trkpt lat="31.902502" lon="131.043642"><ele>160.0</ele><time>2026-09-26T04:57:23Z</time></trkpt>
      <trkpt lat="31.905092" lon="131.042760"><ele>161.6</ele><time>2026-09-26T04:58:08Z</time></trkpt>
      <trkpt lat="31.905538" lon="131.042342"><ele>162.0</ele><time>2026-09-26T04:58:20Z</time></trkpt>
      <trkpt lat="31.905714" lon="131.042033"><ele>161.6</ele><time>2026-09-26T04:58:26Z</time></trkpt>
      <trkpt lat="31.905823" lon="131.041529"><ele>161.8</ele><time>2026-09-26T04:58:34Z</time></trkpt>
      <trkpt lat="31.905808" lon="131.039632"><ele>162.4</ele><time>2026-09-26T04:59:02Z</time></trkpt>
      <trkpt lat="31.906339" lon="131.037566"><ele>163.0</ele><time>2026-09-26T04:59:35Z</time></trkpt>
      <trkpt lat="31.907025" lon="131.036557"><ele>164.0</ele><time>2026-09-26T04:59:56Z</time></trkpt>
      <trkpt lat="31.908816" lon="131.034313"><ele>165.2</ele><time>2026-09-26T05:00:53Z</time></trkpt>
      <trkpt lat="31.908489" lon="131.033349"><ele>167.6</ele><time>2026-09-26T05:01:24Z</time></trkpt>
      <trkpt lat="31.907969" lon="131.032308"><ele>168.4</ele><time>2026-09-26T05:01:57Z</time></trkpt>
      <trkpt lat="31.908066" lon="131.032231"><ele>168.8</ele><time>2026-09-26T05:02:07Z</time></trkpt>
      <trkpt lat="31.907875" lon="131.032277"><ele>169.0</ele><time>2026-09-26T05:02:16Z</time></trkpt>
      <trkpt lat="31.907768" lon="131.032070"><ele>170.6</ele><time>2026-09-26T05:02:25Z</time></trkpt>
      <trkpt lat="31.908328" lon="131.030933"><ele>184.0</ele><time>2026-09-26T05:04:31Z</time></trkpt>
      <trkpt lat="31.908386" lon="131.030544"><ele>188.0</ele><time>2026-09-26T05:05:06Z</time></trkpt>
      <trkpt lat="31.908749" lon="131.029909"><ele>195.8</ele><time>2026-09-26T05:06:11Z</time></trkpt>
      <trkpt lat="31.908722" lon="131.029780"><ele>196.8</ele><time>2026-09-26T05:06:31Z</time></trkpt>
      <trkpt lat="31.908620" lon="131.029772"><ele>197.8</ele><time>2026-09-26T05:08:25Z</time></trkpt>
      <trkpt lat="31.908696" lon="131.029779"><ele>198.0</ele><time>2026-09-26T05:09:15Z</time></trkpt>
      <trkpt lat="31.908354" lon="131.028848"><ele>207.2</ele><time>2026-09-26T05:10:46Z</time></trkpt>
      <trkpt lat="31.908292" lon="131.028231"><ele>209.6</ele><time>2026-09-26T05:11:24Z</time></trkpt>
      <trkpt lat="31.907954" lon="131.027880"><ele>210.0</ele><time>2026-09-26T05:11:47Z</time></trkpt>
      <trkpt lat="31.907926" lon="131.027728"><ele>210.2</ele><time>2026-09-26T05:11:52Z</time></trkpt>
      <trkpt lat="31.908114" lon="131.027032"><ele>210.6</ele><time>2026-09-26T05:12:19Z</time></trkpt>
      <trkpt lat="31.908537" lon="131.026173"><ele>209.2</ele><time>2026-09-26T05:12:43Z</time></trkpt>
      <trkpt lat="31.908554" lon="131.025996"><ele>208.4</ele><time>2026-09-26T05:12:45Z</time></trkpt>
      <trkpt lat="31.908349" lon="131.025339"><ele>208.0</ele><time>2026-09-26T05:12:54Z</time></trkpt>
      <trkpt lat="31.908410" lon="131.025219"><ele>208.4</ele><time>2026-09-26T05:12:56Z</time></trkpt>
      <trkpt lat="31.908888" lon="131.025012"><ele>211.4</ele><time>2026-09-26T05:13:13Z</time></trkpt>
      <trkpt lat="31.908972" lon="131.024773"><ele>212.0</ele><time>2026-09-26T05:13:23Z</time></trkpt>
      <trkpt lat="31.908651" lon="131.024337"><ele>212.6</ele><time>2026-09-26T05:13:40Z</time></trkpt>
      <trkpt lat="31.908608" lon="131.024067"><ele>212.8</ele><time>2026-09-26T05:13:47Z</time></trkpt>
      <trkpt lat="31.908757" lon="131.022974"><ele>213.8</ele><time>2026-09-26T05:14:13Z</time></trkpt>
      <trkpt lat="31.908676" lon="131.022310"><ele>214.0</ele><time>2026-09-26T05:14:28Z</time></trkpt>
      <trkpt lat="31.908878" lon="131.021147"><ele>215.8</ele><time>2026-09-26T05:14:56Z</time></trkpt>
      <trkpt lat="31.909371" lon="131.019654"><ele>216.2</ele><time>2026-09-26T05:15:30Z</time></trkpt>
      <trkpt lat="31.909456" lon="131.019173"><ele>216.4</ele><time>2026-09-26T05:15:42Z</time></trkpt>
      <trkpt lat="31.909417" lon="131.017649"><ele>218.6</ele><time>2026-09-26T05:16:20Z</time></trkpt>
      <trkpt lat="31.908821" lon="131.015001"><ele>223.4</ele><time>2026-09-26T05:17:40Z</time></trkpt>
      <trkpt lat="31.907613" lon="131.013370"><ele>223.6</ele><time>2026-09-26T05:18:36Z</time></trkpt>
      <trkpt lat="31.907044" lon="131.012380"><ele>224.6</ele><time>2026-09-26T05:19:19Z</time></trkpt>
      <trkpt lat="31.906757" lon="131.012129"><ele>224.4</ele><time>2026-09-26T05:19:34Z</time></trkpt>
      <trkpt lat="31.906326" lon="131.012180"><ele>226.0</ele><time>2026-09-26T05:19:53Z</time></trkpt>
      <trkpt lat="31.905036" lon="131.011916"><ele>227.4</ele><time>2026-09-26T05:20:45Z</time></trkpt>
      <trkpt lat="31.904333" lon="131.011510"><ele>227.8</ele><time>2026-09-26T05:21:15Z</time></trkpt>
      <trkpt lat="31.903878" lon="131.011124"><ele>227.8</ele><time>2026-09-26T05:21:37Z</time></trkpt>
      <trkpt lat="31.903373" lon="131.011156"><ele>228.0</ele><time>2026-09-26T05:21:57Z</time></trkpt>
      <trkpt lat="31.902919" lon="131.011069"><ele>228.8</ele><time>2026-09-26T05:22:16Z</time></trkpt>
      <trkpt lat="31.902643" lon="131.010428"><ele>231.0</ele><time>2026-09-26T05:23:02Z</time></trkpt>
      <trkpt lat="31.902275" lon="131.009949"><ele>231.6</ele><time>2026-09-26T05:23:54Z</time></trkpt>
      <trkpt lat="31.902331" lon="131.009988"><ele>232.8</ele><time>2026-09-26T05:24:44Z</time></trkpt>
      <trkpt lat="31.902341" lon="131.009901"><ele>232.4</ele><time>2026-09-26T05:24:59Z</time></trkpt>
      <trkpt lat="31.902280" lon="131.009978"><ele>233.0</ele><time>2026-09-26T05:26:06Z</time></trkpt>
      <trkpt lat="31.902555" lon="131.009542"><ele>232.6</ele><time>2026-09-26T05:26:35Z</time></trkpt>
      <trkpt lat="31.903073" lon="131.008967"><ele>228.0</ele><time>2026-09-26T05:26:51Z</time></trkpt>
      <trkpt lat="31.904338" lon="131.008095"><ele>215.4</ele><time>2026-09-26T05:27:07Z</time></trkpt>
      <trkpt lat="31.904992" lon="131.007387"><ele>207.2</ele><time>2026-09-26T05:27:16Z</time></trkpt>
      <trkpt lat="31.905364" lon="131.007106"><ele>205.0</ele><time>2026-09-26T05:27:21Z</time></trkpt>
      <trkpt lat="31.906076" lon="131.006967"><ele>203.0</ele><time>2026-09-26T05:27:29Z</time></trkpt>
      <trkpt lat="31.907620" lon="131.007370"><ele>196.6</ele><time>2026-09-26T05:27:49Z</time></trkpt>
      <trkpt lat="31.908374" lon="131.007216"><ele>194.4</ele><time>2026-09-26T05:28:00Z</time></trkpt>
      <trkpt lat="31.908481" lon="131.007112"><ele>194.4</ele><time>2026-09-26T05:28:02Z</time></trkpt>
      <trkpt lat="31.908504" lon="131.006940"><ele>194.4</ele><time>2026-09-26T05:28:04Z</time></trkpt>
      <trkpt lat="31.908128" lon="131.004896"><ele>196.8</ele><time>2026-09-26T05:28:37Z</time></trkpt>
      <trkpt lat="31.907964" lon="131.004574"><ele>197.0</ele><time>2026-09-26T05:28:43Z</time></trkpt>
      <trkpt lat="31.907651" lon="131.004291"><ele>197.2</ele><time>2026-09-26T05:28:51Z</time></trkpt>
      <trkpt lat="31.906258" lon="131.003546"><ele>195.6</ele><time>2026-09-26T05:29:22Z</time></trkpt>
      <trkpt lat="31.905123" lon="131.002018"><ele>195.0</ele><time>2026-09-26T05:29:54Z</time></trkpt>
      <trkpt lat="31.904358" lon="131.001308"><ele>192.4</ele><time>2026-09-26T05:30:07Z</time></trkpt>
      <trkpt lat="31.903193" lon="131.000874"><ele>194.2</ele><time>2026-09-26T05:30:31Z</time></trkpt>
      <trkpt lat="31.902791" lon="131.000547"><ele>193.6</ele><time>2026-09-26T05:30:42Z</time></trkpt>
      <trkpt lat="31.901562" lon="130.998835"><ele>195.8</ele><time>2026-09-26T05:31:25Z</time></trkpt>
      <trkpt lat="31.901420" lon="130.998502"><ele>196.2</ele><time>2026-09-26T05:31:31Z</time></trkpt>
      <trkpt lat="31.901225" lon="130.997464"><ele>196.4</ele><time>2026-09-26T05:31:48Z</time></trkpt>
      <trkpt lat="31.901031" lon="130.997022"><ele>196.2</ele><time>2026-09-26T05:31:56Z</time></trkpt>
      <trkpt lat="31.899334" lon="130.995719"><ele>199.0</ele><time>2026-09-26T05:32:45Z</time></trkpt>
      <trkpt lat="31.898953" lon="130.995305"><ele>199.8</ele><time>2026-09-26T05:33:00Z</time></trkpt>
      <trkpt lat="31.898200" lon="130.993924"><ele>202.0</ele><time>2026-09-26T05:33:42Z</time></trkpt>
      <trkpt lat="31.898202" lon="130.993838"><ele>202.0</ele><time>2026-09-26T05:33:45Z</time></trkpt>
      <trkpt lat="31.898361" lon="130.993781"><ele>201.2</ele><time>2026-09-26T05:33:51Z</time></trkpt>
      <trkpt lat="31.898389" lon="130.993618"><ele>200.4</ele><time>2026-09-26T05:33:59Z</time></trkpt>
      <trkpt lat="31.898425" lon="130.993659"><ele>200.4</ele><time>2026-09-26T05:34:24Z</time></trkpt>
      <trkpt lat="31.898323" lon="130.993582"><ele>201.4</ele><time>2026-09-26T05:35:06Z</time></trkpt>
      <trkpt lat="31.898467" lon="130.993549"><ele>201.6</ele><time>2026-09-26T05:37:44Z</time></trkpt>
      <trkpt lat="31.898353" lon="130.993606"><ele>201.4</ele><time>2026-09-26T05:38:06Z</time></trkpt>
      <trkpt lat="31.898433" lon="130.993672"><ele>200.2</ele><time>2026-09-26T05:38:46Z</time></trkpt>
      <trkpt lat="31.898335" lon="130.993586"><ele>200.4</ele><time>2026-09-26T05:39:15Z</time></trkpt>
      <trkpt lat="31.898420" lon="130.993706"><ele>201.4</ele><time>2026-09-26T05:40:09Z</time></trkpt>
      <trkpt lat="31.898321" lon="130.993713"><ele>201.4</ele><time>2026-09-26T05:40:46Z</time></trkpt>
      <trkpt lat="31.898414" lon="130.993645"><ele>201.4</ele><time>2026-09-26T05:41:20Z</time></trkpt>
      <trkpt lat="31.898359" lon="130.993601"><ele>201.4</ele><time>2026-09-26T05:41:46Z</time></trkpt>
      <trkpt lat="31.898335" lon="130.993682"><ele>202.2</ele><time>2026-09-26T05:42:18Z</time></trkpt>
      <trkpt lat="31.898319" lon="130.993552"><ele>203.8</ele><time>2026-09-26T05:43:38Z</time></trkpt>
      <trkpt lat="31.898311" lon="130.993644"><ele>202.4</ele><time>2026-09-26T05:44:08Z</time></trkpt>
      <trkpt lat="31.898435" lon="130.993674"><ele>202.2</ele><time>2026-09-26T05:46:40Z</time></trkpt>
      <trkpt lat="31.898307" lon="130.993614"><ele>202.6</ele><time>2026-09-26T05:47:04Z</time></trkpt>
      <trkpt lat="31.898347" lon="130.993806"><ele>200.6</ele><time>2026-09-26T05:53:23Z</time></trkpt>
      <trkpt lat="31.898206" lon="130.993824"><ele>201.4</ele><time>2026-09-26T05:53:34Z</time></trkpt>
      <trkpt lat="31.898101" lon="130.993737"><ele>201.6</ele><time>2026-09-26T05:53:41Z</time></trkpt>
      <trkpt lat="31.896957" lon="130.991788"><ele>203.4</ele><time>2026-09-26T05:54:54Z</time></trkpt>
      <trkpt lat="31.895765" lon="130.990606"><ele>204.0</ele><time>2026-09-26T05:55:52Z</time></trkpt>
      <trkpt lat="31.894895" lon="130.988717"><ele>207.8</ele><time>2026-09-26T05:57:03Z</time></trkpt>
      <trkpt lat="31.894537" lon="130.987750"><ele>211.8</ele><time>2026-09-26T05:57:48Z</time></trkpt>
      <trkpt lat="31.894488" lon="130.986058"><ele>220.4</ele><time>2026-09-26T05:59:19Z</time></trkpt>
      <trkpt lat="31.895259" lon="130.984665"><ele>220.0</ele><time>2026-09-26T06:00:12Z</time></trkpt>
      <trkpt lat="31.895949" lon="130.982199"><ele>224.6</ele><time>2026-09-26T06:01:26Z</time></trkpt>
      <trkpt lat="31.895969" lon="130.981881"><ele>225.2</ele><time>2026-09-26T06:01:34Z</time></trkpt>
      <trkpt lat="31.895766" lon="130.981433"><ele>225.4</ele><time>2026-09-26T06:01:47Z</time></trkpt>
      <trkpt lat="31.894774" lon="130.979810"><ele>228.8</ele><time>2026-09-26T06:02:45Z</time></trkpt>
      <trkpt lat="31.894622" lon="130.979427"><ele>230.6</ele><time>2026-09-26T06:03:05Z</time></trkpt>
      <trkpt lat="31.894609" lon="130.979088"><ele>232.4</ele><time>2026-09-26T06:03:19Z</time></trkpt>
      <trkpt lat="31.895032" lon="130.977246"><ele>237.2</ele><time>2026-09-26T06:04:40Z</time></trkpt>
      <trkpt lat="31.894997" lon="130.976968"><ele>238.2</ele><time>2026-09-26T06:04:49Z</time></trkpt>
      <trkpt lat="31.893598" lon="130.974682"><ele>248.4</ele><time>2026-09-26T06:06:50Z</time></trkpt>
      <trkpt lat="31.893545" lon="130.974243"><ele>249.8</ele><time>2026-09-26T06:07:11Z</time></trkpt>
      <trkpt lat="31.893601" lon="130.972593"><ele>252.2</ele><time>2026-09-26T06:07:57Z</time></trkpt>
      <trkpt lat="31.893495" lon="130.971791"><ele>256.2</ele><time>2026-09-26T06:10:18Z</time></trkpt>
      <trkpt lat="31.893221" lon="130.970975"><ele>260.2</ele><time>2026-09-26T06:11:03Z</time></trkpt>
      <trkpt lat="31.893200" lon="130.970359"><ele>264.0</ele><time>2026-09-26T06:11:42Z</time></trkpt>
      <trkpt lat="31.893083" lon="130.969695"><ele>269.2</ele><time>2026-09-26T06:12:26Z</time></trkpt>
      <trkpt lat="31.892520" lon="130.968850"><ele>278.4</ele><time>2026-09-26T06:13:45Z</time></trkpt>
      <trkpt lat="31.892213" lon="130.968742"><ele>280.6</ele><time>2026-09-26T06:14:35Z</time></trkpt>
      <trkpt lat="31.891843" lon="130.969101"><ele>282.2</ele><time>2026-09-26T06:15:02Z</time></trkpt>
      <trkpt lat="31.891660" lon="130.970121"><ele>286.6</ele><time>2026-09-26T06:15:54Z</time></trkpt>
      <trkpt lat="31.891651" lon="130.970593"><ele>288.2</ele><time>2026-09-26T06:16:17Z</time></trkpt>
      <trkpt lat="31.891437" lon="130.971225"><ele>290.6</ele><time>2026-09-26T06:16:52Z</time></trkpt>
      <trkpt lat="31.890304" lon="130.972780"><ele>299.8</ele><time>2026-09-26T06:18:25Z</time></trkpt>
      <trkpt lat="31.889191" lon="130.974551"><ele>311.2</ele><time>2026-09-26T06:20:13Z</time></trkpt>
      <trkpt lat="31.888883" lon="130.974904"><ele>313.8</ele><time>2026-09-26T06:20:41Z</time></trkpt>
      <trkpt lat="31.887899" lon="130.975562"><ele>318.0</ele><time>2026-09-26T06:21:57Z</time></trkpt>
      <trkpt lat="31.886776" lon="130.976901"><ele>325.2</ele><time>2026-09-26T06:23:17Z</time></trkpt>
      <trkpt lat="31.886426" lon="130.977112"><ele>326.8</ele><time>2026-09-26T06:23:36Z</time></trkpt>
      <trkpt lat="31.885558" lon="130.977158"><ele>330.8</ele><time>2026-09-26T06:24:16Z</time></trkpt>
      <trkpt lat="31.884811" lon="130.977313"><ele>334.2</ele><time>2026-09-26T06:24:54Z</time></trkpt>
      <trkpt lat="31.884359" lon="130.977233"><ele>336.8</ele><time>2026-09-26T06:25:24Z</time></trkpt>
      <trkpt lat="31.884781" lon="130.977004"><ele>341.2</ele><time>2026-09-26T06:26:18Z</time></trkpt>
      <trkpt lat="31.885334" lon="130.977000"><ele>343.8</ele><time>2026-09-26T06:26:58Z</time></trkpt>
      <trkpt lat="31.886066" lon="130.976538"><ele>347.8</ele><time>2026-09-26T06:27:37Z</time></trkpt>
      <trkpt lat="31.886857" lon="130.975372"><ele>349.8</ele><time>2026-09-26T06:28:33Z</time></trkpt>
      <trkpt lat="31.887685" lon="130.974584"><ele>347.6</ele><time>2026-09-26T06:28:56Z</time></trkpt>
      <trkpt lat="31.888483" lon="130.973345"><ele>343.2</ele><time>2026-09-26T06:29:16Z</time></trkpt>
      <trkpt lat="31.888646" lon="130.972975"><ele>343.2</ele><time>2026-09-26T06:29:20Z</time></trkpt>
      <trkpt lat="31.888858" lon="130.971942"><ele>347.8</ele><time>2026-09-26T06:29:37Z</time></trkpt>
      <trkpt lat="31.888904" lon="130.971130"><ele>354.4</ele><time>2026-09-26T06:30:17Z</time></trkpt>
      <trkpt lat="31.888803" lon="130.969024"><ele>362.6</ele><time>2026-09-26T06:32:37Z</time></trkpt>
      <trkpt lat="31.888383" lon="130.967885"><ele>371.4</ele><time>2026-09-26T06:33:31Z</time></trkpt>
      <trkpt lat="31.887984" lon="130.966688"><ele>368.4</ele><time>2026-09-26T06:34:05Z</time></trkpt>
      <trkpt lat="31.887998" lon="130.966252"><ele>366.0</ele><time>2026-09-26T06:34:11Z</time></trkpt>
      <trkpt lat="31.888310" lon="130.965542"><ele>362.8</ele><time>2026-09-26T06:34:19Z</time></trkpt>
      <trkpt lat="31.888688" lon="130.964055"><ele>356.6</ele><time>2026-09-26T06:34:35Z</time></trkpt>
      <trkpt lat="31.888708" lon="130.963745"><ele>353.4</ele><time>2026-09-26T06:34:39Z</time></trkpt>
      <trkpt lat="31.888573" lon="130.963499"><ele>350.2</ele><time>2026-09-26T06:34:43Z</time></trkpt>
      <trkpt lat="31.888273" lon="130.963508"><ele>343.6</ele><time>2026-09-26T06:34:48Z</time></trkpt>
      <trkpt lat="31.888127" lon="130.963625"><ele>340.4</ele><time>2026-09-26T06:34:52Z</time></trkpt>
      <trkpt lat="31.888037" lon="130.964760"><ele>333.0</ele><time>2026-09-26T06:35:16Z</time></trkpt>
      <trkpt lat="31.887932" lon="130.965129"><ele>330.8</ele><time>2026-09-26T06:35:24Z</time></trkpt>
    </trkseg>
  </trk>
</gpx>
