<?xml version="1.0" encoding="UTF-8"?>
<gpx version="1.1" creator="gpx2reel" xmlns="http://www.topografix.com/GPX/1/1">
  <trk><name>Day 9</name>
    <trkseg>
      <trkpt lat="32.507707" lon="130.602592"><ele>7.6</ele><time>2026-10-01T00:05:30Z</time></trkpt>
      <trkpt lat="32.508487" lon="130.602594"><ele>7.2</ele><time>2026-10-01T00:05:47Z</time></trkpt>
      <trkpt lat="32.508451" lon="130.602435"><ele>7.4</ele><time>2026-10-01T00:06:03Z</time></trkpt>
      <trkpt lat="32.508750" lon="130.602558"><ele>7.0</ele><time>2026-10-01T00:06:24Z</time></trkpt>
      <trkpt lat="32.510358" lon="130.602703"><ele>7.0</ele><time>2026-10-01T00:06:55Z</time></trkpt>
      <trkpt lat="32.512791" lon="130.602725"><ele>6.8</ele><time>2026-10-01T00:07:52Z</time></trkpt>
      <trkpt lat="32.513238" lon="130.602838"><ele>6.8</ele><time>2026-10-01T00:08:03Z</time></trkpt>
      <trkpt lat="32.513832" lon="130.602845"><ele>7.0</ele><time>2026-10-01T00:08:16Z</time></trkpt>
      <trkpt lat="32.513473" lon="130.602371"><ele>7.8</ele><time>2026-10-01T00:08:30Z</time></trkpt>
      <trkpt lat="32.513506" lon="130.602146"><ele>7.4</ele><time>2026-10-01T00:08:36Z</time></trkpt>
      <trkpt lat="32.515824" lon="130.599342"><ele>8.0</ele><time>2026-10-01T00:09:45Z</time></trkpt>
      <trkpt lat="32.515979" lon="130.599252"><ele>8.2</ele><time>2026-10-01T00:09:50Z</time></trkpt>
      <trkpt lat="32.520370" lon="130.600023"><ele>7.2</ele><time>2026-10-01T00:11:13Z</time></trkpt>
      <trkpt lat="32.520533" lon="130.599912"><ele>7.4</ele><time>2026-10-01T00:11:26Z</time></trkpt>
      <trkpt lat="32.521184" lon="130.600135"><ele>8.8</ele><time>2026-10-01T00:12:41Z</time></trkpt>
      <trkpt lat="32.523393" lon="130.600538"><ele>8.6</ele><time>2026-10-01T00:13:34Z</time></trkpt>
      <trkpt lat="32.527088" lon="130.601117"><ele>8.8</ele><time>2026-10-01T00:14:41Z</time></trkpt>
      <trkpt lat="32.527379" lon="130.601099"><ele>8.8</ele><time>2026-10-01T00:14:50Z</time></trkpt>
      <trkpt lat="32.533522" lon="130.602117"><ele>8.4</ele><time>2026-10-01T00:16:44Z</time></trkpt>
      <trkpt lat="32.534319" lon="130.602324"><ele>10.0</ele><time>2026-10-01T00:16:58Z</time></trkpt>
      <trkpt lat="32.535945" lon="130.602937"><ele>7.2</ele><time>2026-10-01T00:17:28Z</time></trkpt>
      <trkpt lat="32.537083" lon="130.603228"><ele>7.2</ele><time>2026-10-01T00:17:50Z</time></trkpt>
      <trkpt lat="32.540319" lon="130.604515"><ele>7.8</ele><time>2026-10-01T00:18:57Z</time></trkpt>
      <trkpt lat="32.540751" lon="130.604810"><ele>6.8</ele><time>2026-10-01T00:19:08Z</time></trkpt>
      <trkpt lat="32.542877" lon="130.606732"><ele>6.2</ele><time>2026-10-01T00:20:01Z</time></trkpt>
      <trkpt lat="32.543723" lon="130.607868"><ele>5.0</ele><time>2026-10-01T00:20:24Z</time></trkpt>
      <trkpt lat="32.546918" lon="130.605073"><ele>5.4</ele><time>2026-10-01T00:21:41Z</time></trkpt>
      <trkpt lat="32.547104" lon="130.604983"><ele>4.8</ele><time>2026-10-01T00:21:45Z</time></trkpt>
      <trkpt lat="32.548186" lon="130.606767"><ele>3.4</ele><time>2026-10-01T00:22:20Z</time></trkpt>
      <trkpt lat="32.549075" lon="130.606059"><ele>5.2</ele><time>2026-10-01T00:22:40Z</time></trkpt>
      <trkpt lat="32.550060" lon="130.607637"><ele>4.2</ele><time>2026-10-01T00:23:10Z</time></trkpt>
      <trkpt lat="32.550153" lon="130.607674"><ele>4.8</ele><time>2026-10-01T00:23:12Z</time></trkpt>
      <trkpt lat="32.550371" lon="130.607694"><ele>4.2</ele><time>2026-10-01T00:23:17Z</time></trkpt>
      <trkpt lat="32.551346" lon="130.606814"><ele>5.4</ele><time>2026-10-01T00:23:42Z</time></trkpt>
      <trkpt lat="32.551398" lon="130.606652"><ele>5.0</ele><time>2026-10-01T00:23:52Z</time></trkpt>
      <trkpt lat="32.551497" lon="130.606666"><ele>5.0</ele><time>2026-10-01T00:24:09Z</time></trkpt>
      <trkpt lat="32.554202" lon="130.610960"><ele>4.8</ele><time>2026-10-01T00:25:30Z</time></trkpt>
      <trkpt lat="32.554472" lon="130.611289"><ele>4.2</ele><time>2026-10-01T00:25:36Z</time></trkpt>
      <trkpt lat="32.558728" lon="130.614016"><ele>3.6</ele><time>2026-10-01T00:26:56Z</time></trkpt>
      <trkpt lat="32.562740" lon="130.614356"><ele>5.2</ele><time>2026-10-01T00:28:12Z</time></trkpt>
      <trkpt lat="32.563195" lon="130.614659"><ele>7.6</ele><time>2026-10-01T00:28:26Z</time></trkpt>
      <trkpt lat="32.564173" lon="130.615869"><ele>7.4</ele><time>2026-10-01T00:28:51Z</time></trkpt>
      <trkpt lat="32.564675" lon="130.616165"><ele>4.0</ele><time>2026-10-01T00:28:58Z</time></trkpt>
      <trkpt lat="32.565010" lon="130.616169"><ele>3.0</ele><time>2026-10-01T00:29:02Z</time></trkpt>
      <trkpt lat="32.565379" lon="130.616020"><ele>3.2</ele><time>2026-10-01T00:29:07Z</time></trkpt>
      <trkpt lat="32.566153" lon="130.615272"><ele>4.8</ele><time>2026-10-01T00:29:22Z</time></trkpt>
      <trkpt lat="32.566392" lon="130.615162"><ele>5.6</ele><time>2026-10-01T00:29:26Z</time></trkpt>
      <trkpt lat="32.566708" lon="130.615138"><ele>6.8</ele><time>2026-10-01T00:29:31Z</time></trkpt>
      <trkpt lat="32.567466" lon="130.615283"><ele>5.0</ele><time>2026-10-01T00:29:43Z</time></trkpt>
      <trkpt lat="32.568682" lon="130.615627"><ele>5.8</ele><time>2026-10-01T00:30:02Z</time></trkpt>
      <trkpt lat="32.569960" lon="130.616526"><ele>3.8</ele><time>2026-10-01T00:30:28Z</time></trkpt>
      <trkpt lat="32.570123" lon="130.616533"><ele>3.6</ele><time>2026-10-01T00:30:34Z</time></trkpt>
      <trkpt lat="32.570173" lon="130.616768"><ele>3.2</ele><time>2026-10-01T00:30:39Z</time></trkpt>
      <trkpt lat="32.570807" lon="130.617493"><ele>4.4</ele><time>2026-10-01T00:30:57Z</time></trkpt>
      <trkpt lat="32.581417" lon="130.628723"><ele>3.6</ele><time>2026-10-01T00:35:14Z</time></trkpt>
      <trkpt lat="32.582148" lon="130.629734"><ele>4.4</ele><time>2026-10-01T00:35:34Z</time></trkpt>
      <trkpt lat="32.583240" lon="130.630917"><ele>12.0</ele><time>2026-10-01T00:36:13Z</time></trkpt>
      <trkpt lat="32.584028" lon="130.631756"><ele>5.2</ele><time>2026-10-01T00:36:27Z</time></trkpt>
      <trkpt lat="32.584743" lon="130.632280"><ele>6.0</ele><time>2026-10-01T00:36:39Z</time></trkpt>
      <trkpt lat="32.585561" lon="130.633046"><ele>4.4</ele><time>2026-10-01T00:36:53Z</time></trkpt>
      <trkpt lat="32.592612" lon="130.640561"><ele>3.4</ele><time>2026-10-01T00:39:17Z</time></trkpt>
      <trkpt lat="32.594151" lon="130.642234"><ele>13.4</ele><time>2026-10-01T00:40:11Z</time></trkpt>
      <trkpt lat="32.595627" lon="130.643830"><ele>9.8</ele><time>2026-10-01T00:40:51Z</time></trkpt>
      <trkpt lat="32.596143" lon="130.644111"><ele>7.8</ele><time>2026-10-01T00:40:58Z</time></trkpt>
      <trkpt lat="32.596617" lon="130.644065"><ele>2.6</ele><time>2026-10-01T00:41:03Z</time></trkpt>
      <trkpt lat="32.598365" lon="130.642926"><ele>4.6</ele><time>2026-10-01T00:41:24Z</time></trkpt>
      <trkpt lat="32.598968" lon="130.642663"><ele>3.6</ele><time>2026-10-01T00:41:32Z</time></trkpt>
      <trkpt lat="32.601064" lon="130.642982"><ele>5.0</ele><time>2026-10-01T00:42:01Z</time></trkpt>
      <trkpt lat="32.601409" lon="130.643121"><ele>5.4</ele><time>2026-10-01T00:42:06Z</time></trkpt>
      <trkpt lat="32.610346" lon="130.651581"><ele>4.2</ele><time>2026-10-01T00:45:06Z</time></trkpt>
      <trkpt lat="32.610613" lon="130.651789"><ele>4.2</ele><time>2026-10-01T00:45:12Z</time></trkpt>
      <trkpt lat="32.611067" lon="130.651961"><ele>3.4</ele><time>2026-10-01T00:45:52Z</time></trkpt>
      <trkpt lat="32.610998" lon="130.652040"><ele>3.4</ele><time>2026-10-01T00:47:24Z</time></trkpt>
      <trkpt lat="32.611051" lon="130.651890"><ele>2.0</ele><time>2026-10-01T00:47:50Z</time></trkpt>
      <trkpt lat="32.610940" lon="130.651966"><ele>3.2</ele><time>2026-10-01T00:48:13Z</time></trkpt>
      <trkpt lat="32.610918" lon="130.651896"><ele>3.2</ele><time>2026-10-01T00:48:24Z</time></trkpt>
      <trkpt lat="32.610982" lon="130.652095"><ele>3.2</ele><time>2026-10-01T00:49:40Z</time></trkpt>
      <trkpt lat="32.611052" lon="130.651955"><ele>3.2</ele><time>2026-10-01T00:50:28Z</time></trkpt>
      <trkpt lat="32.610941" lon="130.652034"><ele>3.2</ele><time>2026-10-01T00:51:10Z</time></trkpt>
      <trkpt lat="32.611059" lon="130.651984"><ele>3.2</ele><time>2026-10-01T00:51:30Z</time></trkpt>
      <trkpt lat="32.611387" lon="130.652576"><ele>3.2</ele><time>2026-10-01T00:51:48Z</time></trkpt>
      <trkpt lat="32.613308" lon="130.654361"><ele>10.0</ele><time>2026-10-01T00:52:47Z</time></trkpt>
      <trkpt lat="32.614951" lon="130.655906"><ele>0.0</ele><time>2026-10-01T00:53:18Z</time></trkpt>
      <trkpt lat="32.615175" lon="130.656314"><ele>2.0</ele><time>2026-10-01T00:53:24Z</time></trkpt>
      <trkpt lat="32.615306" lon="130.656892"><ele>3.2</ele><time>2026-10-01T00:53:32Z</time></trkpt>
      <trkpt lat="32.615297" lon="130.657253"><ele>3.6</ele><time>2026-10-01T00:53:37Z</time></trkpt>
      <trkpt lat="32.614200" lon="130.660931"><ele>1.6</ele><time>2026-10-01T00:54:32Z</time></trkpt>
      <trkpt lat="32.614265" lon="130.661285"><ele>1.8</ele><time>2026-10-01T00:54:37Z</time></trkpt>
      <trkpt lat="32.614438" lon="130.661548"><ele>2.0</ele><time>2026-10-01T00:54:42Z</time></trkpt>
      <trkpt lat="32.621061" lon="130.664579"><ele>3.4</ele><time>2026-10-01T00:56:54Z</time></trkpt>
      <trkpt lat="32.622235" lon="130.665717"><ele>8.8</ele><time>2026-10-01T00:57:37Z</time></trkpt>
      <trkpt lat="32.623482" lon="130.666960"><ele>3.0</ele><time>2026-10-01T00:58:05Z</time></trkpt>
      <trkpt lat="32.624021" lon="130.668146"><ele>2.4</ele><time>2026-10-01T00:58:22Z</time></trkpt>
      <trkpt lat="32.624297" lon="130.668355"><ele>1.0</ele><time>2026-10-01T00:58:27Z</time></trkpt>
      <trkpt lat="32.624550" lon="130.668405"><ele>3.4</ele><time>2026-10-01T00:58:31Z</time></trkpt>
      <trkpt lat="32.624780" lon="130.668346"><ele>3.2</ele><time>2026-10-01T00:58:35Z</time></trkpt>
      <trkpt lat="32.626365" lon="130.667520"><ele>2.4</ele><time>2026-10-01T00:59:03Z</time></trkpt>
      <trkpt lat="32.626789" lon="130.667424"><ele>3.0</ele><time>2026-10-01T00:59:10Z</time></trkpt>
      <trkpt lat="32.637531" lon="130.667745"><ele>4.4</ele><time>2026-10-01T01:02:29Z</time></trkpt>
      <trkpt lat="32.638780" lon="130.667759"><ele>5.2</ele><time>2026-10-01T01:02:56Z</time></trkpt>
      <trkpt lat="32.638966" lon="130.667672"><ele>5.0</ele><time>2026-10-01T01:03:46Z</time></trkpt>
      <trkpt lat="32.639101" lon="130.666154"><ele>10.0</ele><time>2026-10-01T01:05:00Z</time></trkpt>
      <trkpt lat="32.639253" lon="130.663743"><ele>2.8</ele><time>2026-10-01T01:05:34Z</time></trkpt>
      <trkpt lat="32.640484" lon="130.660606"><ele>3.0</ele><time>2026-10-01T01:06:17Z</time></trkpt>
      <trkpt lat="32.640770" lon="130.660276"><ele>3.8</ele><time>2026-10-01T01:06:24Z</time></trkpt>
      <trkpt lat="32.643508" lon="130.658065"><ele>2.8</ele><time>2026-10-01T01:07:25Z</time></trkpt>
      <trkpt lat="32.644868" lon="130.656691"><ele>2.8</ele><time>2026-10-01T01:08:03Z</time></trkpt>
      <trkpt lat="32.644838" lon="130.656469"><ele>3.4</ele><time>2026-10-01T01:08:07Z</time></trkpt>
      <trkpt lat="32.643253" lon="130.653122"><ele>5.0</ele><time>2026-10-01T01:09:01Z</time></trkpt>
      <trkpt lat="32.642764" lon="130.651586"><ele>6.4</ele><time>2026-10-01T01:09:29Z</time></trkpt>
      <trkpt lat="32.642392" lon="130.649762"><ele>6.8</ele><time>2026-10-01T01:10:01Z</time></trkpt>
      <trkpt lat="32.642076" lon="130.649241"><ele>7.2</ele><time>2026-10-01T01:10:10Z</time></trkpt>
      <trkpt lat="32.641995" lon="130.648690"><ele>5.8</ele><time>2026-10-01T01:10:17Z</time></trkpt>
      <trkpt lat="32.641413" lon="130.647044"><ele>5.4</ele><time>2026-10-01T01:10:39Z</time></trkpt>
      <trkpt lat="32.640315" lon="130.643043"><ele>4.6</ele><time>2026-10-01T01:11:28Z</time></trkpt>
      <trkpt lat="32.640160" lon="130.642708"><ele>4.4</ele><time>2026-10-01T01:11:33Z</time></trkpt>
      <trkpt lat="32.639918" lon="130.642481"><ele>4.8</ele><time>2026-10-01T01:11:38Z</time></trkpt>
      <trkpt lat="32.639148" lon="130.642281"><ele>6.0</ele><time>2026-10-01T01:11:53Z</time></trkpt>
      <trkpt lat="32.638740" lon="130.642003"><ele>6.8</ele><time>2026-10-01T01:12:03Z</time></trkpt>
      <trkpt lat="32.637868" lon="130.640270"><ele>7.0</ele><time>2026-10-01T01:12:34Z</time></trkpt>
      <trkpt lat="32.636142" lon="130.638590"><ele>8.6</ele><time>2026-10-01T01:13:10Z</time></trkpt>
      <trkpt lat="32.635529" lon="130.636990"><ele>8.4</ele><time>2026-10-01T01:13:35Z</time></trkpt>
      <trkpt lat="32.635302" lon="130.636671"><ele>7.8</ele><time>2026-10-01T01:13:40Z</time></trkpt>
      <trkpt lat="32.635005" lon="130.636450"><ele>7.2</ele><time>2026-10-01T01:13:45Z</time></trkpt>
      <trkpt lat="32.633741" lon="130.636065"><ele>9.0</ele><time>2026-10-01T01:14:03Z</time></trkpt>
      <trkpt lat="32.633542" lon="130.635748"><ele>9.6</ele><time>2026-10-01T01:14:08Z</time></trkpt>
      <trkpt lat="32.633274" lon="130.634008"><ele>9.2</ele><time>2026-10-01T01:14:29Z</time></trkpt>
      <trkpt lat="32.633303" lon="130.633664"><ele>10.0</ele><time>2026-10-01T01:14:33Z</time></trkpt>
      <trkpt lat="32.633759" lon="130.632780"><ele>10.2</ele><time>2026-10-01T01:14:46Z</time></trkpt>
      <trkpt lat="32.633866" lon="130.632241"><ele>9.4</ele><time>2026-10-01T01:14:53Z</time></trkpt>
      <trkpt lat="32.633740" lon="130.631742"><ele>8.8</ele><time>2026-10-01T01:14:59Z</time></trkpt>
      <trkpt lat="32.633386" lon="130.631092"><ele>8.6</ele><time>2026-10-01T01:15:08Z</time></trkpt>
      <trkpt lat="32.633128" lon="130.630278"><ele>8.6</ele><time>2026-10-01T01:15:18Z</time></trkpt>
      <trkpt lat="32.632472" lon="130.626800"><ele>10.6</ele><time>2026-10-01T01:16:00Z</time></trkpt>
      <trkpt lat="32.632512" lon="130.626463"><ele>9.2</ele><time>2026-10-01T01:16:04Z</time></trkpt>
      <trkpt lat="32.632956" lon="130.625125"><ele>8.6</ele><time>2026-10-01T01:16:23Z</time></trkpt>
      <trkpt lat="32.632875" lon="130.622390"><ele>8.2</ele><time>2026-10-01T01:17:04Z</time></trkpt>
      <trkpt lat="32.632674" lon="130.621898"><ele>10.0</ele><time>2026-10-01T01:17:12Z</time></trkpt>
      <trkpt lat="32.631791" lon="130.621228"><ele>9.8</ele><time>2026-10-01T01:17:30Z</time></trkpt>
      <trkpt lat="32.631667" lon="130.621002"><ele>9.8</ele><time>2026-10-01T01:17:34Z</time></trkpt>
      <trkpt lat="32.631600" lon="130.620586"><ele>9.2</ele><time>2026-10-01T01:17:40Z</time></trkpt>
      <trkpt lat="32.631739" lon="130.619282"><ele>8.8</ele><time>2026-10-01T01:18:02Z</time></trkpt>
      <trkpt lat="32.631782" lon="130.619401"><ele>8.2</ele><time>2026-10-01T01:18:08Z</time></trkpt>
      <trkpt lat="32.631965" lon="130.618842"><ele>8.8</ele><time>2026-10-01T01:18:20Z</time></trkpt>
      <trkpt lat="32.632779" lon="130.617634"><ele>9.8</ele><time>2026-10-01T01:18:42Z</time></trkpt>
      <trkpt lat="32.632860" lon="130.617370"><ele>9.8</ele><time>2026-10-01T01:18:46Z</time></trkpt>
      <trkpt lat="32.632969" lon="130.616499"><ele>11.0</ele><time>2026-10-01T01:19:01Z</time></trkpt>
      <trkpt lat="32.632917" lon="130.615966"><ele>13.2</ele><time>2026-10-01T01:19:11Z</time></trkpt>
      <trkpt lat="32.632248" lon="130.613741"><ele>8.6</ele><time>2026-10-01T01:19:41Z</time></trkpt>
      <trkpt lat="32.632020" lon="130.613404"><ele>9.0</ele><time>2026-10-01T01:19:46Z</time></trkpt>
      <trkpt lat="32.631337" lon="130.612830"><ele>8.6</ele><time>2026-10-01T01:19:58Z</time></trkpt>
      <trkpt lat="32.630100" lon="130.612458"><ele>9.2</ele><time>2026-10-01T01:20:17Z</time></trkpt>
      <trkpt lat="32.629827" lon="130.612013"><ele>9.8</ele><time>2026-10-01T01:20:25Z</time></trkpt>
      <trkpt lat="32.629808" lon="130.611667"><ele>9.6</ele><time>2026-10-01T01:20:30Z</time></trkpt>
      <trkpt lat="32.630109" lon="130.610726"><ele>9.2</ele><time>2026-10-01T01:20:44Z</time></trkpt>
      <trkpt lat="32.630048" lon="130.610199"><ele>10.0</ele><time>2026-10-01T01:20:52Z</time></trkpt>
      <trkpt lat="32.628148" lon="130.604886"><ele>8.8</ele><time>2026-10-01T01:22:15Z</time></trkpt>
      <trkpt lat="32.627405" lon="130.603594"><ele>8.8</ele><time>2026-10-01T01:22:38Z</time></trkpt>
      <trkpt lat="32.627257" lon="130.602379"><ele>8.2</ele><time>2026-10-01T01:22:55Z</time></trkpt>
      <trkpt lat="32.627094" lon="130.602153"><ele>9.0</ele><time>2026-10-01T01:22:59Z</time></trkpt>
      <trkpt lat="32.626174" lon="130.601416"><ele>11.0</ele><time>2026-10-01T01:23:22Z</time></trkpt>
      <trkpt lat="32.625992" lon="130.601119"><ele>12.0</ele><time>2026-10-01T01:23:30Z</time></trkpt>
      <trkpt lat="32.625941" lon="130.600604"><ele>13.0</ele><time>2026-10-01T01:23:39Z</time></trkpt>
      <trkpt lat="32.625981" lon="130.599708"><ele>11.4</ele><time>2026-10-01T01:23:53Z</time></trkpt>
      <trkpt lat="32.626160" lon="130.598679"><ele>5.6</ele><time>2026-10-01T01:24:06Z</time></trkpt>
      <trkpt lat="32.625842" lon="130.597275"><ele>5.8</ele><time>2026-10-01T01:24:21Z</time></trkpt>
      <trkpt lat="32.625514" lon="130.596830"><ele>7.2</ele><time>2026-10-01T01:24:28Z</time></trkpt>
      <trkpt lat="32.624453" lon="130.595793"><ele>10.4</ele><time>2026-10-01T01:24:54Z</time></trkpt>
      <trkpt lat="32.624299" lon="130.595489"><ele>10.4</ele><time>2026-10-01T01:25:00Z</time></trkpt>
      <trkpt lat="32.624004" lon="130.594412"><ele>10.6</ele><time>2026-10-01T01:25:18Z</time></trkpt>
      <trkpt lat="32.623865" lon="130.594230"><ele>11.4</ele><time>2026-10-01T01:25:23Z</time></trkpt>
      <trkpt lat="32.623530" lon="130.594018"><ele>15.6</ele><time>2026-10-01T01:25:40Z</time></trkpt>
      <trkpt lat="32.623532" lon="130.593944"><ele>14.6</ele><time>2026-10-01T01:26:55Z</time></trkpt>
      <trkpt lat="32.623520" lon="130.594017"><ele>15.0</ele><time>2026-10-01T01:27:29Z</time></trkpt>
      <trkpt lat="32.623559" lon="130.593926"><ele>14.4</ele><time>2026-10-01T01:28:19Z</time></trkpt>
      <trkpt lat="32.623191" lon="130.593628"><ele>17.2</ele><time>2026-10-01T01:28:45Z</time></trkpt>
      <trkpt lat="32.623209" lon="130.593353"><ele>18.6</ele><time>2026-10-01T01:28:56Z</time></trkpt>
      <trkpt lat="32.623343" lon="130.593277"><ele>19.0</ele><time>2026-10-01T01:29:20Z</time></trkpt>
      <trkpt lat="32.622738" lon="130.593498"><ele>17.8</ele><time>2026-10-01T01:29:48Z</time></trkpt>
      <trkpt lat="32.622767" lon="130.593428"><ele>17.6</ele><time>2026-10-01T01:30:01Z</time></trkpt>
      <trkpt lat="32.622957" lon="130.593453"><ele>16.8</ele><time>2026-10-01T01:30:51Z</time></trkpt>
      <trkpt lat="32.623567" lon="130.593106"><ele>18.8</ele><time>2026-10-01T01:31:12Z</time></trkpt>
      <trkpt lat="32.624450" lon="130.593176"><ele>22.2</ele><time>2026-10-01T01:31:42Z</time></trkpt>
      <trkpt lat="32.625298" lon="130.592817"><ele>24.2</ele><time>2026-10-01T01:32:10Z</time></trkpt>
      <trkpt lat="32.625992" lon="130.592628"><ele>25.4</ele><time>2026-10-01T01:32:29Z</time></trkpt>
      <trkpt lat="32.626914" lon="130.591890"><ele>22.4</ele><time>2026-10-01T01:32:46Z</time></trkpt>
      <trkpt lat="32.628395" lon="130.591153"><ele>18.4</ele><time>2026-10-01T01:33:08Z</time></trkpt>
      <trkpt lat="32.628744" lon="130.590611"><ele>16.4</ele><time>2026-10-01T01:33:14Z</time></trkpt>
      <trkpt lat="32.629361" lon="130.590170"><ele>11.6</ele><time>2026-10-01T01:33:22Z</time></trkpt>
      <trkpt lat="32.629504" lon="130.589873"><ele>9.8</ele><time>2026-10-01T01:33:25Z</time></trkpt>
      <trkpt lat="32.629062" lon="130.588207"><ele>9.8</ele><time>2026-10-01T01:33:42Z</time></trkpt>
      <trkpt lat="32.628950" lon="130.587967"><ele>10.4</ele><time>2026-10-01T01:33:45Z</time></trkpt>
      <trkpt lat="32.628695" lon="130.587746"><ele>10.8</ele><time>2026-10-01T01:33:50Z</time></trkpt>
      <trkpt lat="32.626899" lon="130.587235"><ele>23.6</ele><time>2026-10-01T01:34:46Z</time></trkpt>
      <trkpt lat="32.626147" lon="130.587070"><ele>22.6</ele><time>2026-10-01T01:35:04Z</time></trkpt>
      <trkpt lat="32.625663" lon="130.587023"><ele>21.0</ele><time>2026-10-01T01:35:11Z</time></trkpt>
      <trkpt lat="32.624321" lon="130.587203"><ele>15.6</ele><time>2026-10-01T01:35:28Z</time></trkpt>
      <trkpt lat="32.624072" lon="130.587122"><ele>15.4</ele><time>2026-10-01T01:35:31Z</time></trkpt>
      <trkpt lat="32.623736" lon="130.586846"><ele>13.6</ele><time>2026-10-01T01:35:36Z</time></trkpt>
      <trkpt lat="32.623267" lon="130.585370"><ele>10.8</ele><time>2026-10-01T01:35:51Z</time></trkpt>
      <trkpt lat="32.623188" lon="130.584892"><ele>9.6</ele><time>2026-10-01T01:35:56Z</time></trkpt>
      <trkpt lat="32.623238" lon="130.584488"><ele>8.8</ele><time>2026-10-01T01:36:00Z</time></trkpt>
      <trkpt lat="32.623389" lon="130.584167"><ele>8.4</ele><time>2026-10-01T01:36:04Z</time></trkpt>
      <trkpt lat="32.624044" lon="130.583337"><ele>8.2</ele><time>2026-10-01T01:36:17Z</time></trkpt>
      <trkpt lat="32.624085" lon="130.581042"><ele>7.8</ele><time>2026-10-01T01:36:46Z</time></trkpt>
      <trkpt lat="32.624019" lon="130.580730"><ele>8.0</ele><time>2026-10-01T01:36:50Z</time></trkpt>
      <trkpt lat="32.623861" lon="130.580479"><ele>8.2</ele><time>2026-10-01T01:36:54Z</time></trkpt>
      <trkpt lat="32.623561" lon="130.580259"><ele>8.2</ele><time>2026-10-01T01:36:59Z</time></trkpt>
      <trkpt lat="32.622275" lon="130.579518"><ele>9.6</ele><time>2026-10-01T01:37:23Z</time></trkpt>
      <trkpt lat="32.621707" lon="130.578733"><ele>10.4</ele><time>2026-10-01T01:37:44Z</time></trkpt>
      <trkpt lat="32.621793" lon="130.577562"><ele>8.8</ele><time>2026-10-01T01:38:03Z</time></trkpt>
      <trkpt lat="32.623927" lon="130.566170"><ele>6.6</ele><time>2026-10-01T01:40:47Z</time></trkpt>
      <trkpt lat="32.624206" lon="130.562867"><ele>7.6</ele><time>2026-10-01T01:41:36Z</time></trkpt>
      <trkpt lat="32.624312" lon="130.562507"><ele>8.8</ele><time>2026-10-01T01:41:42Z</time></trkpt>
      <trkpt lat="32.624959" lon="130.561429"><ele>8.0</ele><time>2026-10-01T01:42:01Z</time></trkpt>
      <trkpt lat="32.625126" lon="130.561000"><ele>8.6</ele><time>2026-10-01T01:42:08Z</time></trkpt>
      <trkpt lat="32.625203" lon="130.560558"><ele>9.2</ele><time>2026-10-01T01:42:15Z</time></trkpt>
      <trkpt lat="32.625319" lon="130.558206"><ele>9.2</ele><time>2026-10-01T01:42:40Z</time></trkpt>
      <trkpt lat="32.625193" lon="130.558273"><ele>9.4</ele><time>2026-10-01T01:42:41Z</time></trkpt>
      <trkpt lat="32.625067" lon="130.557074"><ele>8.2</ele><time>2026-10-01T01:42:57Z</time></trkpt>
      <trkpt lat="32.624888" lon="130.556594"><ele>8.2</ele><time>2026-10-01T01:43:03Z</time></trkpt>
      <trkpt lat="32.624071" lon="130.555444"><ele>7.8</ele><time>2026-10-01T01:43:22Z</time></trkpt>
      <trkpt lat="32.622762" lon="130.553860"><ele>8.0</ele><time>2026-10-01T01:43:56Z</time></trkpt>
      <trkpt lat="32.622626" lon="130.553524"><ele>7.8</ele><time>2026-10-01T01:44:02Z</time></trkpt>
      <trkpt lat="32.622592" lon="130.553105"><ele>7.8</ele><time>2026-10-01T01:44:08Z</time></trkpt>
      <trkpt lat="32.623003" lon="130.550025"><ele>9.2</ele><time>2026-10-01T01:45:00Z</time></trkpt>
      <trkpt lat="32.623245" lon="130.547250"><ele>19.2</ele><time>2026-10-01T01:46:16Z</time></trkpt>
      <trkpt lat="32.623355" lon="130.546810"><ele>19.8</ele><time>2026-10-01T01:46:28Z</time></trkpt>
      <trkpt lat="32.623727" lon="130.546385"><ele>19.6</ele><time>2026-10-01T01:46:47Z</time></trkpt>
      <trkpt lat="32.623702" lon="130.546455"><ele>21.0</ele><time>2026-10-01T01:47:37Z</time></trkpt>
      <trkpt lat="32.623706" lon="130.546371"><ele>21.0</ele><time>2026-10-01T01:48:38Z</time></trkpt>
      <trkpt lat="32.623774" lon="130.546422"><ele>21.0</ele><time>2026-10-01T01:49:14Z</time></trkpt>
      <trkpt lat="32.623783" lon="130.546319"><ele>21.0</ele><time>2026-10-01T01:49:40Z</time></trkpt>
      <trkpt lat="32.623693" lon="130.546408"><ele>21.0</ele><time>2026-10-01T01:50:09Z</time></trkpt>
      <trkpt lat="32.623771" lon="130.546457"><ele>21.0</ele><time>2026-10-01T01:50:26Z</time></trkpt>
      <trkpt lat="32.623686" lon="130.546354"><ele>21.0</ele><time>2026-10-01T01:50:58Z</time></trkpt>
      <trkpt lat="32.623991" lon="130.546413"><ele>21.2</ele><time>2026-10-01T01:51:10Z</time></trkpt>
      <trkpt lat="32.625009" lon="130.546958"><ele>17.6</ele><time>2026-10-01T01:51:25Z</time></trkpt>
      <trkpt lat="32.625367" lon="130.546804"><ele>16.6</ele><time>2026-10-01T01:51:29Z</time></trkpt>
      <trkpt lat="32.625481" lon="130.546619"><ele>16.0</ele><time>2026-10-01T01:51:31Z</time></trkpt>
      <trkpt lat="32.625492" lon="130.546228"><ele>17.2</ele><time>2026-10-01T01:51:35Z</time></trkpt>
      <trkpt lat="32.624879" lon="130.545158"><ele>19.8</ele><time>2026-10-01T01:51:55Z</time></trkpt>
      <trkpt lat="32.624860" lon="130.544927"><ele>20.8</ele><time>2026-10-01T01:52:00Z</time></trkpt>
      <trkpt lat="32.624935" lon="130.544668"><ele>20.4</ele><time>2026-10-01T01:52:06Z</time></trkpt>
      <trkpt lat="32.625086" lon="130.544482"><ele>21.0</ele><time>2026-10-01T01:52:11Z</time></trkpt>
      <trkpt lat="32.625749" lon="130.544167"><ele>19.0</ele><time>2026-10-01T01:52:23Z</time></trkpt>
      <trkpt lat="32.626571" lon="130.544329"><ele>14.8</ele><time>2026-10-01T01:52:33Z</time></trkpt>
      <trkpt lat="32.626904" lon="130.544248"><ele>13.0</ele><time>2026-10-01T01:52:37Z</time></trkpt>
      <trkpt lat="32.627277" lon="130.543773"><ele>13.4</ele><time>2026-10-01T01:52:44Z</time></trkpt>
      <trkpt lat="32.627617" lon="130.542618"><ele>13.0</ele><time>2026-10-01T01:52:59Z</time></trkpt>
      <trkpt lat="32.627599" lon="130.542179"><ele>14.0</ele><time>2026-10-01T01:53:05Z</time></trkpt>
      <trkpt lat="32.627434" lon="130.541798"><ele>16.2</ele><time>2026-10-01T01:53:12Z</time></trkpt>
      <trkpt lat="32.627067" lon="130.541483"><ele>18.8</ele><time>2026-10-01T01:53:22Z</time></trkpt>
      <trkpt lat="32.626243" lon="130.541136"><ele>21.4</ele><time>2026-10-01T01:53:50Z</time></trkpt>
      <trkpt lat="32.625087" lon="130.539887"><ele>26.8</ele><time>2026-10-01T01:54:49Z</time></trkpt>
      <trkpt lat="32.624882" lon="130.539429"><ele>28.2</ele><time>2026-10-01T01:55:06Z</time></trkpt>
      <trkpt lat="32.624989" lon="130.538302"><ele>27.4</ele><time>2026-10-01T01:55:26Z</time></trkpt>
      <trkpt lat="32.625124" lon="130.538084"><ele>27.4</ele><time>2026-10-01T01:55:30Z</time></trkpt>
      <trkpt lat="32.625630" lon="130.535615"><ele>33.8</ele><time>2026-10-01T01:56:20Z</time></trkpt>
      <trkpt lat="32.626660" lon="130.533161"><ele>27.8</ele><time>2026-10-01T01:56:54Z</time></trkpt>
      <trkpt lat="32.626975" lon="130.532181"><ele>21.8</ele><time>2026-10-01T01:57:04Z</time></trkpt>
      <trkpt lat="32.627034" lon="130.531456"><ele>19.6</ele><time>2026-10-01T01:57:11Z</time></trkpt>
      <trkpt lat="32.626943" lon="130.530252"><ele>17.2</ele><time>2026-10-01T01:57:24Z</time></trkpt>
      <trkpt lat="32.626018" lon="130.527222"><ele>13.4</ele><time>2026-10-01T01:57:55Z</time></trkpt>
      <trkpt lat="32.625273" lon="130.524133"><ele>10.8</ele><time>2026-10-01T01:58:26Z</time></trkpt>
      <trkpt lat="32.624301" lon="130.521268"><ele>8.4</ele><time>2026-10-01T01:59:01Z</time></trkpt>
      <trkpt lat="32.624257" lon="130.520332"><ele>11.2</ele><time>2026-10-01T01:59:15Z</time></trkpt>
      <trkpt lat="32.624543" lon="130.518601"><ele>10.2</ele><time>2026-10-01T01:59:39Z</time></trkpt>
      <trkpt lat="32.624533" lon="130.518085"><ele>10.0</ele><time>2026-10-01T01:59:46Z</time></trkpt>
      <trkpt lat="32.624304" lon="130.517142"><ele>9.0</ele><time>2026-10-01T01:59:58Z</time></trkpt>
      <trkpt lat="32.624106" lon="130.516738"><ele>8.0</ele><time>2026-10-01T02:00:03Z</time></trkpt>
      <trkpt lat="32.623775" lon="130.516292"><ele>7.6</ele><time>2026-10-01T02:00:09Z</time></trkpt>
      <trkpt lat="32.621818" lon="130.514745"><ele>7.2</ele><time>2026-10-01T02:00:38Z</time></trkpt>
      <trkpt lat="32.618941" lon="130.511511"><ele>6.0</ele><time>2026-10-01T02:01:34Z</time></trkpt>
      <trkpt lat="32.617426" lon="130.510531"><ele>6.4</ele><time>2026-10-01T02:02:02Z</time></trkpt>
      <trkpt lat="32.616844" lon="130.509996"><ele>6.6</ele><time>2026-10-01T02:02:14Z</time></trkpt>
      <trkpt lat="32.615991" lon="130.508570"><ele>5.0</ele><time>2026-10-01T02:02:37Z</time></trkpt>
      <trkpt lat="32.615716" lon="130.507835"><ele>6.0</ele><time>2026-10-01T02:02:48Z</time></trkpt>
      <trkpt lat="32.615713" lon="130.507392"><ele>7.6</ele><time>2026-10-01T02:02:55Z</time></trkpt>
      <trkpt lat="32.615996" lon="130.506055"><ele>10.0</ele><time>2026-10-01T02:03:18Z</time></trkpt>
      <trkpt lat="32.615986" lon="130.505710"><ele>9.0</ele><time>2026-10-01T02:03:22Z</time></trkpt>
      <trkpt lat="32.614623" lon="130.503346"><ele>8.2</ele><time>2026-10-01T02:03:54Z</time></trkpt>
      <trkpt lat="32.613216" lon="130.502321"><ele>7.6</ele><time>2026-10-01T02:04:17Z</time></trkpt>
      <trkpt lat="32.612463" lon="130.501503"><ele>8.2</ele><time>2026-10-01T02:04:30Z</time></trkpt>
      <trkpt lat="32.611934" lon="130.500700"><ele>8.0</ele><time>2026-10-01T02:04:41Z</time></trkpt>
      <trkpt lat="32.611744" lon="130.499870"><ele>6.8</ele><time>2026-10-01T02:04:51Z</time></trkpt>
      <trkpt lat="32.611726" lon="130.499162"><ele>7.2</ele><time>2026-10-01T02:05:00Z</time></trkpt>
      <trkpt lat="32.612423" lon="130.495445"><ele>7.4</ele><time>2026-10-01T02:05:53Z</time></trkpt>
      <trkpt lat="32.612471" lon="130.491681"><ele>10.4</ele><time>2026-10-01T02:06:52Z</time></trkpt>
      <trkpt lat="32.612850" lon="130.486742"><ele>8.4</ele><time>2026-10-01T02:07:54Z</time></trkpt>
      <trkpt lat="32.612794" lon="130.485963"><ele>9.8</ele><time>2026-10-01T02:08:10Z</time></trkpt>
      <trkpt lat="32.612473" lon="130.485256"><ele>9.6</ele><time>2026-10-01T02:08:21Z</time></trkpt>
      <trkpt lat="32.609970" lon="130.481158"><ele>7.8</ele><time>2026-10-01T02:09:26Z</time></trkpt>
      <trkpt lat="32.609619" lon="130.480376"><ele>7.2</ele><time>2026-10-01T02:09:36Z</time></trkpt>
      <trkpt lat="32.609585" lon="130.479718"><ele>7.2</ele><time>2026-10-01T02:09:44Z</time></trkpt>
      <trkpt lat="32.610002" lon="130.478444"><ele>8.6</ele><time>2026-10-01T02:09:59Z</time></trkpt>
      <trkpt lat="32.610166" lon="130.477008"><ele>8.0</ele><time>2026-10-01T02:10:17Z</time></trkpt>
      <trkpt lat="32.610257" lon="130.474933"><ele>9.0</ele><time>2026-10-01T02:10:44Z</time></trkpt>
      <trkpt lat="32.610084" lon="130.473581"><ele>8.2</ele><time>2026-10-01T02:11:02Z</time></trkpt>
      <trkpt lat="32.609970" lon="130.473259"><ele>6.6</ele><time>2026-10-01T02:11:07Z</time></trkpt>
      <trkpt lat="32.609512" lon="130.472337"><ele>7.6</ele><time>2026-10-01T02:11:23Z</time></trkpt>
      <trkpt lat="32.607928" lon="130.470468"><ele>7.2</ele><time>2026-10-01T02:12:02Z</time></trkpt>
      <trkpt lat="32.606575" lon="130.469112"><ele>6.6</ele><time>2026-10-01T02:12:28Z</time></trkpt>
      <trkpt lat="32.606106" lon="130.468008"><ele>7.4</ele><time>2026-10-01T02:12:45Z</time></trkpt>
      <trkpt lat="32.606108" lon="130.467888"><ele>7.4</ele><time>2026-10-01T02:12:47Z</time></trkpt>
      <trkpt lat="32.606562" lon="130.467530"><ele>8.2</ele><time>2026-10-01T02:12:56Z</time></trkpt>
      <trkpt lat="32.606481" lon="130.466803"><ele>10.0</ele><time>2026-10-01T02:13:09Z</time></trkpt>
      <trkpt lat="32.606951" lon="130.463806"><ele>11.0</ele><time>2026-10-01T02:14:00Z</time></trkpt>
      <trkpt lat="32.606780" lon="130.463003"><ele>10.8</ele><time>2026-10-01T02:14:19Z</time></trkpt>
      <trkpt lat="32.606763" lon="130.462453"><ele>9.2</ele><time>2026-10-01T02:14:31Z</time></trkpt>
      <trkpt lat="32.607358" lon="130.461409"><ele>18.6</ele><time>2026-10-01T02:15:49Z</time></trkpt>
      <trkpt lat="32.607412" lon="130.461381"><ele>19.2</ele><time>2026-10-01T02:15:55Z</time></trkpt>
      <trkpt lat="32.607948" lon="130.462068"><ele>29.6</ele><time>2026-10-01T02:17:37Z</time></trkpt>
      <trkpt lat="32.608422" lon="130.462151"><ele>32.2</ele><time>2026-10-01T02:18:12Z</time></trkpt>
      <trkpt lat="32.608937" lon="130.462736"><ele>37.8</ele><time>2026-10-01T02:18:48Z</time></trkpt>
      <trkpt lat="32.609131" lon="130.462837"><ele>39.6</ele><time>2026-10-01T02:19:00Z</time></trkpt>
      <trkpt lat="32.609310" lon="130.462779"><ele>40.2</ele><time>2026-10-01T02:19:09Z</time></trkpt>
      <trkpt lat="32.610040" lon="130.461904"><ele>43.0</ele><time>2026-10-01T02:19:56Z</time></trkpt>
      <trkpt lat="32.609243" lon="130.463114"><ele>41.6</ele><time>2026-10-01T02:21:14Z</time></trkpt>
      <trkpt lat="32.609064" lon="130.463805"><ele>40.6</ele><time>2026-10-01T02:21:24Z</time></trkpt>
      <trkpt lat="32.608984" lon="130.464585"><ele>36.6</ele><time>2026-10-01T02:21:32Z</time></trkpt>
      <trkpt lat="32.609146" lon="130.465727"><ele>31.4</ele><time>2026-10-01T02:21:40Z</time></trkpt>
      <trkpt lat="32.609634" lon="130.466591"><ele>24.0</ele><time>2026-10-01T02:21:47Z</time></trkpt>
      <trkpt lat="32.609854" lon="130.466664"><ele>21.0</ele><time>2026-10-01T02:21:50Z</time></trkpt>
      <trkpt lat="32.611360" lon="130.463807"><ele>11.8</ele><time>2026-10-01T02:22:25Z</time></trkpt>
      <trkpt lat="32.612138" lon="130.462974"><ele>8.2</ele><time>2026-10-01T02:22:38Z</time></trkpt>
      <trkpt lat="32.612822" lon="130.462390"><ele>7.2</ele><time>2026-10-01T02:22:50Z</time></trkpt>
      <trkpt lat="32.613509" lon="130.462144"><ele>8.2</ele><time>2026-10-01T02:23:02Z</time></trkpt>
      <trkpt lat="32.615235" lon="130.462006"><ele>10.2</ele><time>2026-10-01T02:23:37Z</time></trkpt>
      <trkpt lat="32.616008" lon="130.462088"><ele>11.2</ele><time>2026-10-01T02:23:57Z</time></trkpt>
      <trkpt lat="32.616984" lon="130.462002"><ele>10.6</ele><time>2026-10-01T02:24:17Z</time></trkpt>
      <trkpt lat="32.617385" lon="130.461806"><ele>10.4</ele><time>2026-10-01T02:24:24Z</time></trkpt>
      <trkpt lat="32.617667" lon="130.461513"><ele>9.8</ele><time>2026-10-01T02:24:30Z</time></trkpt>
      <trkpt lat="32.618226" lon="130.460843"><ele>10.6</ele><time>2026-10-01T02:24:43Z</time></trkpt>
      <trkpt lat="32.618936" lon="130.459639"><ele>11.0</ele><time>2026-10-01T02:25:05Z</time></trkpt>
      <trkpt lat="32.619800" lon="130.458860"><ele>10.4</ele><time>2026-10-01T02:25:26Z</time></trkpt>
      <trkpt lat="32.620737" lon="130.457669"><ele>10.8</ele><time>2026-10-01T02:25:57Z</time></trkpt>
      <trkpt lat="32.620755" lon="130.457507"><ele>9.6</ele><time>2026-10-01T02:26:00Z</time></trkpt>
      <trkpt lat="32.621544" lon="130.456972"><ele>10.8</ele><time>2026-10-01T02:26:26Z</time></trkpt>
      <trkpt lat="32.621562" lon="130.456417"><ele>9.0</ele><time>2026-10-01T02:26:36Z</time></trkpt>
      <trkpt lat="32.621885" lon="130.455888"><ele>8.6</ele><time>2026-10-01T02:26:50Z</time></trkpt>
      <trkpt lat="32.622284" lon="130.455628"><ele>9.0</ele><time>2026-10-01T02:27:03Z</time></trkpt>
      <trkpt lat="32.622767" lon="130.455464"><ele>9.2</ele><time>2026-10-01T02:27:18Z</time></trkpt>
      <trkpt lat="32.622738" lon="130.455381"><ele>9.0</ele><time>2026-10-01T02:27:21Z</time></trkpt>
      <trkpt lat="32.622553" lon="130.455481"><ele>8.6</ele><time>2026-10-01T02:27:28Z</time></trkpt>
      <trkpt lat="32.622509" lon="130.455394"><ele>8.4</ele><time>2026-10-01T02:27:32Z</time></trkpt>
      <trkpt lat="32.622581" lon="130.455344"><ele>8.4</ele><time>2026-10-01T02:27:35Z</time></trkpt>
      <trkpt lat="32.622945" lon="130.455272"><ele>8.4</ele><time>2026-10-01T02:27:48Z</time></trkpt>
      <trkpt lat="32.623002" lon="130.455374"><ele>8.4</ele><time>2026-10-01T02:27:51Z</time></trkpt>
      <trkpt lat="32.623246" lon="130.455168"><ele>8.6</ele><time>2026-10-01T02:28:00Z</time></trkpt>
      <trkpt lat="32.623391" lon="130.454822"><ele>8.8</ele><time>2026-10-01T02:28:07Z</time></trkpt>
      <trkpt lat="32.623491" lon="130.454256"><ele>8.8</ele><time>2026-10-01T02:28:18Z</time></trkpt>
      <trkpt lat="32.623506" lon="130.453800"><ele>8.4</ele><time>2026-10-01T02:28:28Z</time></trkpt>
      <trkpt lat="32.623487" lon="130.453684"><ele>8.0</ele><time>2026-10-01T02:28:31Z</time></trkpt>
      <trkpt lat="32.623371" lon="130.453791"><ele>7.2</ele><time>2026-10-01T02:28:37Z</time></trkpt>
      <trkpt lat="32.623439" lon="130.453553"><ele>7.4</ele><time>2026-10-01T02:28:45Z</time></trkpt>
      <trkpt lat="32.623412" lon="130.453150"><ele>7.0</ele><time>2026-10-01T02:28:57Z</time></trkpt>
      <trkpt lat="32.623208" lon="130.452230"><ele>7.2</ele><time>2026-10-01T02:33:03Z</time></trkpt>
      <trkpt lat="32.623354" lon="130.452317"><ele>8.0</ele><time>2026-10-01T02:33:30Z</time></trkpt>
      <trkpt lat="32.623528" lon="130.453254"><ele>8.8</ele><time>2026-10-01T02:34:00Z</time></trkpt>
      <trkpt lat="32.623617" lon="130.453321"><ele>7.8</ele><time>2026-10-01T02:34:48Z</time></trkpt>
      <trkpt lat="32.623653" lon="130.453503"><ele>8.0</ele><time>2026-10-01T02:34:52Z</time></trkpt>
      <trkpt lat="32.623548" lon="130.454167"><ele>8.2</ele><time>2026-10-01T02:35:07Z</time></trkpt>
      <trkpt lat="32.623374" lon="130.454927"><ele>8.8</ele><time>2026-10-01T02:35:21Z</time></trkpt>
      <trkpt lat="32.622690" lon="130.456154"><ele>8.2</ele><time>2026-10-01T02:35:47Z</time></trkpt>
      <trkpt lat="32.622155" lon="130.456908"><ele>8.6</ele><time>2026-10-01T02:36:04Z</time></trkpt>
      <trkpt lat="32.621417" lon="130.457076"><ele>8.4</ele><time>2026-10-01T02:36:18Z</time></trkpt>
      <trkpt lat="32.621092" lon="130.457318"><ele>8.8</ele><time>2026-10-01T02:36:25Z</time></trkpt>
      <trkpt lat="32.619859" lon="130.458917"><ele>9.4</ele><time>2026-10-01T02:37:03Z</time></trkpt>
      <trkpt lat="32.619103" lon="130.459544"><ele>9.4</ele><time>2026-10-01T02:37:19Z</time></trkpt>
      <trkpt lat="32.618853" lon="130.459841"><ele>9.8</ele><time>2026-10-01T02:37:25Z</time></trkpt>
      <trkpt lat="32.618248" lon="130.460885"><ele>9.8</ele><time>2026-10-01T02:37:42Z</time></trkpt>
      <trkpt lat="32.617549" lon="130.461711"><ele>10.4</ele><time>2026-10-01T02:37:59Z</time></trkpt>
      <trkpt lat="32.617015" lon="130.462021"><ele>10.8</ele><time>2026-10-01T02:38:11Z</time></trkpt>
      <trkpt lat="32.613640" lon="130.462170"><ele>9.8</ele><time>2026-10-01T02:39:11Z</time></trkpt>
      <trkpt lat="32.612991" lon="130.462347"><ele>9.0</ele><time>2026-10-01T02:39:20Z</time></trkpt>
      <trkpt lat="32.612486" lon="130.462712"><ele>9.2</ele><time>2026-10-01T02:39:28Z</time></trkpt>
      <trkpt lat="32.611478" lon="130.463732"><ele>9.8</ele><time>2026-10-01T02:39:47Z</time></trkpt>
      <trkpt lat="32.611364" lon="130.463933"><ele>10.4</ele><time>2026-10-01T02:39:51Z</time></trkpt>
      <trkpt lat="32.611382" lon="130.464191"><ele>10.8</ele><time>2026-10-01T02:40:04Z</time></trkpt>
      <trkpt lat="32.611086" lon="130.464436"><ele>11.2</ele><time>2026-10-01T02:40:29Z</time></trkpt>
      <trkpt lat="32.610414" lon="130.465756"><ele>15.4</ele><time>2026-10-01T02:41:22Z</time></trkpt>
      <trkpt lat="32.609836" lon="130.466302"><ele>19.2</ele><time>2026-10-01T02:41:53Z</time></trkpt>
      <trkpt lat="32.609530" lon="130.466281"><ele>21.8</ele><time>2026-10-01T02:42:08Z</time></trkpt>
      <trkpt lat="32.609125" lon="130.465519"><ele>28.2</ele><time>2026-10-01T02:42:51Z</time></trkpt>
      <trkpt lat="32.609096" lon="130.463510"><ele>41.2</ele><time>2026-10-01T02:44:46Z</time></trkpt>
      <trkpt lat="32.609502" lon="130.462581"><ele>43.4</ele><time>2026-10-01T02:45:20Z</time></trkpt>
      <trkpt lat="32.610166" lon="130.461682"><ele>45.0</ele><time>2026-10-01T02:45:46Z</time></trkpt>
      <trkpt lat="32.610358" lon="130.461308"><ele>45.8</ele><time>2026-10-01T02:45:54Z</time></trkpt>
      <trkpt lat="32.611997" lon="130.455848"><ele>45.4</ele><time>2026-10-01T02:47:37Z</time></trkpt>
      <trkpt lat="32.612344" lon="130.455759"><ele>45.0</ele><time>2026-10-01T02:47:43Z</time></trkpt>
      <trkpt lat="32.612994" lon="130.456317"><ele>43.2</ele><time>2026-10-01T02:47:54Z</time></trkpt>
      <trkpt lat="32.613352" lon="130.456179"><ele>41.6</ele><time>2026-10-01T02:47:58Z</time></trkpt>
      <trkpt lat="32.613649" lon="130.455635"><ele>39.4</ele><time>2026-10-01T02:48:04Z</time></trkpt>
      <trkpt lat="32.613946" lon="130.454368"><ele>32.6</ele><time>2026-10-01T02:48:17Z</time></trkpt>
      <trkpt lat="32.614104" lon="130.454192"><ele>31.8</ele><time>2026-10-01T02:48:20Z</time></trkpt>
      <trkpt lat="32.614444" lon="130.454023"><ele>27.8</ele><time>2026-10-01T02:48:26Z</time></trkpt>
      <trkpt lat="32.614823" lon="130.454205"><ele>26.0</ele><time>2026-10-01T02:48:28Z</time></trkpt>
      <trkpt lat="32.615064" lon="130.454187"><ele>24.0</ele><time>2026-10-01T02:48:30Z</time></trkpt>
      <trkpt lat="32.615233" lon="130.454066"><ele>22.2</ele><time>2026-10-01T02:48:32Z</time></trkpt>
      <trkpt lat="32.615575" lon="130.453443"><ele>17.0</ele><time>2026-10-01T02:48:38Z</time></trkpt>
      <trkpt lat="32.615957" lon="130.452359"><ele>12.2</ele><time>2026-10-01T02:48:46Z</time></trkpt>
      <trkpt lat="32.616936" lon="130.451231"><ele>12.0</ele><time>2026-10-01T02:49:00Z</time></trkpt>
      <trkpt lat="32.617563" lon="130.450020"><ele>11.8</ele><time>2026-10-01T02:49:14Z</time></trkpt>
      <trkpt lat="32.618799" lon="130.448589"><ele>11.4</ele><time>2026-10-01T02:49:37Z</time></trkpt>
      <trkpt lat="32.619196" lon="130.447898"><ele>11.4</ele><time>2026-10-01T02:49:47Z</time></trkpt>
      <trkpt lat="32.619360" lon="130.447161"><ele>10.8</ele><time>2026-10-01T02:49:57Z</time></trkpt>
      <trkpt lat="32.619126" lon="130.446594"><ele>9.6</ele><time>2026-10-01T02:50:05Z</time></trkpt>
      <trkpt lat="32.618367" lon="130.445284"><ele>9.6</ele><time>2026-10-01T02:50:24Z</time></trkpt>
      <trkpt lat="32.617637" lon="130.444662"><ele>10.0</ele><time>2026-10-01T02:50:38Z</time></trkpt>
      <trkpt lat="32.616838" lon="130.444278"><ele>10.2</ele><time>2026-10-01T02:50:51Z</time></trkpt>
      <trkpt lat="32.615162" lon="130.443986"><ele>17.4</ele><time>2026-10-01T02:51:36Z</time></trkpt>
      <trkpt lat="32.614586" lon="130.443992"><ele>21.2</ele><time>2026-10-01T02:52:01Z</time></trkpt>
      <trkpt lat="32.614375" lon="130.443887"><ele>24.6</ele><time>2026-10-01T02:52:57Z</time></trkpt>
      <trkpt lat="32.613878" lon="130.443866"><ele>25.6</ele><time>2026-10-01T02:53:56Z</time></trkpt>
      <trkpt lat="32.612923" lon="130.443992"><ele>28.4</ele><time>2026-10-01T02:54:33Z</time></trkpt>
      <trkpt lat="32.612322" lon="130.443938"><ele>27.4</ele><time>2026-10-01T02:54:46Z</time></trkpt>
      <trkpt lat="32.610351" lon="130.443400"><ele>25.8</ele><time>2026-10-01T02:55:14Z</time></trkpt>
      <trkpt lat="32.609117" lon="130.442834"><ele>27.2</ele><time>2026-10-01T02:55:35Z</time></trkpt>
      <trkpt lat="32.606446" lon="130.440446"><ele>28.6</ele><time>2026-10-01T02:56:18Z</time></trkpt>
      <trkpt lat="32.606429" lon="130.440600"><ele>28.4</ele><time>2026-10-01T02:56:23Z</time></trkpt>
      <trkpt lat="32.606479" lon="130.440549"><ele>27.8</ele><time>2026-10-01T02:56:27Z</time></trkpt>
      <trkpt lat="32.606329" lon="130.440483"><ele>27.4</ele><time>2026-10-01T02:56:30Z</time></trkpt>
      <trkpt lat="32.605107" lon="130.440175"><ele>23.0</ele><time>2026-10-01T02:56:44Z</time></trkpt>
      <trkpt lat="32.604532" lon="130.439866"><ele>19.2</ele><time>2026-10-01T02:56:50Z</time></trkpt>
      <trkpt lat="32.603724" lon="130.439022"><ele>13.6</ele><time>2026-10-01T02:57:01Z</time></trkpt>
      <trkpt lat="32.603514" lon="130.438979"><ele>11.8</ele><time>2026-10-01T02:57:05Z</time></trkpt>
      <trkpt lat="32.603544" lon="130.438868"><ele>11.2</ele><time>2026-10-01T02:57:18Z</time></trkpt>
      <trkpt lat="32.602469" lon="130.437718"><ele>11.4</ele><time>2026-10-01T02:57:48Z</time></trkpt>
      <trkpt lat="32.600701" lon="130.436202"><ele>20.6</ele><time>2026-10-01T02:59:04Z</time></trkpt>
      <trkpt lat="32.599860" lon="130.435883"><ele>25.2</ele><time>2026-10-01T02:59:45Z</time></trkpt>
      <trkpt lat="32.599205" lon="130.435809"><ele>28.8</ele><time>2026-10-01T03:00:18Z</time></trkpt>
      <trkpt lat="32.598755" lon="130.435642"><ele>31.2</ele><time>2026-10-01T03:01:44Z</time></trkpt>
      <trkpt lat="32.597781" lon="130.435545"><ele>35.4</ele><time>2026-10-01T03:02:29Z</time></trkpt>
      <trkpt lat="32.596764" lon="130.435094"><ele>35.0</ele><time>2026-10-01T03:02:57Z</time></trkpt>
      <trkpt lat="32.594711" lon="130.433120"><ele>29.6</ele><time>2026-10-01T03:03:42Z</time></trkpt>
      <trkpt lat="32.594340" lon="130.432626"><ele>28.8</ele><time>2026-10-01T03:03:48Z</time></trkpt>
      <trkpt lat="32.592482" lon="130.430653"><ele>14.6</ele><time>2026-10-01T03:04:13Z</time></trkpt>
      <trkpt lat="32.592073" lon="130.430339"><ele>12.4</ele><time>2026-10-01T03:04:17Z</time></trkpt>
      <trkpt lat="32.591640" lon="130.430170"><ele>10.6</ele><time>2026-10-01T03:04:21Z</time></trkpt>
      <trkpt lat="32.589752" lon="130.429841"><ele>10.6</ele><time>2026-10-01T03:04:40Z</time></trkpt>
      <trkpt lat="32.585406" lon="130.429590"><ele>11.0</ele><time>2026-10-01T03:05:31Z</time></trkpt>
      <trkpt lat="32.585004" lon="130.429476"><ele>10.6</ele><time>2026-10-01T03:05:36Z</time></trkpt>
      <trkpt lat="32.584248" lon="130.429079"><ele>10.6</ele><time>2026-10-01T03:05:47Z</time></trkpt>
      <trkpt lat="32.583233" lon="130.428000"><ele>9.8</ele><time>2026-10-01T03:06:06Z</time></trkpt>
      <trkpt lat="32.581577" lon="130.425997"><ele>13.0</ele><time>2026-10-01T03:06:46Z</time></trkpt>
      <trkpt lat="32.580717" lon="130.424809"><ele>11.8</ele><time>2026-10-01T03:07:09Z</time></trkpt>
      <trkpt lat="32.579276" lon="130.423040"><ele>11.8</ele><time>2026-10-01T03:07:39Z</time></trkpt>
      <trkpt lat="32.578580" lon="130.422330"><ele>12.2</ele><time>2026-10-01T03:07:54Z</time></trkpt>
      <trkpt lat="32.577592" lon="130.421538"><ele>9.2</ele><time>2026-10-01T03:08:10Z</time></trkpt>
      <trkpt lat="32.575951" lon="130.420399"><ele>8.2</ele><time>2026-10-01T03:08:36Z</time></trkpt>
      <trkpt lat="32.575857" lon="130.420444"><ele>8.6</ele><time>2026-10-01T03:08:38Z</time></trkpt>
      <trkpt lat="32.575855" lon="130.420605"><ele>9.2</ele><time>2026-10-01T03:08:41Z</time></trkpt>
      <trkpt lat="32.575934" lon="130.420455"><ele>9.0</ele><time>2026-10-01T03:08:45Z</time></trkpt>
      <trkpt lat="32.575800" lon="130.420403"><ele>8.0</ele><time>2026-10-01T03:09:10Z</time></trkpt>
      <trkpt lat="32.575721" lon="130.420194"><ele>7.8</ele><time>2026-10-01T03:09:15Z</time></trkpt>
      <trkpt lat="32.575136" lon="130.419774"><ele>8.0</ele><time>2026-10-01T03:09:29Z</time></trkpt>
      <trkpt lat="32.574647" lon="130.419712"><ele>8.4</ele><time>2026-10-01T03:09:37Z</time></trkpt>
      <trkpt lat="32.573848" lon="130.419816"><ele>8.6</ele><time>2026-10-01T03:09:50Z</time></trkpt>
      <trkpt lat="32.573051" lon="130.419584"><ele>8.6</ele><time>2026-10-01T03:10:02Z</time></trkpt>
      <trkpt lat="32.572658" lon="130.419380"><ele>9.0</ele><time>2026-10-01T03:10:09Z</time></trkpt>
      <trkpt lat="32.571992" lon="130.418686"><ele>10.6</ele><time>2026-10-01T03:10:25Z</time></trkpt>
      <trkpt lat="32.571528" lon="130.417287"><ele>12.8</ele><time>2026-10-01T03:10:56Z</time></trkpt>
      <trkpt lat="32.570415" lon="130.415926"><ele>8.2</ele><time>2026-10-01T03:11:16Z</time></trkpt>
      <trkpt lat="32.570017" lon="130.415490"><ele>9.0</ele><time>2026-10-01T03:11:23Z</time></trkpt>
      <trkpt lat="32.569710" lon="130.415283"><ele>9.0</ele><time>2026-10-01T03:11:28Z</time></trkpt>
      <trkpt lat="32.568977" lon="130.415042"><ele>9.2</ele><time>2026-10-01T03:11:39Z</time></trkpt>
      <trkpt lat="32.568470" lon="130.414729"><ele>9.4</ele><time>2026-10-01T03:11:48Z</time></trkpt>
      <trkpt lat="32.568221" lon="130.414289"><ele>9.2</ele><time>2026-10-01T03:11:55Z</time></trkpt>
      <trkpt lat="32.568052" lon="130.413778"><ele>8.8</ele><time>2026-10-01T03:12:02Z</time></trkpt>
      <trkpt lat="32.568013" lon="130.413396"><ele>8.8</ele><time>2026-10-01T03:12:07Z</time></trkpt>
      <trkpt lat="32.568135" lon="130.412753"><ele>9.2</ele><time>2026-10-01T03:12:17Z</time></trkpt>
      <trkpt lat="32.568330" lon="130.412250"><ele>9.6</ele><time>2026-10-01T03:12:26Z</time></trkpt>
      <trkpt lat="32.568361" lon="130.411905"><ele>9.0</ele><time>2026-10-01T03:12:32Z</time></trkpt>
      <trkpt lat="32.568243" lon="130.410974"><ele>8.4</ele><time>2026-10-01T03:12:47Z</time></trkpt>
      <trkpt lat="32.567915" lon="130.409232"><ele>8.6</ele><time>2026-10-01T03:13:16Z</time></trkpt>
      <trkpt lat="32.567746" lon="130.408941"><ele>8.8</ele><time>2026-10-01T03:13:21Z</time></trkpt>
      <trkpt lat="32.567463" lon="130.408755"><ele>8.4</ele><time>2026-10-01T03:13:26Z</time></trkpt>
      <trkpt lat="32.567008" lon="130.408844"><ele>7.8</ele><time>2026-10-01T03:13:33Z</time></trkpt>
      <trkpt lat="32.564916" lon="130.409856"><ele>5.8</ele><time>2026-10-01T03:14:04Z</time></trkpt>
      <trkpt lat="32.563711" lon="130.411128"><ele>7.0</ele><time>2026-10-01T03:14:28Z</time></trkpt>
      <trkpt lat="32.562059" lon="130.413244"><ele>9.2</ele><time>2026-10-01T03:15:06Z</time></trkpt>
      <trkpt lat="32.561628" lon="130.413595"><ele>9.4</ele><time>2026-10-01T03:15:15Z</time></trkpt>
      <trkpt lat="32.560531" lon="130.414091"><ele>11.6</ele><time>2026-10-01T03:15:34Z</time></trkpt>
      <trkpt lat="32.559212" lon="130.414857"><ele>21.2</ele><time>2026-10-01T03:16:18Z</time></trkpt>
      <trkpt lat="32.558144" lon="130.415375"><ele>24.4</ele><time>2026-10-01T03:16:55Z</time></trkpt>
      <trkpt lat="32.553573" lon="130.417090"><ele>8.8</ele><time>2026-10-01T03:17:46Z</time></trkpt>
      <trkpt lat="32.553146" lon="130.417339"><ele>8.4</ele><time>2026-10-01T03:17:51Z</time></trkpt>
      <trkpt lat="32.552704" lon="130.417714"><ele>8.2</ele><time>2026-10-01T03:17:57Z</time></trkpt>
      <trkpt lat="32.549784" lon="130.421237"><ele>12.0</ele><time>2026-10-01T03:18:59Z</time></trkpt>
      <trkpt lat="32.549407" lon="130.421567"><ele>11.4</ele><time>2026-10-01T03:19:06Z</time></trkpt>
      <trkpt lat="32.548728" lon="130.421873"><ele>11.8</ele><time>2026-10-01T03:19:17Z</time></trkpt>
      <trkpt lat="32.543813" lon="130.422642"><ele>19.4</ele><time>2026-10-01T03:22:17Z</time></trkpt>
      <trkpt lat="32.543420" lon="130.422652"><ele>18.6</ele><time>2026-10-01T03:22:22Z</time></trkpt>
      <trkpt lat="32.542787" lon="130.422398"><ele>16.4</ele><time>2026-10-01T03:22:30Z</time></trkpt>
      <trkpt lat="32.542324" lon="130.422339"><ele>14.0</ele><time>2026-10-01T03:22:35Z</time></trkpt>
      <trkpt lat="32.541961" lon="130.422507"><ele>12.4</ele><time>2026-10-01T03:22:39Z</time></trkpt>
      <trkpt lat="32.541119" lon="130.423390"><ele>7.4</ele><time>2026-10-01T03:22:50Z</time></trkpt>
      <trkpt lat="32.540727" lon="130.423553"><ele>7.0</ele><time>2026-10-01T03:22:54Z</time></trkpt>
      <trkpt lat="32.540337" lon="130.423567"><ele>7.0</ele><time>2026-10-01T03:22:58Z</time></trkpt>
      <trkpt lat="32.537848" lon="130.423187"><ele>17.4</ele><time>2026-10-01T03:23:33Z</time></trkpt>
      <trkpt lat="32.534923" lon="130.422707"><ele>7.2</ele><time>2026-10-01T03:24:11Z</time></trkpt>
      <trkpt lat="32.534447" lon="130.422723"><ele>6.2</ele><time>2026-10-01T03:24:15Z</time></trkpt>
      <trkpt lat="32.533630" lon="130.423349"><ele>4.6</ele><time>2026-10-01T03:24:24Z</time></trkpt>
      <trkpt lat="32.532866" lon="130.423647"><ele>5.4</ele><time>2026-10-01T03:24:33Z</time></trkpt>
      <trkpt lat="32.529198" lon="130.424407"><ele>13.2</ele><time>2026-10-01T03:25:52Z</time></trkpt>
      <trkpt lat="32.526462" lon="130.424938"><ele>9.0</ele><time>2026-10-01T03:26:30Z</time></trkpt>
      <trkpt lat="32.526065" lon="130.424947"><ele>9.0</ele><time>2026-10-01T03:26:35Z</time></trkpt>
      <trkpt lat="32.525309" lon="130.424767"><ele>10.2</ele><time>2026-10-01T03:26:46Z</time></trkpt>
      <trkpt lat="32.524463" lon="130.424186"><ele>14.4</ele><time>2026-10-01T03:27:11Z</time></trkpt>
      <trkpt lat="32.524521" lon="130.424089"><ele>15.0</ele><time>2026-10-01T03:28:21Z</time></trkpt>
      <trkpt lat="32.524145" lon="130.423695"><ele>16.0</ele><time>2026-10-01T03:28:39Z</time></trkpt>
      <trkpt lat="32.522716" lon="130.421693"><ele>20.6</ele><time>2026-10-01T03:29:40Z</time></trkpt>
      <trkpt lat="32.521851" lon="130.420805"><ele>20.2</ele><time>2026-10-01T03:30:05Z</time></trkpt>
      <trkpt lat="32.521089" lon="130.420480"><ele>18.2</ele><time>2026-10-01T03:30:17Z</time></trkpt>
      <trkpt lat="32.520455" lon="130.420612"><ele>15.2</ele><time>2026-10-01T03:30:25Z</time></trkpt>
      <trkpt lat="32.519894" lon="130.420999"><ele>10.8</ele><time>2026-10-01T03:30:31Z</time></trkpt>
      <trkpt lat="32.519185" lon="130.421858"><ele>4.0</ele><time>2026-10-01T03:30:39Z</time></trkpt>
      <trkpt lat="32.518916" lon="130.422360"><ele>2.0</ele><time>2026-10-01T03:30:43Z</time></trkpt>
      <trkpt lat="32.518182" lon="130.424810"><ele>2.8</ele><time>2026-10-01T03:31:04Z</time></trkpt>
      <trkpt lat="32.517731" lon="130.427766"><ele>1.8</ele><time>2026-10-01T03:31:39Z</time></trkpt>
      <trkpt lat="32.517581" lon="130.428100"><ele>2.6</ele><time>2026-10-01T03:31:44Z</time></trkpt>
      <trkpt lat="32.517229" lon="130.428402"><ele>1.8</ele><time>2026-10-01T03:31:50Z</time></trkpt>
      <trkpt lat="32.516362" lon="130.428738"><ele>2.8</ele><time>2026-10-01T03:32:02Z</time></trkpt>
      <trkpt lat="32.513891" lon="130.429368"><ele>0.4</ele><time>2026-10-01T03:32:32Z</time></trkpt>
      <trkpt lat="32.511117" lon="130.429417"><ele>2.0</ele><time>2026-10-01T03:33:13Z</time></trkpt>
      <trkpt lat="32.507821" lon="130.428046"><ele>1.6</ele><time>2026-10-01T03:34:07Z</time></trkpt>
      <trkpt lat="32.501934" lon="130.426782"><ele>5.0</ele><time>2026-10-01T03:35:55Z</time></trkpt>
      <trkpt lat="32.501243" lon="130.426546"><ele>5.8</ele><time>2026-10-01T03:36:10Z</time></trkpt>
      <trkpt lat="32.500665" lon="130.426040"><ele>6.8</ele><time>2026-10-01T03:36:24Z</time></trkpt>
      <trkpt lat="32.499557" lon="130.424666"><ele>9.0</ele><time>2026-10-01T03:37:00Z</time></trkpt>
      <trkpt lat="32.499194" lon="130.424359"><ele>9.4</ele><time>2026-10-01T03:37:10Z</time></trkpt>
      <trkpt lat="32.498828" lon="130.424233"><ele>10.2</ele><time>2026-10-01T03:37:21Z</time></trkpt>
      <trkpt lat="32.498863" lon="130.424091"><ele>11.4</ele><time>2026-10-01T03:37:55Z</time></trkpt>
      <trkpt lat="32.498906" lon="130.424218"><ele>10.4</ele><time>2026-10-01T03:39:01Z</time></trkpt>
      <trkpt lat="32.498838" lon="130.424238"><ele>10.8</ele><time>2026-10-01T03:39:43Z</time></trkpt>
      <trkpt lat="32.498870" lon="130.424035"><ele>11.6</ele><time>2026-10-01T03:40:33Z</time></trkpt>
      <trkpt lat="32.498957" lon="130.424089"><ele>11.8</ele><time>2026-10-01T03:41:01Z</time></trkpt>
      <trkpt lat="32.498959" lon="130.424196"><ele>11.8</ele><time>2026-10-01T03:41:24Z</time></trkpt>
      <trkpt lat="32.498934" lon="130.424117"><ele>11.8</ele><time>2026-10-01T03:42:04Z</time></trkpt>
      <trkpt lat="32.498877" lon="130.424182"><ele>11.8</ele><time>2026-10-01T03:42:40Z</time></trkpt>
      <trkpt lat="32.498645" lon="130.424120"><ele>11.8</ele><time>2026-10-01T03:42:48Z</time></trkpt>
      <trkpt lat="32.497318" lon="130.423495"><ele>17.6</ele><time>2026-10-01T03:43:37Z</time></trkpt>
      <trkpt lat="32.497061" lon="130.422989"><ele>21.0</ele><time>2026-10-01T03:44:04Z</time></trkpt>
      <trkpt lat="32.496592" lon="130.420546"><ele>35.0</ele><time>2026-10-01T03:45:49Z</time></trkpt>
      <trkpt lat="32.496276" lon="130.420143"><ele>36.8</ele><time>2026-10-01T03:46:15Z</time></trkpt>
      <trkpt lat="32.495786" lon="130.419745"><ele>34.6</ele><time>2026-10-01T03:46:27Z</time></trkpt>
      <trkpt lat="32.495349" lon="130.419519"><ele>32.0</ele><time>2026-10-01T03:46:33Z</time></trkpt>
      <trkpt lat="32.493323" lon="130.419293"><ele>21.6</ele><time>2026-10-01T03:46:51Z</time></trkpt>
      <trkpt lat="32.492867" lon="130.419097"><ele>18.2</ele><time>2026-10-01T03:46:55Z</time></trkpt>
      <trkpt lat="32.492577" lon="130.418838"><ele>14.2</ele><time>2026-10-01T03:46:58Z</time></trkpt>
      <trkpt lat="32.492387" lon="130.418472"><ele>11.6</ele><time>2026-10-01T03:47:01Z</time></trkpt>
      <trkpt lat="32.492302" lon="130.418085"><ele>11.8</ele><time>2026-10-01T03:47:04Z</time></trkpt>
      <trkpt lat="32.492364" lon="130.417570"><ele>10.6</ele><time>2026-10-01T03:47:08Z</time></trkpt>
      <trkpt lat="32.492570" lon="130.417137"><ele>10.0</ele><time>2026-10-01T03:47:12Z</time></trkpt>
      <trkpt lat="32.493386" lon="130.416150"><ele>8.4</ele><time>2026-10-01T03:47:26Z</time></trkpt>
      <trkpt lat="32.494845" lon="130.414029"><ele>8.6</ele><time>2026-10-01T03:48:02Z</time></trkpt>
      <trkpt lat="32.496102" lon="130.411615"><ele>7.2</ele><time>2026-10-01T03:48:43Z</time></trkpt>
      <trkpt lat="32.496731" lon="130.410006"><ele>7.2</ele><time>2026-10-01T03:49:10Z</time></trkpt>
      <trkpt lat="32.497571" lon="130.408237"><ele>6.4</ele><time>2026-10-01T03:49:39Z</time></trkpt>
      <trkpt lat="32.497872" lon="130.406034"><ele>6.6</ele><time>2026-10-01T03:50:15Z</time></trkpt>
      <trkpt lat="32.498144" lon="130.404737"><ele>6.8</ele><time>2026-10-01T03:50:38Z</time></trkpt>
      <trkpt lat="32.499976" lon="130.402327"><ele>6.4</ele><time>2026-10-01T03:51:30Z</time></trkpt>
      <trkpt lat="32.500155" lon="130.402052"><ele>6.0</ele><time>2026-10-01T03:51:35Z</time></trkpt>
      <trkpt lat="32.500295" lon="130.401609"><ele>6.0</ele><time>2026-10-01T03:51:42Z</time></trkpt>
      <trkpt lat="32.500276" lon="130.401177"><ele>5.0</ele><time>2026-10-01T03:51:49Z</time></trkpt>
      <trkpt lat="32.500178" lon="130.400847"><ele>4.2</ele><time>2026-10-01T03:51:54Z</time></trkpt>
      <trkpt lat="32.499482" lon="130.399196"><ele>6.4</ele><time>2026-10-01T03:52:22Z</time></trkpt>
      <trkpt lat="32.499301" lon="130.398429"><ele>7.6</ele><time>2026-10-01T03:52:36Z</time></trkpt>
      <trkpt lat="32.499376" lon="130.396127"><ele>6.4</ele><time>2026-10-01T03:53:13Z</time></trkpt>
      <trkpt lat="32.499114" lon="130.395567"><ele>7.6</ele><time>2026-10-01T03:53:24Z</time></trkpt>
      <trkpt lat="32.497820" lon="130.393915"><ele>10.4</ele><time>2026-10-01T03:54:11Z</time></trkpt>
      <trkpt lat="32.497733" lon="130.393621"><ele>9.0</ele><time>2026-10-01T03:54:16Z</time></trkpt>
      <trkpt lat="32.497834" lon="130.393194"><ele>7.8</ele><time>2026-10-01T03:54:24Z</time></trkpt>
      <trkpt lat="32.498005" lon="130.392988"><ele>7.4</ele><time>2026-10-01T03:54:29Z</time></trkpt>
      <trkpt lat="32.498201" lon="130.392897"><ele>6.8</ele><time>2026-10-01T03:54:33Z</time></trkpt>
      <trkpt lat="32.498975" lon="130.392952"><ele>5.8</ele><time>2026-10-01T03:54:45Z</time></trkpt>
      <trkpt lat="32.500449" lon="130.392469"><ele>5.8</ele><time>2026-10-01T03:55:17Z</time></trkpt>
      <trkpt lat="32.500606" lon="130.392508"><ele>5.8</ele><time>2026-10-01T03:55:21Z</time></trkpt>
      <trkpt lat="32.501227" lon="130.390818"><ele>6.6</ele><time>2026-10-01T03:56:03Z</time></trkpt>
      <trkpt lat="32.501360" lon="130.390699"><ele>7.0</ele><time>2026-10-01T03:56:07Z</time></trkpt>
      <trkpt lat="32.502945" lon="130.390667"><ele>7.8</ele><time>2026-10-01T03:56:40Z</time></trkpt>
      <trkpt lat="32.503393" lon="130.390575"><ele>8.0</ele><time>2026-10-01T03:56:49Z</time></trkpt>
      <trkpt lat="32.503687" lon="130.390378"><ele>8.6</ele><time>2026-10-01T03:56:56Z</time></trkpt>
      <trkpt lat="32.504574" lon="130.389266"><ele>9.2</ele><time>2026-10-01T03:57:22Z</time></trkpt>
      <trkpt lat="32.504878" lon="130.388750"><ele>9.2</ele><time>2026-10-01T03:57:33Z</time></trkpt>
      <trkpt lat="32.505598" lon="130.386555"><ele>23.2</ele><time>2026-10-01T03:58:58Z</time></trkpt>
      <trkpt lat="32.505728" lon="130.386341"><ele>24.8</ele><time>2026-10-01T03:59:11Z</time></trkpt>
      <trkpt lat="32.505903" lon="130.385520"><ele>25.2</ele><time>2026-10-01T03:59:37Z</time></trkpt>
      <trkpt lat="32.506057" lon="130.385247"><ele>23.0</ele><time>2026-10-01T03:59:41Z</time></trkpt>
      <trkpt lat="32.506204" lon="130.385135"><ele>20.6</ele><time>2026-10-01T03:59:44Z</time></trkpt>
      <trkpt lat="32.506773" lon="130.385070"><ele>20.6</ele><time>2026-10-01T03:59:50Z</time></trkpt>
      <trkpt lat="32.507054" lon="130.384931"><ele>19.2</ele><time>2026-10-01T03:59:53Z</time></trkpt>
      <trkpt lat="32.507749" lon="130.384244"><ele>12.2</ele><time>2026-10-01T04:00:01Z</time></trkpt>
      <trkpt lat="32.509200" lon="130.383256"><ele>8.6</ele><time>2026-10-01T04:00:18Z</time></trkpt>
      <trkpt lat="32.509433" lon="130.382997"><ele>8.6</ele><time>2026-10-01T04:00:22Z</time></trkpt>
      <trkpt lat="32.509543" lon="130.382675"><ele>8.4</ele><time>2026-10-01T04:00:26Z</time></trkpt>
      <trkpt lat="32.509554" lon="130.382270"><ele>7.8</ele><time>2026-10-01T04:00:31Z</time></trkpt>
      <trkpt lat="32.508576" lon="130.377256"><ele>6.0</ele><time>2026-10-01T04:01:33Z</time></trkpt>
      <trkpt lat="32.508557" lon="130.376786"><ele>6.2</ele><time>2026-10-01T04:01:40Z</time></trkpt>
      <trkpt lat="32.508941" lon="130.374829"><ele>5.4</ele><time>2026-10-01T04:02:09Z</time></trkpt>
      <trkpt lat="32.508900" lon="130.374604"><ele>5.6</ele><time>2026-10-01T04:02:36Z</time></trkpt>
      <trkpt lat="32.508856" lon="130.374622"><ele>5.4</ele><time>2026-10-01T04:03:19Z</time></trkpt>
      <trkpt lat="32.508910" lon="130.374555"><ele>5.4</ele><time>2026-10-01T04:05:26Z</time></trkpt>
      <trkpt lat="32.508917" lon="130.374643"><ele>5.4</ele><time>2026-10-01T04:09:29Z</time></trkpt>
      <trkpt lat="32.508875" lon="130.374600"><ele>5.4</ele><time>2026-10-01T04:09:49Z</time></trkpt>
      <trkpt lat="32.508986" lon="130.374506"><ele>5.4</ele><time>2026-10-01T04:10:48Z</time></trkpt>
      <trkpt lat="32.509575" lon="130.371418"><ele>10.0</ele><time>2026-10-01T04:12:16Z</time></trkpt>
      <trkpt lat="32.509775" lon="130.371046"><ele>9.0</ele><time>2026-10-01T04:12:28Z</time></trkpt>
      <trkpt lat="32.510014" lon="130.370826"><ele>9.0</ele><time>2026-10-01T04:12:35Z</time></trkpt>
      <trkpt lat="32.511647" lon="130.369761"><ele>9.2</ele><time>2026-10-01T04:13:17Z</time></trkpt>
      <trkpt lat="32.512125" lon="130.369533"><ele>9.6</ele><time>2026-10-01T04:13:30Z</time></trkpt>
      <trkpt lat="32.512689" lon="130.369391"><ele>12.2</ele><time>2026-10-01T04:13:49Z</time></trkpt>
      <trkpt lat="32.512915" lon="130.369219"><ele>13.4</ele><time>2026-10-01T04:13:58Z</time></trkpt>
      <trkpt lat="32.513109" lon="130.368921"><ele>13.2</ele><time>2026-10-01T04:14:07Z</time></trkpt>
      <trkpt lat="32.513495" lon="130.366266"><ele>9.4</ele><time>2026-10-01T04:14:46Z</time></trkpt>
      <trkpt lat="32.513827" lon="130.364275"><ele>20.4</ele><time>2026-10-01T04:15:52Z</time></trkpt>
      <trkpt lat="32.514065" lon="130.363416"><ele>25.8</ele><time>2026-10-01T04:16:39Z</time></trkpt>
      <trkpt lat="32.514000" lon="130.363296"><ele>25.6</ele><time>2026-10-01T04:17:17Z</time></trkpt>
      <trkpt lat="32.514029" lon="130.363069"><ele>25.6</ele><time>2026-10-01T04:17:23Z</time></trkpt>
      <trkpt lat="32.514260" lon="130.362597"><ele>23.4</ele><time>2026-10-01T04:17:33Z</time></trkpt>
      <trkpt lat="32.514717" lon="130.362114"><ele>19.8</ele><time>2026-10-01T04:17:42Z</time></trkpt>
      <trkpt lat="32.515034" lon="130.361965"><ele>18.8</ele><time>2026-10-01T04:17:46Z</time></trkpt>
      <trkpt lat="32.516890" lon="130.361620"><ele>13.8</ele><time>2026-10-01T04:18:08Z</time></trkpt>
      <trkpt lat="32.517665" lon="130.361606"><ele>13.6</ele><time>2026-10-01T04:18:19Z</time></trkpt>
      <trkpt lat="32.519414" lon="130.361937"><ele>10.4</ele><time>2026-10-01T04:18:42Z</time></trkpt>
      <trkpt lat="32.519718" lon="130.361831"><ele>10.6</ele><time>2026-10-01T04:18:46Z</time></trkpt>
      <trkpt lat="32.521034" lon="130.360616"><ele>11.0</ele><time>2026-10-01T04:19:11Z</time></trkpt>
      <trkpt lat="32.521993" lon="130.358872"><ele>10.0</ele><time>2026-10-01T04:19:41Z</time></trkpt>
      <trkpt lat="32.523099" lon="130.357745"><ele>11.0</ele><time>2026-10-01T04:20:12Z</time></trkpt>
      <trkpt lat="32.523367" lon="130.357204"><ele>11.4</ele><time>2026-10-01T04:20:24Z</time></trkpt>
      <trkpt lat="32.523419" lon="130.356831"><ele>11.4</ele><time>2026-10-01T04:20:31Z</time></trkpt>
      <trkpt lat="32.523354" lon="130.356352"><ele>12.0</ele><time>2026-10-01T04:20:40Z</time></trkpt>
      <trkpt lat="32.522603" lon="130.353865"><ele>17.6</ele><time>2026-10-01T04:21:36Z</time></trkpt>
      <trkpt lat="32.522215" lon="130.353274"><ele>20.4</ele><time>2026-10-01T04:21:58Z</time></trkpt>
      <trkpt lat="32.520904" lon="130.351701"><ele>26.2</ele><time>2026-10-01T04:23:03Z</time></trkpt>
      <trkpt lat="32.520677" lon="130.351254"><ele>27.6</ele><time>2026-10-01T04:23:29Z</time></trkpt>
      <trkpt lat="32.520825" lon="130.351185"><ele>27.6</ele><time>2026-10-01T04:24:55Z</time></trkpt>
      <trkpt lat="32.520679" lon="130.351194"><ele>27.6</ele><time>2026-10-01T04:25:19Z</time></trkpt>
      <trkpt lat="32.520732" lon="130.351234"><ele>27.6</ele><time>2026-10-01T04:26:03Z</time></trkpt>
      <trkpt lat="32.520675" lon="130.351260"><ele>27.6</ele><time>2026-10-01T04:26:20Z</time></trkpt>
      <trkpt lat="32.520393" lon="130.350709"><ele>27.2</ele><time>2026-10-01T04:26:56Z</time></trkpt>
      <trkpt lat="32.519203" lon="130.349007"><ele>26.6</ele><time>2026-10-01T04:27:28Z</time></trkpt>
      <trkpt lat="32.518940" lon="130.348522"><ele>25.2</ele><time>2026-10-01T04:27:35Z</time></trkpt>
      <trkpt lat="32.518859" lon="130.348163"><ele>24.2</ele><time>2026-10-01T04:27:39Z</time></trkpt>
      <trkpt lat="32.518814" lon="130.347115"><ele>20.6</ele><time>2026-10-01T04:27:49Z</time></trkpt>
      <trkpt lat="32.518846" lon="130.345035"><ele>12.8</ele><time>2026-10-01T04:28:07Z</time></trkpt>
      <trkpt lat="32.518709" lon="130.344544"><ele>12.2</ele><time>2026-10-01T04:28:12Z</time></trkpt>
      <trkpt lat="32.517687" lon="130.343053"><ele>9.4</ele><time>2026-10-01T04:28:33Z</time></trkpt>
      <trkpt lat="32.514933" lon="130.341556"><ele>8.2</ele><time>2026-10-01T04:29:19Z</time></trkpt>
      <trkpt lat="32.514536" lon="130.341217"><ele>8.4</ele><time>2026-10-01T04:29:27Z</time></trkpt>
      <trkpt lat="32.514134" lon="130.340271"><ele>9.6</ele><time>2026-10-01T04:29:43Z</time></trkpt>
      <trkpt lat="32.514033" lon="130.339784"><ele>9.6</ele><time>2026-10-01T04:29:51Z</time></trkpt>
      <trkpt lat="32.513968" lon="130.336843"><ele>8.4</ele><time>2026-10-01T04:30:36Z</time></trkpt>
      <trkpt lat="32.513823" lon="130.335994"><ele>11.0</ele><time>2026-10-01T04:30:52Z</time></trkpt>
      <trkpt lat="32.513474" lon="130.335352"><ele>14.4</ele><time>2026-10-01T04:31:10Z</time></trkpt>
      <trkpt lat="32.511595" lon="130.333197"><ele>26.6</ele><time>2026-10-01T04:32:53Z</time></trkpt>
      <trkpt lat="32.511398" lon="130.332893"><ele>29.6</ele><time>2026-10-01T04:33:08Z</time></trkpt>
      <trkpt lat="32.511270" lon="130.332438"><ele>32.8</ele><time>2026-10-01T04:33:29Z</time></trkpt>
      <trkpt lat="32.511325" lon="130.332053"><ele>35.6</ele><time>2026-10-01T04:34:23Z</time></trkpt>
      <trkpt lat="32.511606" lon="130.331639"><ele>38.0</ele><time>2026-10-01T04:34:48Z</time></trkpt>
      <trkpt lat="32.511751" lon="130.331652"><ele>38.6</ele><time>2026-10-01T04:35:19Z</time></trkpt>
      <trkpt lat="32.511664" lon="130.331665"><ele>38.0</ele><time>2026-10-01T04:35:50Z</time></trkpt>
      <trkpt lat="32.511655" lon="130.331601"><ele>38.0</ele><time>2026-10-01T04:35:58Z</time></trkpt>
      <trkpt lat="32.513257" lon="130.330918"><ele>32.6</ele><time>2026-10-01T04:36:38Z</time></trkpt>
      <trkpt lat="32.513941" lon="130.330914"><ele>31.0</ele><time>2026-10-01T04:36:45Z</time></trkpt>
      <trkpt lat="32.514717" lon="130.331232"><ele>27.6</ele><time>2026-10-01T04:36:54Z</time></trkpt>
      <trkpt lat="32.515142" lon="130.331157"><ele>26.2</ele><time>2026-10-01T04:36:59Z</time></trkpt>
      <trkpt lat="32.517079" lon="130.329433"><ele>20.6</ele><time>2026-10-01T04:37:27Z</time></trkpt>
      <trkpt lat="32.517302" lon="130.329152"><ele>19.6</ele><time>2026-10-01T04:37:30Z</time></trkpt>
      <trkpt lat="32.517412" lon="130.328943"><ele>18.6</ele><time>2026-10-01T04:37:32Z</time></trkpt>
      <trkpt lat="32.517981" lon="130.326395"><ele>14.2</ele><time>2026-10-01T04:37:57Z</time></trkpt>
      <trkpt lat="32.518708" lon="130.325463"><ele>13.8</ele><time>2026-10-01T04:38:13Z</time></trkpt>
      <trkpt lat="32.518749" lon="130.322952"><ele>13.4</ele><time>2026-10-01T04:38:51Z</time></trkpt>
      <trkpt lat="32.518158" lon="130.322011"><ele>11.8</ele><time>2026-10-01T04:39:05Z</time></trkpt>
      <trkpt lat="32.517912" lon="130.321384"><ele>11.0</ele><time>2026-10-01T04:39:13Z</time></trkpt>
      <trkpt lat="32.517788" lon="130.319282"><ele>10.2</ele><time>2026-10-01T04:39:39Z</time></trkpt>
      <trkpt lat="32.517448" lon="130.318098"><ele>10.4</ele><time>2026-10-01T04:39:55Z</time></trkpt>
      <trkpt lat="32.515814" lon="130.315624"><ele>9.6</ele><time>2026-10-01T04:40:34Z</time></trkpt>
      <trkpt lat="32.514590" lon="130.314271"><ele>13.0</ele><time>2026-10-01T04:41:05Z</time></trkpt>
      <trkpt lat="32.512411" lon="130.312302"><ele>10.0</ele><time>2026-10-01T04:41:44Z</time></trkpt>
      <trkpt lat="32.511728" lon="130.311892"><ele>9.6</ele><time>2026-10-01T04:41:54Z</time></trkpt>
      <trkpt lat="32.510509" lon="130.311360"><ele>9.2</ele><time>2026-10-01T04:42:11Z</time></trkpt>
      <trkpt lat="32.508599" lon="130.309709"><ele>8.6</ele><time>2026-10-01T04:42:43Z</time></trkpt>
      <trkpt lat="32.507092" lon="130.307810"><ele>7.0</ele><time>2026-10-01T04:43:18Z</time></trkpt>
      <trkpt lat="32.506254" lon="130.306378"><ele>8.4</ele><time>2026-10-01T04:43:40Z</time></trkpt>
      <trkpt lat="32.505377" lon="130.304435"><ele>8.4</ele><time>2026-10-01T04:44:12Z</time></trkpt>
      <trkpt lat="32.503059" lon="130.300765"><ele>8.4</ele><time>2026-10-01T04:45:10Z</time></trkpt>
      <trkpt lat="32.502565" lon="130.300339"><ele>9.4</ele><time>2026-10-01T04:45:22Z</time></trkpt>
      <trkpt lat="32.501531" lon="130.299728"><ele>9.6</ele><time>2026-10-01T04:45:45Z</time></trkpt>
      <trkpt lat="32.500844" lon="130.298781"><ele>9.2</ele><time>2026-10-01T04:46:03Z</time></trkpt>
      <trkpt lat="32.500485" lon="130.298568"><ele>9.2</ele><time>2026-10-01T04:46:09Z</time></trkpt>
      <trkpt lat="32.498987" lon="130.298712"><ele>8.8</ele><time>2026-10-01T04:46:30Z</time></trkpt>
      <trkpt lat="32.497309" lon="130.299145"><ele>11.4</ele><time>2026-10-01T04:47:01Z</time></trkpt>
      <trkpt lat="32.496948" lon="130.299164"><ele>11.8</ele><time>2026-10-01T04:47:08Z</time></trkpt>
      <trkpt lat="32.495491" lon="130.298931"><ele>16.0</ele><time>2026-10-01T04:47:38Z</time></trkpt>
      <trkpt lat="32.495084" lon="130.298763"><ele>18.2</ele><time>2026-10-01T04:47:50Z</time></trkpt>
      <trkpt lat="32.494853" lon="130.298564"><ele>19.4</ele><time>2026-10-01T04:48:01Z</time></trkpt>
      <trkpt lat="32.494355" lon="130.297882"><ele>23.2</ele><time>2026-10-01T04:48:28Z</time></trkpt>
      <trkpt lat="32.493037" lon="130.295343"><ele>16.4</ele><time>2026-10-01T04:49:36Z</time></trkpt>
      <trkpt lat="32.490486" lon="130.292504"><ele>9.8</ele><time>2026-10-01T04:50:13Z</time></trkpt>
      <trkpt lat="32.490196" lon="130.292065"><ele>9.2</ele><time>2026-10-01T04:50:20Z</time></trkpt>
      <trkpt lat="32.490033" lon="130.290996"><ele>8.4</ele><time>2026-10-01T04:50:34Z</time></trkpt>
      <trkpt lat="32.489791" lon="130.290457"><ele>8.8</ele><time>2026-10-01T04:50:42Z</time></trkpt>
      <trkpt lat="32.489576" lon="130.290284"><ele>8.8</ele><time>2026-10-01T04:50:46Z</time></trkpt>
      <trkpt lat="32.488687" lon="130.290090"><ele>10.0</ele><time>2026-10-01T04:51:00Z</time></trkpt>
      <trkpt lat="32.488413" lon="130.289897"><ele>9.6</ele><time>2026-10-01T04:51:05Z</time></trkpt>
      <trkpt lat="32.486572" lon="130.287285"><ele>11.0</ele><time>2026-10-01T04:51:52Z</time></trkpt>
      <trkpt lat="32.486484" lon="130.287080"><ele>10.6</ele><time>2026-10-01T04:51:56Z</time></trkpt>
      <trkpt lat="32.486495" lon="130.286706"><ele>10.4</ele><time>2026-10-01T04:52:02Z</time></trkpt>
      <trkpt lat="32.487110" lon="130.285793"><ele>10.8</ele><time>2026-10-01T04:52:18Z</time></trkpt>
      <trkpt lat="32.487051" lon="130.285297"><ele>12.2</ele><time>2026-10-01T04:52:26Z</time></trkpt>
      <trkpt lat="32.486774" lon="130.284648"><ele>12.8</ele><time>2026-10-01T04:52:39Z</time></trkpt>
      <trkpt lat="32.486546" lon="130.284377"><ele>13.0</ele><time>2026-10-01T04:52:46Z</time></trkpt>
      <trkpt lat="32.485635" lon="130.284016"><ele>11.2</ele><time>2026-10-01T04:53:01Z</time></trkpt>
      <trkpt lat="32.485317" lon="130.283746"><ele>10.4</ele><time>2026-10-01T04:53:06Z</time></trkpt>
      <trkpt lat="32.484333" lon="130.282449"><ele>8.6</ele><time>2026-10-01T04:53:24Z</time></trkpt>
      <trkpt lat="32.483855" lon="130.281630"><ele>8.8</ele><time>2026-10-01T04:53:35Z</time></trkpt>
      <trkpt lat="32.483699" lon="130.280813"><ele>8.4</ele><time>2026-10-01T04:53:45Z</time></trkpt>
      <trkpt lat="32.483800" lon="130.279420"><ele>8.8</ele><time>2026-10-01T04:54:04Z</time></trkpt>
      <trkpt lat="32.483448" lon="130.278321"><ele>8.6</ele><time>2026-10-01T04:54:20Z</time></trkpt>
      <trkpt lat="32.483402" lon="130.277331"><ele>8.6</ele><time>2026-10-01T04:54:33Z</time></trkpt>
      <trkpt lat="32.483235" lon="130.276574"><ele>8.8</ele><time>2026-10-01T04:54:43Z</time></trkpt>
      <trkpt lat="32.482325" lon="130.274380"><ele>11.4</ele><time>2026-10-01T04:55:23Z</time></trkpt>
      <trkpt lat="32.481870" lon="130.273511"><ele>12.0</ele><time>2026-10-01T04:55:39Z</time></trkpt>
      <trkpt lat="32.480729" lon="130.272482"><ele>10.0</ele><time>2026-10-01T04:55:59Z</time></trkpt>
      <trkpt lat="32.479353" lon="130.270214"><ele>9.0</ele><time>2026-10-01T04:56:30Z</time></trkpt>
      <trkpt lat="32.479122" lon="130.269413"><ele>8.6</ele><time>2026-10-01T04:56:40Z</time></trkpt>
      <trkpt lat="32.478976" lon="130.268162"><ele>9.0</ele><time>2026-10-01T04:56:57Z</time></trkpt>
      <trkpt lat="32.477959" lon="130.264937"><ele>10.0</ele><time>2026-10-01T04:57:43Z</time></trkpt>
      <trkpt lat="32.477672" lon="130.263141"><ele>11.8</ele><time>2026-10-01T04:58:13Z</time></trkpt>
      <trkpt lat="32.477135" lon="130.261480"><ele>14.2</ele><time>2026-10-01T04:58:45Z</time></trkpt>
      <trkpt lat="32.476890" lon="130.261052"><ele>14.6</ele><time>2026-10-01T04:58:54Z</time></trkpt>
      <trkpt lat="32.476537" lon="130.260735"><ele>15.6</ele><time>2026-10-01T04:59:04Z</time></trkpt>
      <trkpt lat="32.475165" lon="130.260304"><ele>17.8</ele><time>2026-10-01T04:59:41Z</time></trkpt>
      <trkpt lat="32.474748" lon="130.260100"><ele>19.0</ele><time>2026-10-01T04:59:53Z</time></trkpt>
      <trkpt lat="32.474255" lon="130.259675"><ele>18.4</ele><time>2026-10-01T05:00:05Z</time></trkpt>
      <trkpt lat="32.473806" lon="130.259147"><ele>17.4</ele><time>2026-10-01T05:00:16Z</time></trkpt>
      <trkpt lat="32.473390" lon="130.258290"><ele>15.8</ele><time>2026-10-01T05:00:30Z</time></trkpt>
      <trkpt lat="32.472768" lon="130.256540"><ele>13.4</ele><time>2026-10-01T05:01:03Z</time></trkpt>
      <trkpt lat="32.473330" lon="130.256177"><ele>11.6</ele><time>2026-10-01T05:01:18Z</time></trkpt>
      <trkpt lat="32.473383" lon="130.256206"><ele>11.4</ele><time>2026-10-01T05:01:20Z</time></trkpt>
      <trkpt lat="32.473352" lon="130.256377"><ele>11.6</ele><time>2026-10-01T05:01:25Z</time></trkpt>
      <trkpt lat="32.473406" lon="130.256389"><ele>11.6</ele><time>2026-10-01T05:01:27Z</time></trkpt>
      <trkpt lat="32.473383" lon="130.256195"><ele>12.4</ele><time>2026-10-01T05:02:19Z</time></trkpt>
      <trkpt lat="32.473401" lon="130.256288"><ele>11.6</ele><time>2026-10-01T05:02:50Z</time></trkpt>
      <trkpt lat="32.473519" lon="130.256326"><ele>11.6</ele><time>2026-10-01T05:04:08Z</time></trkpt>
      <trkpt lat="32.473476" lon="130.256278"><ele>11.6</ele><time>2026-10-01T05:05:43Z</time></trkpt>
      <trkpt lat="32.473442" lon="130.256407"><ele>11.6</ele><time>2026-10-01T05:07:55Z</time></trkpt>
      <trkpt lat="32.473517" lon="130.256488"><ele>11.6</ele><time>2026-10-01T05:09:44Z</time></trkpt>
      <trkpt lat="32.473428" lon="130.256431"><ele>11.6</ele><time>2026-10-01T05:10:23Z</time></trkpt>
      <trkpt lat="32.473579" lon="130.256346"><ele>12.6</ele><time>2026-10-01T05:10:59Z</time></trkpt>
      <trkpt lat="32.473403" lon="130.256405"><ele>11.4</ele><time>2026-10-01T05:11:25Z</time></trkpt>
      <trkpt lat="32.473439" lon="130.256482"><ele>11.2</ele><time>2026-10-01T05:11:52Z</time></trkpt>
      <trkpt lat="32.473522" lon="130.256338"><ele>11.2</ele><time>2026-10-01T05:13:15Z</time></trkpt>
      <trkpt lat="32.473476" lon="130.256385"><ele>11.2</ele><time>2026-10-01T05:18:08Z</time></trkpt>
      <trkpt lat="32.473494" lon="130.256309"><ele>11.2</ele><time>2026-10-01T05:20:41Z</time></trkpt>
      <trkpt lat="32.473481" lon="130.256368"><ele>11.2</ele><time>2026-10-01T05:21:14Z</time></trkpt>
      <trkpt lat="32.473436" lon="130.256321"><ele>11.2</ele><time>2026-10-01T05:22:02Z</time></trkpt>
      <trkpt lat="32.473505" lon="130.256400"><ele>11.2</ele><time>2026-10-01T05:23:30Z</time></trkpt>
      <trkpt lat="32.473480" lon="130.256269"><ele>11.2</ele><time>2026-10-01T05:33:13Z</time></trkpt>
      <trkpt lat="32.473463" lon="130.256356"><ele>11.2</ele><time>2026-10-01T05:34:59Z</time></trkpt>
      <trkpt lat="32.473533" lon="130.256357"><ele>11.2</ele><time>2026-10-01T05:36:15Z</time></trkpt>
      <trkpt lat="32.473434" lon="130.256377"><ele>11.2</ele><time>2026-10-01T05:37:22Z</time></trkpt>
      <trkpt lat="32.473497" lon="130.256314"><ele>11.2</ele><time>2026-10-01T05:39:26Z</time></trkpt>
      <trkpt lat="32.473394" lon="130.256195"><ele>10.6</ele><time>2026-10-01T05:41:22Z</time></trkpt>
      <trkpt lat="32.472891" lon="130.256490"><ele>12.0</ele><time>2026-10-01T05:41:50Z</time></trkpt>
      <trkpt lat="32.473311" lon="130.257950"><ele>13.6</ele><time>2026-10-01T05:42:38Z</time></trkpt>
      <trkpt lat="32.473533" lon="130.258331"><ele>14.6</ele><time>2026-10-01T05:42:56Z</time></trkpt>
      <trkpt lat="32.473238" lon="130.258163"><ele>13.8</ele><time>2026-10-01T05:43:58Z</time></trkpt>
      <trkpt lat="32.473330" lon="130.258249"><ele>14.2</ele><time>2026-10-01T05:44:25Z</time></trkpt>
      <trkpt lat="32.473198" lon="130.258347"><ele>14.2</ele><time>2026-10-01T05:44:49Z</time></trkpt>
      <trkpt lat="32.473375" lon="130.258160"><ele>14.2</ele><time>2026-10-01T05:46:25Z</time></trkpt>
      <trkpt lat="32.473113" lon="130.258248"><ele>14.2</ele><time>2026-10-01T05:47:27Z</time></trkpt>
      <trkpt lat="32.473194" lon="130.258134"><ele>14.2</ele><time>2026-10-01T05:47:43Z</time></trkpt>
      <trkpt lat="32.473174" lon="130.257970"><ele>14.2</ele><time>2026-10-01T05:48:35Z</time></trkpt>
      <trkpt lat="32.473286" lon="130.258216"><ele>14.2</ele><time>2026-10-01T05:49:44Z</time></trkpt>
      <trkpt lat="32.473211" lon="130.258236"><ele>14.2</ele><time>2026-10-01T05:50:09Z</time></trkpt>
      <trkpt lat="32.473271" lon="130.258249"><ele>14.2</ele><time>2026-10-01T05:50:21Z</time></trkpt>
      <trkpt lat="32.473288" lon="130.258109"><ele>14.2</ele><time>2026-10-01T05:50:26Z</time></trkpt>
      <trkpt lat="32.473239" lon="130.257868"><ele>14.0</ele><time>2026-10-01T05:50:32Z</time></trkpt>
      <trkpt lat="32.471655" lon="130.253377"><ele>8.4</ele><time>2026-10-01T05:51:38Z</time></trkpt>
      <trkpt lat="32.469269" lon="130.249574"><ele>7.2</ele><time>2026-10-01T05:52:43Z</time></trkpt>
      <trkpt lat="32.467809" lon="130.247429"><ele>7.6</ele><time>2026-10-01T05:53:26Z</time></trkpt>
      <trkpt lat="32.467351" lon="130.246501"><ele>7.2</ele><time>2026-10-01T05:53:41Z</time></trkpt>
      <trkpt lat="32.467044" lon="130.245012"><ele>7.6</ele><time>2026-10-01T05:54:04Z</time></trkpt>
      <trkpt lat="32.466827" lon="130.244390"><ele>8.0</ele><time>2026-10-01T05:54:14Z</time></trkpt>
      <trkpt lat="32.465893" lon="130.242718"><ele>9.2</ele><time>2026-10-01T05:54:45Z</time></trkpt>
      <trkpt lat="32.464962" lon="130.241263"><ele>18.8</ele><time>2026-10-01T05:56:18Z</time></trkpt>
      <trkpt lat="32.462879" lon="130.238207"><ele>8.2</ele><time>2026-10-01T05:57:07Z</time></trkpt>
      <trkpt lat="32.461937" lon="130.236528"><ele>9.0</ele><time>2026-10-01T05:57:29Z</time></trkpt>
      <trkpt lat="32.461151" lon="130.235787"><ele>8.6</ele><time>2026-10-01T05:57:44Z</time></trkpt>
      <trkpt lat="32.460685" lon="130.234931"><ele>7.4</ele><time>2026-10-01T05:57:56Z</time></trkpt>
      <trkpt lat="32.460562" lon="130.234487"><ele>7.6</ele><time>2026-10-01T05:58:02Z</time></trkpt>
      <trkpt lat="32.460486" lon="130.233421"><ele>7.6</ele><time>2026-10-01T05:58:16Z</time></trkpt>
      <trkpt lat="32.460780" lon="130.231062"><ele>8.6</ele><time>2026-10-01T05:58:48Z</time></trkpt>
      <trkpt lat="32.460683" lon="130.230661"><ele>8.4</ele><time>2026-10-01T05:58:54Z</time></trkpt>
      <trkpt lat="32.460282" lon="130.230041"><ele>8.0</ele><time>2026-10-01T05:59:04Z</time></trkpt>
      <trkpt lat="32.460077" lon="130.229280"><ele>8.4</ele><time>2026-10-01T05:59:14Z</time></trkpt>
      <trkpt lat="32.460018" lon="130.228800"><ele>8.4</ele><time>2026-10-01T05:59:20Z</time></trkpt>
      <trkpt lat="32.460156" lon="130.227203"><ele>8.0</ele><time>2026-10-01T05:59:42Z</time></trkpt>
      <trkpt lat="32.460015" lon="130.226210"><ele>8.2</ele><time>2026-10-01T05:59:56Z</time></trkpt>
      <trkpt lat="32.459169" lon="130.224318"><ele>11.8</ele><time>2026-10-01T06:00:31Z</time></trkpt>
      <trkpt lat="32.458797" lon="130.223680"><ele>13.2</ele><time>2026-10-01T06:00:49Z</time></trkpt>
      <trkpt lat="32.458548" lon="130.223391"><ele>12.0</ele><time>2026-10-01T06:00:56Z</time></trkpt>
      <trkpt lat="32.457211" lon="130.222692"><ele>8.4</ele><time>2026-10-01T06:01:14Z</time></trkpt>
      <trkpt lat="32.456947" lon="130.222338"><ele>8.0</ele><time>2026-10-01T06:01:19Z</time></trkpt>
      <trkpt lat="32.456758" lon="130.221828"><ele>8.0</ele><time>2026-10-01T06:01:25Z</time></trkpt>
      <trkpt lat="32.456659" lon="130.221206"><ele>8.0</ele><time>2026-10-01T06:01:32Z</time></trkpt>
      <trkpt lat="32.456671" lon="130.220678"><ele>7.8</ele><time>2026-10-01T06:01:38Z</time></trkpt>
      <trkpt lat="32.457180" lon="130.219231"><ele>8.4</ele><time>2026-10-01T06:01:58Z</time></trkpt>
      <trkpt lat="32.457299" lon="130.217779"><ele>9.8</ele><time>2026-10-01T06:02:17Z</time></trkpt>
      <trkpt lat="32.457157" lon="130.216783"><ele>12.2</ele><time>2026-10-01T06:02:37Z</time></trkpt>
      <trkpt lat="32.456876" lon="130.216135"><ele>12.2</ele><time>2026-10-01T06:02:50Z</time></trkpt>
      <trkpt lat="32.456353" lon="130.215429"><ele>10.6</ele><time>2026-10-01T06:03:02Z</time></trkpt>
      <trkpt lat="32.454466" lon="130.213854"><ele>8.4</ele><time>2026-10-01T06:03:29Z</time></trkpt>
      <trkpt lat="32.453990" lon="130.213311"><ele>9.0</ele><time>2026-10-01T06:03:37Z</time></trkpt>
      <trkpt lat="32.452646" lon="130.210591"><ele>8.4</ele><time>2026-10-01T06:04:15Z</time></trkpt>
      <trkpt lat="32.452052" lon="130.208417"><ele>8.2</ele><time>2026-10-01T06:04:42Z</time></trkpt>
      <trkpt lat="32.451773" lon="130.207977"><ele>7.8</ele><time>2026-10-01T06:04:48Z</time></trkpt>
      <trkpt lat="32.451464" lon="130.207707"><ele>7.8</ele><time>2026-10-01T06:04:53Z</time></trkpt>
      <trkpt lat="32.449171" lon="130.206338"><ele>7.0</ele><time>2026-10-01T06:05:27Z</time></trkpt>
      <trkpt lat="32.447929" lon="130.206007"><ele>6.8</ele><time>2026-10-01T06:05:48Z</time></trkpt>
      <trkpt lat="32.447515" lon="130.206058"><ele>6.2</ele><time>2026-10-01T06:05:54Z</time></trkpt>
      <trkpt lat="32.446480" lon="130.205897"><ele>5.4</ele><time>2026-10-01T06:06:09Z</time></trkpt>
      <trkpt lat="32.446292" lon="130.205830"><ele>5.4</ele><time>2026-10-01T06:06:12Z</time></trkpt>
      <trkpt lat="32.445670" lon="130.205229"><ele>7.0</ele><time>2026-10-01T06:06:25Z</time></trkpt>
      <trkpt lat="32.445690" lon="130.204970"><ele>7.8</ele><time>2026-10-01T06:06:30Z</time></trkpt>
      <trkpt lat="32.445612" lon="130.204902"><ele>8.6</ele><time>2026-10-01T06:07:13Z</time></trkpt>
      <trkpt lat="32.445731" lon="130.205300"><ele>8.2</ele><time>2026-10-01T06:08:19Z</time></trkpt>
      <trkpt lat="32.446425" lon="130.205832"><ele>6.8</ele><time>2026-10-01T06:08:40Z</time></trkpt>
      <trkpt lat="32.447627" lon="130.205966"><ele>6.6</ele><time>2026-10-01T06:09:16Z</time></trkpt>
      <trkpt lat="32.447849" lon="130.205885"><ele>7.0</ele><time>2026-10-01T06:09:21Z</time></trkpt>
      <trkpt lat="32.447866" lon="130.205751"><ele>7.2</ele><time>2026-10-01T06:09:24Z</time></trkpt>
      <trkpt lat="32.447606" lon="130.205114"><ele>8.8</ele><time>2026-10-01T06:09:40Z</time></trkpt>
      <trkpt lat="32.447368" lon="130.205033"><ele>10.0</ele><time>2026-10-01T06:09:46Z</time></trkpt>
      <trkpt lat="32.447065" lon="130.205282"><ele>12.6</ele><time>2026-10-01T06:10:03Z</time></trkpt>
      <trkpt lat="32.447048" lon="130.205570"><ele>13.8</ele><time>2026-10-01T06:10:16Z</time></trkpt>
      <trkpt lat="32.447153" lon="130.205763"><ele>14.6</ele><time>2026-10-01T06:10:28Z</time></trkpt>
      <trkpt lat="32.447497" lon="130.205862"><ele>16.6</ele><time>2026-10-01T06:10:51Z</time></trkpt>
      <trkpt lat="32.447833" lon="130.205678"><ele>18.6</ele><time>2026-10-01T06:11:13Z</time></trkpt>
      <trkpt lat="32.448013" lon="130.205094"><ele>21.8</ele><time>2026-10-01T06:11:45Z</time></trkpt>
      <trkpt lat="32.448098" lon="130.202901"><ele>21.0</ele><time>2026-10-01T06:12:45Z</time></trkpt>
      <trkpt lat="32.448070" lon="130.202376"><ele>19.4</ele><time>2026-10-01T06:12:52Z</time></trkpt>
      <trkpt lat="32.447965" lon="130.201960"><ele>18.2</ele><time>2026-10-01T06:12:57Z</time></trkpt>
      <trkpt lat="32.447588" lon="130.201289"><ele>15.2</ele><time>2026-10-01T06:13:05Z</time></trkpt>
      <trkpt lat="32.447021" lon="130.200633"><ele>10.8</ele><time>2026-10-01T06:13:35Z</time></trkpt>
      <trkpt lat="32.446551" lon="130.200335"><ele>6.2</ele><time>2026-10-01T06:13:54Z</time></trkpt>
      <trkpt lat="32.446350" lon="130.200350"><ele>4.0</ele><time>2026-10-01T06:13:58Z</time></trkpt>
      <trkpt lat="32.446231" lon="130.200720"><ele>3.6</ele><time>2026-10-01T06:14:05Z</time></trkpt>
      <trkpt lat="32.446434" lon="130.201040"><ele>4.0</ele><time>2026-10-01T06:14:12Z</time></trkpt>
      <trkpt lat="32.446639" lon="130.201124"><ele>4.4</ele><time>2026-10-01T06:14:17Z</time></trkpt>
      <trkpt lat="32.447083" lon="130.200848"><ele>4.8</ele><time>2026-10-01T06:14:29Z</time></trkpt>
      <trkpt lat="32.448110" lon="130.199985"><ele>4.4</ele><time>2026-10-01T06:14:59Z</time></trkpt>
      <trkpt lat="32.449832" lon="130.198891"><ele>5.4</ele><time>2026-10-01T06:15:34Z</time></trkpt>
      <trkpt lat="32.450893" lon="130.197609"><ele>4.0</ele><time>2026-10-01T06:16:00Z</time></trkpt>
      <trkpt lat="32.451161" lon="130.197437"><ele>4.4</ele><time>2026-10-01T06:16:26Z</time></trkpt>
      <trkpt lat="32.451823" lon="130.196547"><ele>4.2</ele><time>2026-10-01T06:16:45Z</time></trkpt>
      <trkpt lat="32.452382" lon="130.196102"><ele>4.8</ele><time>2026-10-01T06:17:05Z</time></trkpt>
      <trkpt lat="32.452577" lon="130.195828"><ele>4.2</ele><time>2026-10-01T06:17:56Z</time></trkpt>
      <trkpt lat="32.452635" lon="130.195882"><ele>4.2</ele><time>2026-10-01T06:18:07Z</time></trkpt>
      <trkpt lat="32.452592" lon="130.196105"><ele>5.0</ele><time>2026-10-01T06:18:14Z</time></trkpt>
      <trkpt lat="32.454026" lon="130.196587"><ele>5.0</ele><time>2026-10-01T06:18:48Z</time></trkpt>
      <trkpt lat="32.455246" lon="130.196697"><ele>6.2</ele><time>2026-10-01T06:19:21Z</time></trkpt>
      <trkpt lat="32.456347" lon="130.196675"><ele>6.4</ele><time>2026-10-01T06:19:46Z</time></trkpt>
      <trkpt lat="32.456416" lon="130.196781"><ele>6.4</ele><time>2026-10-01T06:19:50Z</time></trkpt>
      <trkpt lat="32.456387" lon="130.197009"><ele>6.2</ele><time>2026-10-01T06:19:58Z</time></trkpt>
      <trkpt lat="32.456388" lon="130.196932"><ele>6.8</ele><time>2026-10-01T06:20:04Z</time></trkpt>
      <trkpt lat="32.456371" lon="130.197006"><ele>6.6</ele><time>2026-10-01T06:20:07Z</time></trkpt>
      <trkpt lat="32.456434" lon="130.197000"><ele>6.2</ele><time>2026-10-01T06:20:09Z</time></trkpt>
      <trkpt lat="32.456805" lon="130.196697"><ele>6.8</ele><time>2026-10-01T06:20:21Z</time></trkpt>
      <trkpt lat="32.457990" lon="130.195534"><ele>7.4</ele><time>2026-10-01T06:20:58Z</time></trkpt>
      <trkpt lat="32.458795" lon="130.194892"><ele>7.6</ele><time>2026-10-01T06:21:14Z</time></trkpt>
      <trkpt lat="32.458954" lon="130.194970"><ele>7.6</ele><time>2026-10-01T06:21:18Z</time></trkpt>
      <trkpt lat="32.459240" lon="130.195524"><ele>7.8</ele><time>2026-10-01T06:21:28Z</time></trkpt>
    </trkseg>
  </trk>
</gpx>
