<?xml version="1.0" encoding="UTF-8"?>
<gpx version="1.1" creator="gpx2reel" xmlns="http://www.topografix.com/GPX/1/1">
  <trk><name>Day 8</name>
    <trkseg>
      <trkpt lat="32.093803" lon="130.350175"><ele>12.6</ele><time>2026-09-29T23:43:45Z</time></trkpt>
      <trkpt lat="32.113598" lon="130.340491"><ele>6.8</ele><time>2026-09-29T23:49:58Z</time></trkpt>
      <trkpt lat="32.114351" lon="130.340258"><ele>7.2</ele><time>2026-09-29T23:50:13Z</time></trkpt>
      <trkpt lat="32.115354" lon="130.340177"><ele>7.4</ele><time>2026-09-29T23:50:33Z</time></trkpt>
      <trkpt lat="32.116933" lon="130.340085"><ele>5.6</ele><time>2026-09-29T23:51:17Z</time></trkpt>
      <trkpt lat="32.117947" lon="130.340156"><ele>6.6</ele><time>2026-09-29T23:51:56Z</time></trkpt>
      <trkpt lat="32.118328" lon="130.340523"><ele>7.0</ele><time>2026-09-29T23:52:06Z</time></trkpt>
      <trkpt lat="32.118870" lon="130.340667"><ele>5.6</ele><time>2026-09-29T23:52:16Z</time></trkpt>
      <trkpt lat="32.120349" lon="130.341401"><ele>5.8</ele><time>2026-09-29T23:52:46Z</time></trkpt>
      <trkpt lat="32.125003" lon="130.344004"><ele>11.0</ele><time>2026-09-29T23:54:45Z</time></trkpt>
      <trkpt lat="32.126149" lon="130.344127"><ele>12.6</ele><time>2026-09-29T23:55:15Z</time></trkpt>
      <trkpt lat="32.126642" lon="130.344332"><ele>13.4</ele><time>2026-09-29T23:55:28Z</time></trkpt>
      <trkpt lat="32.127209" lon="130.344957"><ele>13.0</ele><time>2026-09-29T23:55:50Z</time></trkpt>
      <trkpt lat="32.131468" lon="130.348749"><ele>15.0</ele><time>2026-09-29T23:57:42Z</time></trkpt>
      <trkpt lat="32.132446" lon="130.349919"><ele>10.6</ele><time>2026-09-29T23:58:00Z</time></trkpt>
      <trkpt lat="32.135536" lon="130.352438"><ele>11.8</ele><time>2026-09-29T23:59:04Z</time></trkpt>
      <trkpt lat="32.137076" lon="130.352922"><ele>10.0</ele><time>2026-09-29T23:59:27Z</time></trkpt>
      <trkpt lat="32.144745" lon="130.356546"><ele>13.0</ele><time>2026-09-30T00:02:08Z</time></trkpt>
      <trkpt lat="32.145309" lon="130.356890"><ele>14.0</ele><time>2026-09-30T00:02:21Z</time></trkpt>
      <trkpt lat="32.145770" lon="130.357293"><ele>14.6</ele><time>2026-09-30T00:02:33Z</time></trkpt>
      <trkpt lat="32.147301" lon="130.359046"><ele>17.4</ele><time>2026-09-30T00:03:20Z</time></trkpt>
      <trkpt lat="32.148027" lon="130.359642"><ele>18.2</ele><time>2026-09-30T00:03:39Z</time></trkpt>
      <trkpt lat="32.148214" lon="130.359906"><ele>18.6</ele><time>2026-09-30T00:03:45Z</time></trkpt>
      <trkpt lat="32.148944" lon="130.361196"><ele>18.8</ele><time>2026-09-30T00:04:10Z</time></trkpt>
      <trkpt lat="32.149264" lon="130.362036"><ele>18.4</ele><time>2026-09-30T00:04:25Z</time></trkpt>
      <trkpt lat="32.149590" lon="130.363188"><ele>15.4</ele><time>2026-09-30T00:04:40Z</time></trkpt>
      <trkpt lat="32.149853" lon="130.363538"><ele>14.6</ele><time>2026-09-30T00:04:45Z</time></trkpt>
      <trkpt lat="32.150132" lon="130.363752"><ele>14.2</ele><time>2026-09-30T00:04:49Z</time></trkpt>
      <trkpt lat="32.152537" lon="130.364569"><ele>11.0</ele><time>2026-09-30T00:05:24Z</time></trkpt>
      <trkpt lat="32.153288" lon="130.364619"><ele>11.4</ele><time>2026-09-30T00:05:35Z</time></trkpt>
      <trkpt lat="32.154437" lon="130.364420"><ele>12.4</ele><time>2026-09-30T00:05:55Z</time></trkpt>
      <trkpt lat="32.155072" lon="130.363982"><ele>13.2</ele><time>2026-09-30T00:06:09Z</time></trkpt>
      <trkpt lat="32.155538" lon="130.363522"><ele>14.8</ele><time>2026-09-30T00:06:23Z</time></trkpt>
      <trkpt lat="32.156069" lon="130.363370"><ele>15.8</ele><time>2026-09-30T00:06:36Z</time></trkpt>
      <trkpt lat="32.156674" lon="130.363516"><ele>17.0</ele><time>2026-09-30T00:06:53Z</time></trkpt>
      <trkpt lat="32.158221" lon="130.364068"><ele>23.8</ele><time>2026-09-30T00:07:59Z</time></trkpt>
      <trkpt lat="32.158206" lon="130.364121"><ele>24.0</ele><time>2026-09-30T00:08:26Z</time></trkpt>
      <trkpt lat="32.158233" lon="130.364037"><ele>23.8</ele><time>2026-09-30T00:09:09Z</time></trkpt>
      <trkpt lat="32.158191" lon="130.364131"><ele>24.0</ele><time>2026-09-30T00:09:54Z</time></trkpt>
      <trkpt lat="32.158717" lon="130.364390"><ele>25.0</ele><time>2026-09-30T00:10:22Z</time></trkpt>
      <trkpt lat="32.161816" lon="130.367389"><ele>27.6</ele><time>2026-09-30T00:11:52Z</time></trkpt>
      <trkpt lat="32.162163" lon="130.367779"><ele>27.8</ele><time>2026-09-30T00:12:03Z</time></trkpt>
      <trkpt lat="32.162354" lon="130.368153"><ele>28.4</ele><time>2026-09-30T00:12:11Z</time></trkpt>
      <trkpt lat="32.162495" lon="130.368618"><ele>29.6</ele><time>2026-09-30T00:12:22Z</time></trkpt>
      <trkpt lat="32.162548" lon="130.369117"><ele>30.8</ele><time>2026-09-30T00:12:36Z</time></trkpt>
      <trkpt lat="32.162071" lon="130.373274"><ele>44.4</ele><time>2026-09-30T00:14:44Z</time></trkpt>
      <trkpt lat="32.162172" lon="130.373983"><ele>46.2</ele><time>2026-09-30T00:15:03Z</time></trkpt>
      <trkpt lat="32.162383" lon="130.374348"><ele>47.6</ele><time>2026-09-30T00:15:16Z</time></trkpt>
      <trkpt lat="32.163033" lon="130.375133"><ele>50.0</ele><time>2026-09-30T00:15:44Z</time></trkpt>
      <trkpt lat="32.163509" lon="130.375439"><ele>49.6</ele><time>2026-09-30T00:15:56Z</time></trkpt>
      <trkpt lat="32.163750" lon="130.375456"><ele>48.8</ele><time>2026-09-30T00:16:00Z</time></trkpt>
      <trkpt lat="32.164587" lon="130.375264"><ele>46.2</ele><time>2026-09-30T00:16:12Z</time></trkpt>
      <trkpt lat="32.165057" lon="130.375291"><ele>44.8</ele><time>2026-09-30T00:16:18Z</time></trkpt>
      <trkpt lat="32.166307" lon="130.376030"><ele>40.2</ele><time>2026-09-30T00:16:33Z</time></trkpt>
      <trkpt lat="32.167290" lon="130.376993"><ele>35.8</ele><time>2026-09-30T00:16:47Z</time></trkpt>
      <trkpt lat="32.168489" lon="130.378505"><ele>29.6</ele><time>2026-09-30T00:17:07Z</time></trkpt>
      <trkpt lat="32.170936" lon="130.380768"><ele>18.6</ele><time>2026-09-30T00:17:37Z</time></trkpt>
      <trkpt lat="32.172510" lon="130.381297"><ele>14.8</ele><time>2026-09-30T00:17:54Z</time></trkpt>
      <trkpt lat="32.173777" lon="130.382254"><ele>16.4</ele><time>2026-09-30T00:18:19Z</time></trkpt>
      <trkpt lat="32.174351" lon="130.382593"><ele>15.4</ele><time>2026-09-30T00:18:31Z</time></trkpt>
      <trkpt lat="32.176830" lon="130.383838"><ele>12.6</ele><time>2026-09-30T00:19:09Z</time></trkpt>
      <trkpt lat="32.177095" lon="130.383816"><ele>12.0</ele><time>2026-09-30T00:19:15Z</time></trkpt>
      <trkpt lat="32.180030" lon="130.382719"><ele>8.2</ele><time>2026-09-30T00:20:05Z</time></trkpt>
      <trkpt lat="32.180442" lon="130.382500"><ele>8.4</ele><time>2026-09-30T00:20:11Z</time></trkpt>
      <trkpt lat="32.180826" lon="130.381944"><ele>8.8</ele><time>2026-09-30T00:20:20Z</time></trkpt>
      <trkpt lat="32.180885" lon="130.381529"><ele>10.6</ele><time>2026-09-30T00:20:27Z</time></trkpt>
      <trkpt lat="32.180657" lon="130.379646"><ele>19.6</ele><time>2026-09-30T00:21:10Z</time></trkpt>
      <trkpt lat="32.180749" lon="130.379040"><ele>22.4</ele><time>2026-09-30T00:21:32Z</time></trkpt>
      <trkpt lat="32.180963" lon="130.378731"><ele>23.8</ele><time>2026-09-30T00:21:47Z</time></trkpt>
      <trkpt lat="32.181229" lon="130.378542"><ele>25.2</ele><time>2026-09-30T00:22:01Z</time></trkpt>
      <trkpt lat="32.181892" lon="130.378483"><ele>27.2</ele><time>2026-09-30T00:22:28Z</time></trkpt>
      <trkpt lat="32.185147" lon="130.380965"><ele>32.0</ele><time>2026-09-30T00:24:20Z</time></trkpt>
      <trkpt lat="32.185739" lon="130.381537"><ele>32.4</ele><time>2026-09-30T00:24:39Z</time></trkpt>
      <trkpt lat="32.186698" lon="130.382292"><ele>30.2</ele><time>2026-09-30T00:24:58Z</time></trkpt>
      <trkpt lat="32.186919" lon="130.382260"><ele>30.6</ele><time>2026-09-30T00:25:02Z</time></trkpt>
      <trkpt lat="32.187132" lon="130.382047"><ele>30.4</ele><time>2026-09-30T00:25:07Z</time></trkpt>
      <trkpt lat="32.188025" lon="130.380272"><ele>27.6</ele><time>2026-09-30T00:25:34Z</time></trkpt>
      <trkpt lat="32.188387" lon="130.380006"><ele>27.6</ele><time>2026-09-30T00:25:41Z</time></trkpt>
      <trkpt lat="32.189063" lon="130.379950"><ele>27.0</ele><time>2026-09-30T00:25:51Z</time></trkpt>
      <trkpt lat="32.189467" lon="130.380056"><ele>25.8</ele><time>2026-09-30T00:25:57Z</time></trkpt>
      <trkpt lat="32.189956" lon="130.380954"><ele>24.4</ele><time>2026-09-30T00:26:11Z</time></trkpt>
      <trkpt lat="32.190404" lon="130.381263"><ele>23.4</ele><time>2026-09-30T00:26:19Z</time></trkpt>
      <trkpt lat="32.192088" lon="130.381927"><ele>17.6</ele><time>2026-09-30T00:26:42Z</time></trkpt>
      <trkpt lat="32.193404" lon="130.382554"><ele>15.0</ele><time>2026-09-30T00:27:00Z</time></trkpt>
      <trkpt lat="32.193969" lon="130.382542"><ele>14.8</ele><time>2026-09-30T00:27:09Z</time></trkpt>
      <trkpt lat="32.194666" lon="130.382087"><ele>15.8</ele><time>2026-09-30T00:27:26Z</time></trkpt>
      <trkpt lat="32.194846" lon="130.382075"><ele>16.0</ele><time>2026-09-30T00:27:30Z</time></trkpt>
      <trkpt lat="32.195499" lon="130.382365"><ele>17.4</ele><time>2026-09-30T00:27:45Z</time></trkpt>
      <trkpt lat="32.196142" lon="130.382332"><ele>19.8</ele><time>2026-09-30T00:27:59Z</time></trkpt>
      <trkpt lat="32.196733" lon="130.382511"><ele>20.8</ele><time>2026-09-30T00:28:15Z</time></trkpt>
      <trkpt lat="32.197711" lon="130.383248"><ele>17.2</ele><time>2026-09-30T00:28:37Z</time></trkpt>
      <trkpt lat="32.198039" lon="130.383790"><ele>17.2</ele><time>2026-09-30T00:28:46Z</time></trkpt>
      <trkpt lat="32.198090" lon="130.384186"><ele>15.8</ele><time>2026-09-30T00:28:50Z</time></trkpt>
      <trkpt lat="32.197828" lon="130.384385"><ele>14.8</ele><time>2026-09-30T00:28:53Z</time></trkpt>
      <trkpt lat="32.197737" lon="130.384881"><ele>13.6</ele><time>2026-09-30T00:28:58Z</time></trkpt>
      <trkpt lat="32.197702" lon="130.385393"><ele>12.0</ele><time>2026-09-30T00:29:03Z</time></trkpt>
      <trkpt lat="32.197807" lon="130.385635"><ele>11.4</ele><time>2026-09-30T00:29:06Z</time></trkpt>
      <trkpt lat="32.199108" lon="130.386799"><ele>7.8</ele><time>2026-09-30T00:29:31Z</time></trkpt>
      <trkpt lat="32.200000" lon="130.388390"><ele>5.4</ele><time>2026-09-30T00:29:58Z</time></trkpt>
      <trkpt lat="32.200390" lon="130.388870"><ele>5.2</ele><time>2026-09-30T00:30:06Z</time></trkpt>
      <trkpt lat="32.200957" lon="130.389361"><ele>5.6</ele><time>2026-09-30T00:30:17Z</time></trkpt>
      <trkpt lat="32.201397" lon="130.390317"><ele>4.8</ele><time>2026-09-30T00:30:33Z</time></trkpt>
      <trkpt lat="32.205579" lon="130.396252"><ele>3.2</ele><time>2026-09-30T00:32:22Z</time></trkpt>
      <trkpt lat="32.208870" lon="130.401255"><ele>4.2</ele><time>2026-09-30T00:34:03Z</time></trkpt>
      <trkpt lat="32.209606" lon="130.402162"><ele>3.8</ele><time>2026-09-30T00:34:46Z</time></trkpt>
      <trkpt lat="32.210195" lon="130.402440"><ele>3.6</ele><time>2026-09-30T00:34:59Z</time></trkpt>
      <trkpt lat="32.210321" lon="130.402621"><ele>4.0</ele><time>2026-09-30T00:35:03Z</time></trkpt>
      <trkpt lat="32.210947" lon="130.405888"><ele>5.0</ele><time>2026-09-30T00:35:53Z</time></trkpt>
      <trkpt lat="32.211439" lon="130.408978"><ele>7.6</ele><time>2026-09-30T00:36:48Z</time></trkpt>
      <trkpt lat="32.211453" lon="130.409623"><ele>10.0</ele><time>2026-09-30T00:37:02Z</time></trkpt>
      <trkpt lat="32.211186" lon="130.410630"><ele>13.8</ele><time>2026-09-30T00:37:34Z</time></trkpt>
      <trkpt lat="32.210426" lon="130.412147"><ele>19.0</ele><time>2026-09-30T00:38:31Z</time></trkpt>
      <trkpt lat="32.210227" lon="130.412790"><ele>19.6</ele><time>2026-09-30T00:38:48Z</time></trkpt>
      <trkpt lat="32.210205" lon="130.413361"><ele>19.8</ele><time>2026-09-30T00:39:01Z</time></trkpt>
      <trkpt lat="32.210357" lon="130.414837"><ele>20.0</ele><time>2026-09-30T00:39:32Z</time></trkpt>
      <trkpt lat="32.210293" lon="130.415548"><ele>19.8</ele><time>2026-09-30T00:39:46Z</time></trkpt>
      <trkpt lat="32.209856" lon="130.416622"><ele>19.4</ele><time>2026-09-30T00:40:06Z</time></trkpt>
      <trkpt lat="32.209755" lon="130.417112"><ele>19.6</ele><time>2026-09-30T00:40:14Z</time></trkpt>
      <trkpt lat="32.209875" lon="130.418530"><ele>21.8</ele><time>2026-09-30T00:40:39Z</time></trkpt>
      <trkpt lat="32.209770" lon="130.419866"><ele>25.4</ele><time>2026-09-30T00:41:15Z</time></trkpt>
      <trkpt lat="32.209849" lon="130.420219"><ele>26.0</ele><time>2026-09-30T00:41:30Z</time></trkpt>
      <trkpt lat="32.209694" lon="130.420629"><ele>27.0</ele><time>2026-09-30T00:41:40Z</time></trkpt>
      <trkpt lat="32.209470" lon="130.422441"><ele>36.6</ele><time>2026-09-30T00:42:34Z</time></trkpt>
      <trkpt lat="32.209571" lon="130.423887"><ele>39.8</ele><time>2026-09-30T00:43:13Z</time></trkpt>
      <trkpt lat="32.210061" lon="130.425659"><ele>36.4</ele><time>2026-09-30T00:43:39Z</time></trkpt>
      <trkpt lat="32.211351" lon="130.428944"><ele>31.6</ele><time>2026-09-30T00:44:40Z</time></trkpt>
      <trkpt lat="32.212090" lon="130.430206"><ele>28.6</ele><time>2026-09-30T00:45:01Z</time></trkpt>
      <trkpt lat="32.213765" lon="130.432257"><ele>28.8</ele><time>2026-09-30T00:45:39Z</time></trkpt>
      <trkpt lat="32.214085" lon="130.432949"><ele>27.8</ele><time>2026-09-30T00:45:48Z</time></trkpt>
      <trkpt lat="32.214314" lon="130.434376"><ele>26.8</ele><time>2026-09-30T00:46:04Z</time></trkpt>
      <trkpt lat="32.214491" lon="130.434871"><ele>24.6</ele><time>2026-09-30T00:46:10Z</time></trkpt>
      <trkpt lat="32.215298" lon="130.436334"><ele>21.0</ele><time>2026-09-30T00:46:27Z</time></trkpt>
      <trkpt lat="32.215659" lon="130.436850"><ele>20.0</ele><time>2026-09-30T00:46:33Z</time></trkpt>
      <trkpt lat="32.215944" lon="130.437108"><ele>19.0</ele><time>2026-09-30T00:46:37Z</time></trkpt>
      <trkpt lat="32.219500" lon="130.438324"><ele>14.6</ele><time>2026-09-30T00:47:27Z</time></trkpt>
      <trkpt lat="32.219831" lon="130.438368"><ele>13.8</ele><time>2026-09-30T00:47:31Z</time></trkpt>
      <trkpt lat="32.222526" lon="130.437833"><ele>6.6</ele><time>2026-09-30T00:48:09Z</time></trkpt>
      <trkpt lat="32.223366" lon="130.437782"><ele>6.6</ele><time>2026-09-30T00:48:23Z</time></trkpt>
      <trkpt lat="32.225266" lon="130.437862"><ele>5.8</ele><time>2026-09-30T00:48:58Z</time></trkpt>
      <trkpt lat="32.225824" lon="130.438222"><ele>6.2</ele><time>2026-09-30T00:49:12Z</time></trkpt>
      <trkpt lat="32.226102" lon="130.437959"><ele>5.6</ele><time>2026-09-30T00:49:18Z</time></trkpt>
      <trkpt lat="32.226735" lon="130.436756"><ele>4.8</ele><time>2026-09-30T00:49:37Z</time></trkpt>
      <trkpt lat="32.227017" lon="130.436487"><ele>5.6</ele><time>2026-09-30T00:49:43Z</time></trkpt>
      <trkpt lat="32.228305" lon="130.435667"><ele>3.4</ele><time>2026-09-30T00:50:07Z</time></trkpt>
      <trkpt lat="32.228582" lon="130.435614"><ele>1.2</ele><time>2026-09-30T00:50:12Z</time></trkpt>
      <trkpt lat="32.228841" lon="130.435685"><ele>2.2</ele><time>2026-09-30T00:50:17Z</time></trkpt>
      <trkpt lat="32.229062" lon="130.435874"><ele>3.6</ele><time>2026-09-30T00:50:22Z</time></trkpt>
      <trkpt lat="32.229995" lon="130.437038"><ele>3.2</ele><time>2026-09-30T00:50:46Z</time></trkpt>
      <trkpt lat="32.231277" lon="130.437451"><ele>3.4</ele><time>2026-09-30T00:51:10Z</time></trkpt>
      <trkpt lat="32.233130" lon="130.438776"><ele>2.8</ele><time>2026-09-30T00:51:49Z</time></trkpt>
      <trkpt lat="32.235485" lon="130.439829"><ele>7.4</ele><time>2026-09-30T00:52:38Z</time></trkpt>
      <trkpt lat="32.237489" lon="130.440479"><ele>13.0</ele><time>2026-09-30T00:53:44Z</time></trkpt>
      <trkpt lat="32.238077" lon="130.441077"><ele>11.8</ele><time>2026-09-30T00:54:03Z</time></trkpt>
      <trkpt lat="32.238217" lon="130.441459"><ele>11.6</ele><time>2026-09-30T00:54:08Z</time></trkpt>
      <trkpt lat="32.238157" lon="130.441627"><ele>11.4</ele><time>2026-09-30T00:54:10Z</time></trkpt>
      <trkpt lat="32.238200" lon="130.441801"><ele>10.8</ele><time>2026-09-30T00:54:12Z</time></trkpt>
      <trkpt lat="32.237985" lon="130.441951"><ele>10.0</ele><time>2026-09-30T00:54:14Z</time></trkpt>
      <trkpt lat="32.237838" lon="130.441958"><ele>9.0</ele><time>2026-09-30T00:54:16Z</time></trkpt>
      <trkpt lat="32.237716" lon="130.442300"><ele>5.4</ele><time>2026-09-30T00:54:22Z</time></trkpt>
      <trkpt lat="32.237534" lon="130.442329"><ele>3.8</ele><time>2026-09-30T00:54:26Z</time></trkpt>
      <trkpt lat="32.237340" lon="130.442039"><ele>3.8</ele><time>2026-09-30T00:54:27Z</time></trkpt>
      <trkpt lat="32.237250" lon="130.441647"><ele>3.8</ele><time>2026-09-30T00:54:30Z</time></trkpt>
      <trkpt lat="32.237408" lon="130.440922"><ele>6.2</ele><time>2026-09-30T00:54:42Z</time></trkpt>
      <trkpt lat="32.237400" lon="130.440115"><ele>6.2</ele><time>2026-09-30T00:55:00Z</time></trkpt>
      <trkpt lat="32.237774" lon="130.439443"><ele>2.6</ele><time>2026-09-30T00:55:12Z</time></trkpt>
      <trkpt lat="32.238630" lon="130.439013"><ele>3.4</ele><time>2026-09-30T00:55:29Z</time></trkpt>
      <trkpt lat="32.238829" lon="130.438667"><ele>5.4</ele><time>2026-09-30T00:55:37Z</time></trkpt>
      <trkpt lat="32.238769" lon="130.438349"><ele>6.4</ele><time>2026-09-30T00:55:44Z</time></trkpt>
      <trkpt lat="32.238642" lon="130.438149"><ele>7.2</ele><time>2026-09-30T00:55:49Z</time></trkpt>
      <trkpt lat="32.238258" lon="130.437869"><ele>10.4</ele><time>2026-09-30T00:56:04Z</time></trkpt>
      <trkpt lat="32.238047" lon="130.437444"><ele>13.4</ele><time>2026-09-30T00:56:26Z</time></trkpt>
      <trkpt lat="32.238122" lon="130.436878"><ele>14.2</ele><time>2026-09-30T00:56:49Z</time></trkpt>
      <trkpt lat="32.238417" lon="130.436149"><ele>17.0</ele><time>2026-09-30T00:57:22Z</time></trkpt>
      <trkpt lat="32.238926" lon="130.435845"><ele>16.4</ele><time>2026-09-30T00:57:47Z</time></trkpt>
      <trkpt lat="32.239043" lon="130.435847"><ele>16.0</ele><time>2026-09-30T00:58:03Z</time></trkpt>
      <trkpt lat="32.239087" lon="130.435649"><ele>15.4</ele><time>2026-09-30T00:58:56Z</time></trkpt>
      <trkpt lat="32.239021" lon="130.435854"><ele>15.8</ele><time>2026-09-30T01:01:05Z</time></trkpt>
      <trkpt lat="32.240139" lon="130.436132"><ele>12.0</ele><time>2026-09-30T01:01:29Z</time></trkpt>
      <trkpt lat="32.240681" lon="130.436401"><ele>10.6</ele><time>2026-09-30T01:01:38Z</time></trkpt>
      <trkpt lat="32.241105" lon="130.436329"><ele>9.4</ele><time>2026-09-30T01:01:44Z</time></trkpt>
      <trkpt lat="32.242002" lon="130.434157"><ele>10.2</ele><time>2026-09-30T01:02:15Z</time></trkpt>
      <trkpt lat="32.242144" lon="130.433967"><ele>11.2</ele><time>2026-09-30T01:02:22Z</time></trkpt>
      <trkpt lat="32.242677" lon="130.433670"><ele>13.6</ele><time>2026-09-30T01:02:42Z</time></trkpt>
      <trkpt lat="32.242869" lon="130.433389"><ele>14.6</ele><time>2026-09-30T01:02:50Z</time></trkpt>
      <trkpt lat="32.242881" lon="130.433277"><ele>14.6</ele><time>2026-09-30T01:02:53Z</time></trkpt>
      <trkpt lat="32.242710" lon="130.432991"><ele>16.2</ele><time>2026-09-30T01:03:04Z</time></trkpt>
      <trkpt lat="32.241935" lon="130.432250"><ele>22.4</ele><time>2026-09-30T01:04:00Z</time></trkpt>
      <trkpt lat="32.241822" lon="130.432023"><ele>23.6</ele><time>2026-09-30T01:04:13Z</time></trkpt>
      <trkpt lat="32.241843" lon="130.431818"><ele>24.2</ele><time>2026-09-30T01:04:24Z</time></trkpt>
      <trkpt lat="32.243264" lon="130.430288"><ele>21.4</ele><time>2026-09-30T01:05:05Z</time></trkpt>
      <trkpt lat="32.243900" lon="130.430214"><ele>19.8</ele><time>2026-09-30T01:05:15Z</time></trkpt>
      <trkpt lat="32.244329" lon="130.430324"><ele>18.4</ele><time>2026-09-30T01:05:21Z</time></trkpt>
      <trkpt lat="32.244579" lon="130.430206"><ele>18.8</ele><time>2026-09-30T01:05:25Z</time></trkpt>
      <trkpt lat="32.244661" lon="130.429968"><ele>20.0</ele><time>2026-09-30T01:05:29Z</time></trkpt>
      <trkpt lat="32.244760" lon="130.428404"><ele>25.0</ele><time>2026-09-30T01:06:02Z</time></trkpt>
      <trkpt lat="32.244887" lon="130.427902"><ele>25.8</ele><time>2026-09-30T01:06:15Z</time></trkpt>
      <trkpt lat="32.245004" lon="130.427720"><ele>26.0</ele><time>2026-09-30T01:06:20Z</time></trkpt>
      <trkpt lat="32.245464" lon="130.427449"><ele>26.4</ele><time>2026-09-30T01:06:34Z</time></trkpt>
      <trkpt lat="32.246699" lon="130.427668"><ele>26.0</ele><time>2026-09-30T01:07:03Z</time></trkpt>
      <trkpt lat="32.246862" lon="130.427596"><ele>26.0</ele><time>2026-09-30T01:07:07Z</time></trkpt>
      <trkpt lat="32.246962" lon="130.427431"><ele>26.4</ele><time>2026-09-30T01:07:11Z</time></trkpt>
      <trkpt lat="32.247182" lon="130.426480"><ele>26.4</ele><time>2026-09-30T01:07:32Z</time></trkpt>
      <trkpt lat="32.247343" lon="130.426397"><ele>26.4</ele><time>2026-09-30T01:07:37Z</time></trkpt>
      <trkpt lat="32.247485" lon="130.426451"><ele>27.6</ele><time>2026-09-30T01:07:41Z</time></trkpt>
      <trkpt lat="32.247897" lon="130.426866"><ele>28.2</ele><time>2026-09-30T01:07:54Z</time></trkpt>
      <trkpt lat="32.248076" lon="130.426873"><ele>28.2</ele><time>2026-09-30T01:07:58Z</time></trkpt>
      <trkpt lat="32.248877" lon="130.426206"><ele>28.2</ele><time>2026-09-30T01:08:22Z</time></trkpt>
      <trkpt lat="32.249169" lon="130.426094"><ele>27.4</ele><time>2026-09-30T01:08:28Z</time></trkpt>
      <trkpt lat="32.249693" lon="130.426217"><ele>28.4</ele><time>2026-09-30T01:08:38Z</time></trkpt>
      <trkpt lat="32.249819" lon="130.426376"><ele>28.4</ele><time>2026-09-30T01:08:41Z</time></trkpt>
      <trkpt lat="32.249880" lon="130.426666"><ele>28.0</ele><time>2026-09-30T01:08:45Z</time></trkpt>
      <trkpt lat="32.249692" lon="130.427232"><ele>26.4</ele><time>2026-09-30T01:08:53Z</time></trkpt>
      <trkpt lat="32.249689" lon="130.427686"><ele>24.6</ele><time>2026-09-30T01:08:58Z</time></trkpt>
      <trkpt lat="32.250194" lon="130.428266"><ele>21.4</ele><time>2026-09-30T01:09:07Z</time></trkpt>
      <trkpt lat="32.250301" lon="130.428534"><ele>20.8</ele><time>2026-09-30T01:09:10Z</time></trkpt>
      <trkpt lat="32.250196" lon="130.429155"><ele>19.4</ele><time>2026-09-30T01:09:17Z</time></trkpt>
      <trkpt lat="32.250249" lon="130.429356"><ele>18.8</ele><time>2026-09-30T01:09:19Z</time></trkpt>
      <trkpt lat="32.250847" lon="130.429934"><ele>16.2</ele><time>2026-09-30T01:09:29Z</time></trkpt>
      <trkpt lat="32.251086" lon="130.430594"><ele>14.6</ele><time>2026-09-30T01:09:37Z</time></trkpt>
      <trkpt lat="32.251331" lon="130.430875"><ele>14.6</ele><time>2026-09-30T01:09:41Z</time></trkpt>
      <trkpt lat="32.252143" lon="130.431509"><ele>15.6</ele><time>2026-09-30T01:09:59Z</time></trkpt>
      <trkpt lat="32.252374" lon="130.431905"><ele>15.0</ele><time>2026-09-30T01:10:14Z</time></trkpt>
      <trkpt lat="32.252379" lon="130.431760"><ele>15.4</ele><time>2026-09-30T01:10:20Z</time></trkpt>
      <trkpt lat="32.252829" lon="130.431037"><ele>3.2</ele><time>2026-09-30T01:11:00Z</time></trkpt>
      <trkpt lat="32.252648" lon="130.431079"><ele>3.6</ele><time>2026-09-30T01:11:25Z</time></trkpt>
      <trkpt lat="32.252595" lon="130.430746"><ele>4.8</ele><time>2026-09-30T01:12:27Z</time></trkpt>
      <trkpt lat="32.252458" lon="130.430644"><ele>4.6</ele><time>2026-09-30T01:13:04Z</time></trkpt>
      <trkpt lat="32.252584" lon="130.430729"><ele>5.0</ele><time>2026-09-30T01:14:05Z</time></trkpt>
      <trkpt lat="32.252740" lon="130.431166"><ele>4.2</ele><time>2026-09-30T01:15:23Z</time></trkpt>
      <trkpt lat="32.252723" lon="130.431244"><ele>4.2</ele><time>2026-09-30T01:15:30Z</time></trkpt>
      <trkpt lat="32.252728" lon="130.431079"><ele>5.2</ele><time>2026-09-30T01:16:10Z</time></trkpt>
      <trkpt lat="32.252628" lon="130.431103"><ele>5.0</ele><time>2026-09-30T01:19:07Z</time></trkpt>
      <trkpt lat="32.252680" lon="130.431283"><ele>5.4</ele><time>2026-09-30T01:19:26Z</time></trkpt>
      <trkpt lat="32.252371" lon="130.431770"><ele>16.2</ele><time>2026-09-30T01:20:48Z</time></trkpt>
      <trkpt lat="32.252490" lon="130.432221"><ele>15.4</ele><time>2026-09-30T01:21:06Z</time></trkpt>
      <trkpt lat="32.252868" lon="130.433023"><ele>12.8</ele><time>2026-09-30T01:21:19Z</time></trkpt>
      <trkpt lat="32.252978" lon="130.433504"><ele>10.8</ele><time>2026-09-30T01:21:25Z</time></trkpt>
      <trkpt lat="32.252660" lon="130.434832"><ele>6.2</ele><time>2026-09-30T01:21:38Z</time></trkpt>
      <trkpt lat="32.252627" lon="130.435383"><ele>5.8</ele><time>2026-09-30T01:21:43Z</time></trkpt>
      <trkpt lat="32.252668" lon="130.435549"><ele>5.8</ele><time>2026-09-30T01:21:45Z</time></trkpt>
      <trkpt lat="32.252924" lon="130.435713"><ele>6.4</ele><time>2026-09-30T01:21:48Z</time></trkpt>
      <trkpt lat="32.254068" lon="130.435935"><ele>6.6</ele><time>2026-09-30T01:22:07Z</time></trkpt>
      <trkpt lat="32.255067" lon="130.435704"><ele>8.2</ele><time>2026-09-30T01:22:30Z</time></trkpt>
      <trkpt lat="32.255524" lon="130.435428"><ele>12.0</ele><time>2026-09-30T01:22:59Z</time></trkpt>
      <trkpt lat="32.255767" lon="130.435187"><ele>14.4</ele><time>2026-09-30T01:23:22Z</time></trkpt>
      <trkpt lat="32.256076" lon="130.434465"><ele>19.0</ele><time>2026-09-30T01:24:12Z</time></trkpt>
      <trkpt lat="32.256246" lon="130.434304"><ele>20.2</ele><time>2026-09-30T01:24:27Z</time></trkpt>
      <trkpt lat="32.256217" lon="130.434227"><ele>20.4</ele><time>2026-09-30T01:24:40Z</time></trkpt>
      <trkpt lat="32.256426" lon="130.434000"><ele>20.6</ele><time>2026-09-30T01:26:51Z</time></trkpt>
      <trkpt lat="32.257055" lon="130.432887"><ele>25.2</ele><time>2026-09-30T01:27:53Z</time></trkpt>
      <trkpt lat="32.257173" lon="130.432747"><ele>26.0</ele><time>2026-09-30T01:28:03Z</time></trkpt>
      <trkpt lat="32.257512" lon="130.432647"><ele>27.6</ele><time>2026-09-30T01:28:22Z</time></trkpt>
      <trkpt lat="32.258080" lon="130.433090"><ele>29.0</ele><time>2026-09-30T01:28:55Z</time></trkpt>
      <trkpt lat="32.258592" lon="130.433333"><ele>31.2</ele><time>2026-09-30T01:29:22Z</time></trkpt>
      <trkpt lat="32.258862" lon="130.433389"><ele>32.4</ele><time>2026-09-30T01:29:36Z</time></trkpt>
      <trkpt lat="32.259473" lon="130.433290"><ele>34.4</ele><time>2026-09-30T01:30:07Z</time></trkpt>
      <trkpt lat="32.259829" lon="130.433340"><ele>36.0</ele><time>2026-09-30T01:30:29Z</time></trkpt>
      <trkpt lat="32.260072" lon="130.433600"><ele>37.4</ele><time>2026-09-30T01:30:46Z</time></trkpt>
      <trkpt lat="32.260260" lon="130.433954"><ele>38.0</ele><time>2026-09-30T01:31:06Z</time></trkpt>
      <trkpt lat="32.260556" lon="130.434879"><ele>42.2</ele><time>2026-09-30T01:31:55Z</time></trkpt>
      <trkpt lat="32.260917" lon="130.435237"><ele>44.8</ele><time>2026-09-30T01:32:14Z</time></trkpt>
      <trkpt lat="32.261875" lon="130.435222"><ele>50.4</ele><time>2026-09-30T01:32:58Z</time></trkpt>
      <trkpt lat="32.263647" lon="130.435087"><ele>46.2</ele><time>2026-09-30T01:33:30Z</time></trkpt>
      <trkpt lat="32.264858" lon="130.435904"><ele>39.2</ele><time>2026-09-30T01:33:47Z</time></trkpt>
      <trkpt lat="32.265326" lon="130.435976"><ele>37.8</ele><time>2026-09-30T01:33:52Z</time></trkpt>
      <trkpt lat="32.266022" lon="130.435611"><ele>35.4</ele><time>2026-09-30T01:34:00Z</time></trkpt>
      <trkpt lat="32.266370" lon="130.435672"><ele>34.8</ele><time>2026-09-30T01:34:04Z</time></trkpt>
      <trkpt lat="32.266735" lon="130.435945"><ele>34.2</ele><time>2026-09-30T01:34:09Z</time></trkpt>
      <trkpt lat="32.266782" lon="130.436136"><ele>33.4</ele><time>2026-09-30T01:34:11Z</time></trkpt>
      <trkpt lat="32.266692" lon="130.437241"><ele>28.8</ele><time>2026-09-30T01:34:20Z</time></trkpt>
      <trkpt lat="32.266766" lon="130.437861"><ele>25.2</ele><time>2026-09-30T01:34:26Z</time></trkpt>
      <trkpt lat="32.266822" lon="130.437906"><ele>25.0</ele><time>2026-09-30T01:34:28Z</time></trkpt>
      <trkpt lat="32.267202" lon="130.437659"><ele>27.0</ele><time>2026-09-30T01:34:36Z</time></trkpt>
      <trkpt lat="32.267572" lon="130.437666"><ele>28.4</ele><time>2026-09-30T01:34:44Z</time></trkpt>
      <trkpt lat="32.268060" lon="130.438349"><ele>29.6</ele><time>2026-09-30T01:34:59Z</time></trkpt>
      <trkpt lat="32.269215" lon="130.438908"><ele>33.2</ele><time>2026-09-30T01:35:31Z</time></trkpt>
      <trkpt lat="32.269413" lon="130.439307"><ele>34.6</ele><time>2026-09-30T01:35:45Z</time></trkpt>
      <trkpt lat="32.269492" lon="130.439651"><ele>34.6</ele><time>2026-09-30T01:35:53Z</time></trkpt>
      <trkpt lat="32.269449" lon="130.440295"><ele>32.6</ele><time>2026-09-30T01:36:03Z</time></trkpt>
      <trkpt lat="32.268888" lon="130.441830"><ele>26.0</ele><time>2026-09-30T01:36:20Z</time></trkpt>
      <trkpt lat="32.268574" lon="130.442252"><ele>23.8</ele><time>2026-09-30T01:36:25Z</time></trkpt>
      <trkpt lat="32.268057" lon="130.442354"><ele>20.8</ele><time>2026-09-30T01:36:30Z</time></trkpt>
      <trkpt lat="32.267887" lon="130.442461"><ele>19.4</ele><time>2026-09-30T01:36:32Z</time></trkpt>
      <trkpt lat="32.267551" lon="130.443173"><ele>16.0</ele><time>2026-09-30T01:36:38Z</time></trkpt>
      <trkpt lat="32.267817" lon="130.443686"><ele>12.6</ele><time>2026-09-30T01:36:44Z</time></trkpt>
      <trkpt lat="32.268122" lon="130.443686"><ele>11.0</ele><time>2026-09-30T01:36:47Z</time></trkpt>
      <trkpt lat="32.268643" lon="130.444180"><ele>8.8</ele><time>2026-09-30T01:36:52Z</time></trkpt>
      <trkpt lat="32.269510" lon="130.446290"><ele>9.6</ele><time>2026-09-30T01:37:21Z</time></trkpt>
      <trkpt lat="32.269517" lon="130.446973"><ele>11.2</ele><time>2026-09-30T01:37:35Z</time></trkpt>
      <trkpt lat="32.269581" lon="130.447186"><ele>10.8</ele><time>2026-09-30T01:37:38Z</time></trkpt>
      <trkpt lat="32.269817" lon="130.447593"><ele>9.6</ele><time>2026-09-30T01:37:45Z</time></trkpt>
      <trkpt lat="32.270403" lon="130.447869"><ele>9.0</ele><time>2026-09-30T01:37:58Z</time></trkpt>
      <trkpt lat="32.270601" lon="130.449155"><ele>5.4</ele><time>2026-09-30T01:38:13Z</time></trkpt>
      <trkpt lat="32.270697" lon="130.449554"><ele>5.8</ele><time>2026-09-30T01:38:18Z</time></trkpt>
      <trkpt lat="32.270834" lon="130.449735"><ele>6.0</ele><time>2026-09-30T01:38:21Z</time></trkpt>
      <trkpt lat="32.272084" lon="130.450900"><ele>5.8</ele><time>2026-09-30T01:38:47Z</time></trkpt>
      <trkpt lat="32.272672" lon="130.451195"><ele>5.6</ele><time>2026-09-30T01:38:58Z</time></trkpt>
      <trkpt lat="32.273156" lon="130.450743"><ele>8.0</ele><time>2026-09-30T01:39:14Z</time></trkpt>
      <trkpt lat="32.273569" lon="130.450141"><ele>12.8</ele><time>2026-09-30T01:39:35Z</time></trkpt>
      <trkpt lat="32.273923" lon="130.449924"><ele>14.8</ele><time>2026-09-30T01:39:50Z</time></trkpt>
      <trkpt lat="32.275181" lon="130.449461"><ele>22.4</ele><time>2026-09-30T01:40:54Z</time></trkpt>
      <trkpt lat="32.275429" lon="130.449529"><ele>22.6</ele><time>2026-09-30T01:41:08Z</time></trkpt>
      <trkpt lat="32.275672" lon="130.449942"><ele>23.8</ele><time>2026-09-30T01:41:26Z</time></trkpt>
      <trkpt lat="32.275802" lon="130.450009"><ele>25.0</ele><time>2026-09-30T01:41:32Z</time></trkpt>
      <trkpt lat="32.276799" lon="130.449679"><ele>32.4</ele><time>2026-09-30T01:42:17Z</time></trkpt>
      <trkpt lat="32.277179" lon="130.449707"><ele>33.6</ele><time>2026-09-30T01:42:34Z</time></trkpt>
      <trkpt lat="32.277325" lon="130.450094"><ele>34.2</ele><time>2026-09-30T01:42:44Z</time></trkpt>
      <trkpt lat="32.277358" lon="130.451206"><ele>35.0</ele><time>2026-09-30T01:43:06Z</time></trkpt>
      <trkpt lat="32.277443" lon="130.451232"><ele>35.2</ele><time>2026-09-30T01:43:08Z</time></trkpt>
      <trkpt lat="32.277708" lon="130.450938"><ele>36.8</ele><time>2026-09-30T01:43:19Z</time></trkpt>
      <trkpt lat="32.278037" lon="130.450885"><ele>37.4</ele><time>2026-09-30T01:43:30Z</time></trkpt>
      <trkpt lat="32.278120" lon="130.451041"><ele>37.8</ele><time>2026-09-30T01:43:35Z</time></trkpt>
      <trkpt lat="32.278092" lon="130.451708"><ele>38.8</ele><time>2026-09-30T01:43:53Z</time></trkpt>
      <trkpt lat="32.278707" lon="130.451770"><ele>40.2</ele><time>2026-09-30T01:44:15Z</time></trkpt>
      <trkpt lat="32.278995" lon="130.452098"><ele>41.2</ele><time>2026-09-30T01:44:28Z</time></trkpt>
      <trkpt lat="32.279099" lon="130.452446"><ele>42.6</ele><time>2026-09-30T01:44:41Z</time></trkpt>
      <trkpt lat="32.278977" lon="130.452911"><ele>43.6</ele><time>2026-09-30T01:44:55Z</time></trkpt>
      <trkpt lat="32.278147" lon="130.453270"><ele>47.2</ele><time>2026-09-30T01:45:31Z</time></trkpt>
      <trkpt lat="32.277956" lon="130.453854"><ele>49.0</ele><time>2026-09-30T01:45:49Z</time></trkpt>
      <trkpt lat="32.277948" lon="130.454026"><ele>49.2</ele><time>2026-09-30T01:45:53Z</time></trkpt>
      <trkpt lat="32.278045" lon="130.454237"><ele>48.8</ele><time>2026-09-30T01:45:59Z</time></trkpt>
      <trkpt lat="32.278242" lon="130.454427"><ele>49.2</ele><time>2026-09-30T01:46:05Z</time></trkpt>
      <trkpt lat="32.278729" lon="130.454679"><ele>50.4</ele><time>2026-09-30T01:46:20Z</time></trkpt>
      <trkpt lat="32.278829" lon="130.454863"><ele>50.4</ele><time>2026-09-30T01:46:26Z</time></trkpt>
      <trkpt lat="32.278724" lon="130.455304"><ele>50.8</ele><time>2026-09-30T01:46:36Z</time></trkpt>
      <trkpt lat="32.278541" lon="130.455514"><ele>51.8</ele><time>2026-09-30T01:46:42Z</time></trkpt>
      <trkpt lat="32.277942" lon="130.455772"><ele>54.8</ele><time>2026-09-30T01:46:59Z</time></trkpt>
      <trkpt lat="32.277672" lon="130.456007"><ele>56.0</ele><time>2026-09-30T01:47:10Z</time></trkpt>
      <trkpt lat="32.277213" lon="130.456874"><ele>56.2</ele><time>2026-09-30T01:47:31Z</time></trkpt>
      <trkpt lat="32.276522" lon="130.457500"><ele>50.8</ele><time>2026-09-30T01:47:42Z</time></trkpt>
      <trkpt lat="32.276359" lon="130.457704"><ele>48.8</ele><time>2026-09-30T01:47:45Z</time></trkpt>
      <trkpt lat="32.276209" lon="130.458086"><ele>45.2</ele><time>2026-09-30T01:47:49Z</time></trkpt>
      <trkpt lat="32.276273" lon="130.458173"><ele>43.4</ele><time>2026-09-30T01:47:51Z</time></trkpt>
      <trkpt lat="32.276715" lon="130.458211"><ele>40.4</ele><time>2026-09-30T01:47:55Z</time></trkpt>
      <trkpt lat="32.276855" lon="130.458463"><ele>39.6</ele><time>2026-09-30T01:47:56Z</time></trkpt>
      <trkpt lat="32.277492" lon="130.458896"><ele>33.8</ele><time>2026-09-30T01:48:02Z</time></trkpt>
      <trkpt lat="32.277771" lon="130.459284"><ele>30.6</ele><time>2026-09-30T01:48:06Z</time></trkpt>
      <trkpt lat="32.277805" lon="130.460047"><ele>24.2</ele><time>2026-09-30T01:48:14Z</time></trkpt>
      <trkpt lat="32.277687" lon="130.460517"><ele>20.8</ele><time>2026-09-30T01:48:17Z</time></trkpt>
      <trkpt lat="32.277928" lon="130.462245"><ele>10.4</ele><time>2026-09-30T01:48:29Z</time></trkpt>
      <trkpt lat="32.277652" lon="130.462988"><ele>7.8</ele><time>2026-09-30T01:48:35Z</time></trkpt>
      <trkpt lat="32.277008" lon="130.463865"><ele>8.6</ele><time>2026-09-30T01:48:46Z</time></trkpt>
      <trkpt lat="32.276940" lon="130.464138"><ele>9.4</ele><time>2026-09-30T01:48:49Z</time></trkpt>
      <trkpt lat="32.277067" lon="130.465462"><ele>5.6</ele><time>2026-09-30T01:49:04Z</time></trkpt>
      <trkpt lat="32.277177" lon="130.465910"><ele>5.8</ele><time>2026-09-30T01:49:10Z</time></trkpt>
      <trkpt lat="32.277529" lon="130.466385"><ele>6.4</ele><time>2026-09-30T01:49:18Z</time></trkpt>
      <trkpt lat="32.279050" lon="130.467049"><ele>5.8</ele><time>2026-09-30T01:49:45Z</time></trkpt>
      <trkpt lat="32.279568" lon="130.466947"><ele>5.8</ele><time>2026-09-30T01:49:54Z</time></trkpt>
      <trkpt lat="32.280464" lon="130.466195"><ele>7.0</ele><time>2026-09-30T01:50:16Z</time></trkpt>
      <trkpt lat="32.280942" lon="130.466019"><ele>7.4</ele><time>2026-09-30T01:50:27Z</time></trkpt>
      <trkpt lat="32.281427" lon="130.465976"><ele>6.6</ele><time>2026-09-30T01:50:37Z</time></trkpt>
      <trkpt lat="32.282156" lon="130.466050"><ele>7.2</ele><time>2026-09-30T01:50:53Z</time></trkpt>
      <trkpt lat="32.282561" lon="130.466223"><ele>7.0</ele><time>2026-09-30T01:51:01Z</time></trkpt>
      <trkpt lat="32.283317" lon="130.467082"><ele>6.6</ele><time>2026-09-30T01:51:20Z</time></trkpt>
      <trkpt lat="32.283555" lon="130.467162"><ele>7.2</ele><time>2026-09-30T01:51:24Z</time></trkpt>
      <trkpt lat="32.284169" lon="130.467010"><ele>8.0</ele><time>2026-09-30T01:51:36Z</time></trkpt>
      <trkpt lat="32.284413" lon="130.467088"><ele>8.2</ele><time>2026-09-30T01:51:42Z</time></trkpt>
      <trkpt lat="32.284669" lon="130.467530"><ele>8.6</ele><time>2026-09-30T01:51:54Z</time></trkpt>
      <trkpt lat="32.286426" lon="130.471766"><ele>11.8</ele><time>2026-09-30T01:53:04Z</time></trkpt>
      <trkpt lat="32.286410" lon="130.472280"><ele>8.4</ele><time>2026-09-30T01:53:11Z</time></trkpt>
      <trkpt lat="32.286226" lon="130.472863"><ele>8.6</ele><time>2026-09-30T01:53:19Z</time></trkpt>
      <trkpt lat="32.286174" lon="130.473474"><ele>7.6</ele><time>2026-09-30T01:53:26Z</time></trkpt>
      <trkpt lat="32.286223" lon="130.473927"><ele>7.4</ele><time>2026-09-30T01:53:31Z</time></trkpt>
      <trkpt lat="32.286734" lon="130.475324"><ele>5.8</ele><time>2026-09-30T01:53:48Z</time></trkpt>
      <trkpt lat="32.286865" lon="130.475983"><ele>7.8</ele><time>2026-09-30T01:53:57Z</time></trkpt>
      <trkpt lat="32.286542" lon="130.477778"><ele>7.8</ele><time>2026-09-30T01:54:22Z</time></trkpt>
      <trkpt lat="32.286375" lon="130.478330"><ele>8.2</ele><time>2026-09-30T01:54:30Z</time></trkpt>
      <trkpt lat="32.288162" lon="130.480865"><ele>3.4</ele><time>2026-09-30T01:55:11Z</time></trkpt>
      <trkpt lat="32.288757" lon="130.481382"><ele>5.8</ele><time>2026-09-30T01:55:25Z</time></trkpt>
      <trkpt lat="32.289468" lon="130.481603"><ele>6.2</ele><time>2026-09-30T01:55:39Z</time></trkpt>
      <trkpt lat="32.289776" lon="130.481528"><ele>6.0</ele><time>2026-09-30T01:55:45Z</time></trkpt>
      <trkpt lat="32.290503" lon="130.480743"><ele>5.2</ele><time>2026-09-30T01:56:03Z</time></trkpt>
      <trkpt lat="32.290724" lon="130.480656"><ele>5.8</ele><time>2026-09-30T01:56:08Z</time></trkpt>
      <trkpt lat="32.291004" lon="130.480709"><ele>5.6</ele><time>2026-09-30T01:56:14Z</time></trkpt>
      <trkpt lat="32.291190" lon="130.480848"><ele>5.6</ele><time>2026-09-30T01:56:18Z</time></trkpt>
      <trkpt lat="32.292271" lon="130.482308"><ele>5.4</ele><time>2026-09-30T01:56:49Z</time></trkpt>
      <trkpt lat="32.293474" lon="130.483434"><ele>5.8</ele><time>2026-09-30T01:57:20Z</time></trkpt>
      <trkpt lat="32.294861" lon="130.485473"><ele>6.6</ele><time>2026-09-30T01:57:47Z</time></trkpt>
      <trkpt lat="32.294859" lon="130.485275"><ele>6.4</ele><time>2026-09-30T01:57:52Z</time></trkpt>
      <trkpt lat="32.294927" lon="130.485230"><ele>6.4</ele><time>2026-09-30T01:57:54Z</time></trkpt>
      <trkpt lat="32.295100" lon="130.485158"><ele>6.2</ele><time>2026-09-30T01:57:58Z</time></trkpt>
      <trkpt lat="32.295448" lon="130.485174"><ele>7.4</ele><time>2026-09-30T01:58:05Z</time></trkpt>
      <trkpt lat="32.295642" lon="130.485285"><ele>7.2</ele><time>2026-09-30T01:58:09Z</time></trkpt>
      <trkpt lat="32.296883" lon="130.486549"><ele>6.6</ele><time>2026-09-30T01:58:36Z</time></trkpt>
      <trkpt lat="32.297270" lon="130.486791"><ele>7.2</ele><time>2026-09-30T01:58:43Z</time></trkpt>
      <trkpt lat="32.299818" lon="130.487835"><ele>8.8</ele><time>2026-09-30T01:59:30Z</time></trkpt>
      <trkpt lat="32.299902" lon="130.487727"><ele>8.6</ele><time>2026-09-30T01:59:32Z</time></trkpt>
      <trkpt lat="32.300257" lon="130.485998"><ele>4.6</ele><time>2026-09-30T01:59:53Z</time></trkpt>
      <trkpt lat="32.300516" lon="130.485366"><ele>4.8</ele><time>2026-09-30T02:00:02Z</time></trkpt>
      <trkpt lat="32.300602" lon="130.484863"><ele>4.2</ele><time>2026-09-30T02:00:09Z</time></trkpt>
      <trkpt lat="32.300772" lon="130.484436"><ele>4.2</ele><time>2026-09-30T02:00:16Z</time></trkpt>
      <trkpt lat="32.301020" lon="130.484137"><ele>4.4</ele><time>2026-09-30T02:00:22Z</time></trkpt>
      <trkpt lat="32.301290" lon="130.483983"><ele>4.6</ele><time>2026-09-30T02:00:27Z</time></trkpt>
      <trkpt lat="32.303074" lon="130.483664"><ele>4.0</ele><time>2026-09-30T02:00:58Z</time></trkpt>
      <trkpt lat="32.303180" lon="130.483606"><ele>4.0</ele><time>2026-09-30T02:01:00Z</time></trkpt>
      <trkpt lat="32.303265" lon="130.483354"><ele>4.0</ele><time>2026-09-30T02:01:04Z</time></trkpt>
      <trkpt lat="32.303089" lon="130.482898"><ele>3.8</ele><time>2026-09-30T02:01:11Z</time></trkpt>
      <trkpt lat="32.302321" lon="130.483072"><ele>4.2</ele><time>2026-09-30T02:01:25Z</time></trkpt>
      <trkpt lat="32.301628" lon="130.482846"><ele>4.6</ele><time>2026-09-30T02:01:38Z</time></trkpt>
      <trkpt lat="32.301409" lon="130.482646"><ele>3.8</ele><time>2026-09-30T02:01:43Z</time></trkpt>
      <trkpt lat="32.300845" lon="130.481317"><ele>4.0</ele><time>2026-09-30T02:02:06Z</time></trkpt>
      <trkpt lat="32.300644" lon="130.480322"><ele>3.8</ele><time>2026-09-30T02:02:23Z</time></trkpt>
      <trkpt lat="32.300717" lon="130.480022"><ele>4.0</ele><time>2026-09-30T02:02:29Z</time></trkpt>
      <trkpt lat="32.301787" lon="130.479267"><ele>4.4</ele><time>2026-09-30T02:02:55Z</time></trkpt>
      <trkpt lat="32.302150" lon="130.478871"><ele>3.6</ele><time>2026-09-30T02:03:04Z</time></trkpt>
      <trkpt lat="32.302226" lon="130.478593"><ele>3.6</ele><time>2026-09-30T02:03:08Z</time></trkpt>
      <trkpt lat="32.302105" lon="130.477806"><ele>4.0</ele><time>2026-09-30T02:03:19Z</time></trkpt>
      <trkpt lat="32.302135" lon="130.477545"><ele>4.4</ele><time>2026-09-30T02:03:23Z</time></trkpt>
      <trkpt lat="32.302580" lon="130.476951"><ele>4.0</ele><time>2026-09-30T02:03:35Z</time></trkpt>
      <trkpt lat="32.302728" lon="130.476616"><ele>4.4</ele><time>2026-09-30T02:03:41Z</time></trkpt>
      <trkpt lat="32.302752" lon="130.475683"><ele>3.4</ele><time>2026-09-30T02:03:57Z</time></trkpt>
      <trkpt lat="32.302392" lon="130.475063"><ele>3.8</ele><time>2026-09-30T02:04:22Z</time></trkpt>
      <trkpt lat="32.302510" lon="130.474979"><ele>4.6</ele><time>2026-09-30T02:06:50Z</time></trkpt>
      <trkpt lat="32.302424" lon="130.474997"><ele>4.6</ele><time>2026-09-30T02:07:41Z</time></trkpt>
      <trkpt lat="32.302481" lon="130.475067"><ele>4.6</ele><time>2026-09-30T02:08:02Z</time></trkpt>
      <trkpt lat="32.302420" lon="130.475108"><ele>4.6</ele><time>2026-09-30T02:08:27Z</time></trkpt>
      <trkpt lat="32.302522" lon="130.475044"><ele>4.6</ele><time>2026-09-30T02:10:28Z</time></trkpt>
      <trkpt lat="32.302374" lon="130.474943"><ele>4.6</ele><time>2026-09-30T02:12:08Z</time></trkpt>
      <trkpt lat="32.302353" lon="130.474765"><ele>4.6</ele><time>2026-09-30T02:12:41Z</time></trkpt>
      <trkpt lat="32.302319" lon="130.474879"><ele>4.6</ele><time>2026-09-30T02:14:07Z</time></trkpt>
      <trkpt lat="32.302206" lon="130.474633"><ele>5.4</ele><time>2026-09-30T02:14:16Z</time></trkpt>
      <trkpt lat="32.301755" lon="130.473038"><ele>5.0</ele><time>2026-09-30T02:15:08Z</time></trkpt>
      <trkpt lat="32.301868" lon="130.472022"><ele>5.4</ele><time>2026-09-30T02:15:27Z</time></trkpt>
      <trkpt lat="32.302010" lon="130.471705"><ele>5.4</ele><time>2026-09-30T02:15:34Z</time></trkpt>
      <trkpt lat="32.302306" lon="130.471386"><ele>4.8</ele><time>2026-09-30T02:15:45Z</time></trkpt>
      <trkpt lat="32.302629" lon="130.471475"><ele>4.8</ele><time>2026-09-30T02:15:55Z</time></trkpt>
      <trkpt lat="32.303160" lon="130.471976"><ele>4.6</ele><time>2026-09-30T02:16:13Z</time></trkpt>
      <trkpt lat="32.303528" lon="130.472147"><ele>5.4</ele><time>2026-09-30T02:16:22Z</time></trkpt>
      <trkpt lat="32.303821" lon="130.472174"><ele>5.8</ele><time>2026-09-30T02:16:29Z</time></trkpt>
      <trkpt lat="32.304483" lon="130.471920"><ele>6.0</ele><time>2026-09-30T02:16:45Z</time></trkpt>
      <trkpt lat="32.304779" lon="130.471936"><ele>6.4</ele><time>2026-09-30T02:16:52Z</time></trkpt>
      <trkpt lat="32.305315" lon="130.472239"><ele>6.6</ele><time>2026-09-30T02:17:05Z</time></trkpt>
      <trkpt lat="32.307373" lon="130.472402"><ele>7.6</ele><time>2026-09-30T02:17:55Z</time></trkpt>
      <trkpt lat="32.307882" lon="130.472687"><ele>6.2</ele><time>2026-09-30T02:18:04Z</time></trkpt>
      <trkpt lat="32.308488" lon="130.473270"><ele>5.8</ele><time>2026-09-30T02:18:17Z</time></trkpt>
      <trkpt lat="32.308786" lon="130.473380"><ele>6.0</ele><time>2026-09-30T02:18:22Z</time></trkpt>
      <trkpt lat="32.309411" lon="130.472947"><ele>7.6</ele><time>2026-09-30T02:18:37Z</time></trkpt>
      <trkpt lat="32.310350" lon="130.472804"><ele>4.8</ele><time>2026-09-30T02:18:55Z</time></trkpt>
      <trkpt lat="32.311044" lon="130.472494"><ele>4.6</ele><time>2026-09-30T02:19:08Z</time></trkpt>
      <trkpt lat="32.311335" lon="130.472231"><ele>5.0</ele><time>2026-09-30T02:19:14Z</time></trkpt>
      <trkpt lat="32.311516" lon="130.471840"><ele>5.6</ele><time>2026-09-30T02:19:20Z</time></trkpt>
      <trkpt lat="32.311551" lon="130.471331"><ele>5.6</ele><time>2026-09-30T02:19:28Z</time></trkpt>
      <trkpt lat="32.311912" lon="130.470645"><ele>6.0</ele><time>2026-09-30T02:19:40Z</time></trkpt>
      <trkpt lat="32.311783" lon="130.469604"><ele>7.2</ele><time>2026-09-30T02:19:57Z</time></trkpt>
      <trkpt lat="32.311860" lon="130.469437"><ele>7.0</ele><time>2026-09-30T02:20:00Z</time></trkpt>
      <trkpt lat="32.312042" lon="130.469363"><ele>6.0</ele><time>2026-09-30T02:20:04Z</time></trkpt>
      <trkpt lat="32.313098" lon="130.469859"><ele>6.6</ele><time>2026-09-30T02:20:29Z</time></trkpt>
      <trkpt lat="32.313283" lon="130.470103"><ele>7.0</ele><time>2026-09-30T02:20:35Z</time></trkpt>
      <trkpt lat="32.313485" lon="130.470782"><ele>7.2</ele><time>2026-09-30T02:20:48Z</time></trkpt>
      <trkpt lat="32.313860" lon="130.471097"><ele>7.4</ele><time>2026-09-30T02:20:58Z</time></trkpt>
      <trkpt lat="32.314376" lon="130.471318"><ele>8.6</ele><time>2026-09-30T02:21:09Z</time></trkpt>
      <trkpt lat="32.316065" lon="130.471630"><ele>8.4</ele><time>2026-09-30T02:21:44Z</time></trkpt>
      <trkpt lat="32.316700" lon="130.471887"><ele>8.6</ele><time>2026-09-30T02:21:59Z</time></trkpt>
      <trkpt lat="32.316983" lon="130.471877"><ele>8.6</ele><time>2026-09-30T02:22:05Z</time></trkpt>
      <trkpt lat="32.317587" lon="130.471675"><ele>8.0</ele><time>2026-09-30T02:22:17Z</time></trkpt>
      <trkpt lat="32.319081" lon="130.470832"><ele>11.2</ele><time>2026-09-30T02:22:55Z</time></trkpt>
      <trkpt lat="32.320269" lon="130.470408"><ele>19.6</ele><time>2026-09-30T02:23:56Z</time></trkpt>
      <trkpt lat="32.320552" lon="130.470486"><ele>22.8</ele><time>2026-09-30T02:24:14Z</time></trkpt>
      <trkpt lat="32.320903" lon="130.470921"><ele>27.8</ele><time>2026-09-30T02:24:49Z</time></trkpt>
      <trkpt lat="32.321601" lon="130.471338"><ele>34.8</ele><time>2026-09-30T02:25:43Z</time></trkpt>
      <trkpt lat="32.321877" lon="130.471365"><ele>37.0</ele><time>2026-09-30T02:26:02Z</time></trkpt>
      <trkpt lat="32.322372" lon="130.471223"><ele>40.0</ele><time>2026-09-30T02:26:36Z</time></trkpt>
      <trkpt lat="32.323236" lon="130.471386"><ele>41.4</ele><time>2026-09-30T02:27:15Z</time></trkpt>
      <trkpt lat="32.323566" lon="130.471704"><ele>43.8</ele><time>2026-09-30T02:27:34Z</time></trkpt>
      <trkpt lat="32.323800" lon="130.472273"><ele>46.6</ele><time>2026-09-30T02:28:02Z</time></trkpt>
      <trkpt lat="32.324158" lon="130.472691"><ele>46.2</ele><time>2026-09-30T02:28:16Z</time></trkpt>
      <trkpt lat="32.324728" lon="130.472677"><ele>46.0</ele><time>2026-09-30T02:28:31Z</time></trkpt>
      <trkpt lat="32.324920" lon="130.472862"><ele>46.6</ele><time>2026-09-30T02:28:36Z</time></trkpt>
      <trkpt lat="32.324971" lon="130.473012"><ele>46.2</ele><time>2026-09-30T02:28:39Z</time></trkpt>
      <trkpt lat="32.324815" lon="130.473232"><ele>45.2</ele><time>2026-09-30T02:28:43Z</time></trkpt>
      <trkpt lat="32.324803" lon="130.473430"><ele>44.6</ele><time>2026-09-30T02:28:45Z</time></trkpt>
      <trkpt lat="32.325051" lon="130.473865"><ele>43.0</ele><time>2026-09-30T02:28:50Z</time></trkpt>
      <trkpt lat="32.325795" lon="130.474237"><ele>37.0</ele><time>2026-09-30T02:28:59Z</time></trkpt>
      <trkpt lat="32.326131" lon="130.474520"><ele>30.8</ele><time>2026-09-30T02:29:07Z</time></trkpt>
      <trkpt lat="32.326719" lon="130.474275"><ele>28.6</ele><time>2026-09-30T02:29:16Z</time></trkpt>
      <trkpt lat="32.327054" lon="130.474576"><ele>26.8</ele><time>2026-09-30T02:29:20Z</time></trkpt>
      <trkpt lat="32.327118" lon="130.475088"><ele>24.8</ele><time>2026-09-30T02:29:26Z</time></trkpt>
      <trkpt lat="32.326679" lon="130.475607"><ele>22.8</ele><time>2026-09-30T02:29:32Z</time></trkpt>
      <trkpt lat="32.326668" lon="130.475995"><ele>22.2</ele><time>2026-09-30T02:29:36Z</time></trkpt>
      <trkpt lat="32.326766" lon="130.476106"><ele>21.8</ele><time>2026-09-30T02:29:38Z</time></trkpt>
      <trkpt lat="32.327239" lon="130.476202"><ele>21.2</ele><time>2026-09-30T02:29:45Z</time></trkpt>
      <trkpt lat="32.327335" lon="130.476578"><ele>20.2</ele><time>2026-09-30T02:29:51Z</time></trkpt>
      <trkpt lat="32.327529" lon="130.476946"><ele>17.2</ele><time>2026-09-30T02:29:54Z</time></trkpt>
      <trkpt lat="32.327939" lon="130.477215"><ele>12.8</ele><time>2026-09-30T02:29:59Z</time></trkpt>
      <trkpt lat="32.328009" lon="130.477462"><ele>10.2</ele><time>2026-09-30T02:30:02Z</time></trkpt>
      <trkpt lat="32.327965" lon="130.477655"><ele>9.4</ele><time>2026-09-30T02:30:04Z</time></trkpt>
      <trkpt lat="32.327589" lon="130.477997"><ele>8.0</ele><time>2026-09-30T02:30:10Z</time></trkpt>
      <trkpt lat="32.327330" lon="130.478601"><ele>7.6</ele><time>2026-09-30T02:30:18Z</time></trkpt>
      <trkpt lat="32.327003" lon="130.479106"><ele>7.8</ele><time>2026-09-30T02:30:26Z</time></trkpt>
      <trkpt lat="32.326936" lon="130.479418"><ele>7.8</ele><time>2026-09-30T02:30:30Z</time></trkpt>
      <trkpt lat="32.326918" lon="130.480277"><ele>8.8</ele><time>2026-09-30T02:30:41Z</time></trkpt>
      <trkpt lat="32.327000" lon="130.480823"><ele>8.4</ele><time>2026-09-30T02:30:48Z</time></trkpt>
      <trkpt lat="32.327637" lon="130.482398"><ele>7.8</ele><time>2026-09-30T02:31:11Z</time></trkpt>
      <trkpt lat="32.327869" lon="130.482715"><ele>8.4</ele><time>2026-09-30T02:31:17Z</time></trkpt>
      <trkpt lat="32.329038" lon="130.483781"><ele>8.2</ele><time>2026-09-30T02:31:48Z</time></trkpt>
      <trkpt lat="32.329244" lon="130.484050"><ele>8.4</ele><time>2026-09-30T02:31:55Z</time></trkpt>
      <trkpt lat="32.330044" lon="130.485707"><ele>8.8</ele><time>2026-09-30T02:32:26Z</time></trkpt>
      <trkpt lat="32.330301" lon="130.485749"><ele>9.2</ele><time>2026-09-30T02:32:30Z</time></trkpt>
      <trkpt lat="32.332392" lon="130.485281"><ele>7.8</ele><time>2026-09-30T02:33:06Z</time></trkpt>
      <trkpt lat="32.333875" lon="130.485189"><ele>8.6</ele><time>2026-09-30T02:33:31Z</time></trkpt>
      <trkpt lat="32.334700" lon="130.485341"><ele>13.4</ele><time>2026-09-30T02:33:50Z</time></trkpt>
      <trkpt lat="32.335088" lon="130.485560"><ele>16.2</ele><time>2026-09-30T02:34:03Z</time></trkpt>
      <trkpt lat="32.335341" lon="130.485822"><ele>18.6</ele><time>2026-09-30T02:34:15Z</time></trkpt>
      <trkpt lat="32.335613" lon="130.486190"><ele>21.2</ele><time>2026-09-30T02:34:30Z</time></trkpt>
      <trkpt lat="32.337112" lon="130.489078"><ele>34.6</ele><time>2026-09-30T02:35:46Z</time></trkpt>
      <trkpt lat="32.337613" lon="130.491322"><ele>30.8</ele><time>2026-09-30T02:36:22Z</time></trkpt>
      <trkpt lat="32.338015" lon="130.492234"><ele>26.0</ele><time>2026-09-30T02:36:31Z</time></trkpt>
      <trkpt lat="32.340511" lon="130.495677"><ele>18.4</ele><time>2026-09-30T02:37:14Z</time></trkpt>
      <trkpt lat="32.341856" lon="130.498164"><ele>13.2</ele><time>2026-09-30T02:37:48Z</time></trkpt>
      <trkpt lat="32.344532" lon="130.502075"><ele>14.0</ele><time>2026-09-30T02:38:56Z</time></trkpt>
      <trkpt lat="32.344880" lon="130.502440"><ele>15.2</ele><time>2026-09-30T02:39:05Z</time></trkpt>
      <trkpt lat="32.345576" lon="130.502768"><ele>13.6</ele><time>2026-09-30T02:39:16Z</time></trkpt>
      <trkpt lat="32.347733" lon="130.503534"><ele>9.2</ele><time>2026-09-30T02:39:45Z</time></trkpt>
      <trkpt lat="32.353270" lon="130.507658"><ele>8.8</ele><time>2026-09-30T02:41:27Z</time></trkpt>
      <trkpt lat="32.353698" lon="130.507781"><ele>9.0</ele><time>2026-09-30T02:41:36Z</time></trkpt>
      <trkpt lat="32.357414" lon="130.507903"><ele>9.0</ele><time>2026-09-30T02:42:35Z</time></trkpt>
      <trkpt lat="32.358349" lon="130.507998"><ele>11.0</ele><time>2026-09-30T02:42:48Z</time></trkpt>
      <trkpt lat="32.359047" lon="130.507908"><ele>11.2</ele><time>2026-09-30T02:42:57Z</time></trkpt>
      <trkpt lat="32.361889" lon="130.507146"><ele>8.0</ele><time>2026-09-30T02:43:36Z</time></trkpt>
      <trkpt lat="32.362336" lon="130.507172"><ele>7.8</ele><time>2026-09-30T02:43:43Z</time></trkpt>
      <trkpt lat="32.362760" lon="130.507323"><ele>8.4</ele><time>2026-09-30T02:43:50Z</time></trkpt>
      <trkpt lat="32.363107" lon="130.507578"><ele>7.8</ele><time>2026-09-30T02:43:57Z</time></trkpt>
      <trkpt lat="32.363420" lon="130.507950"><ele>8.0</ele><time>2026-09-30T02:44:04Z</time></trkpt>
      <trkpt lat="32.363529" lon="130.507958"><ele>8.2</ele><time>2026-09-30T02:44:06Z</time></trkpt>
      <trkpt lat="32.364099" lon="130.507579"><ele>7.0</ele><time>2026-09-30T02:44:22Z</time></trkpt>
      <trkpt lat="32.364366" lon="130.507194"><ele>7.4</ele><time>2026-09-30T02:44:35Z</time></trkpt>
      <trkpt lat="32.364612" lon="130.506996"><ele>7.4</ele><time>2026-09-30T02:44:42Z</time></trkpt>
      <trkpt lat="32.364770" lon="130.507077"><ele>7.6</ele><time>2026-09-30T02:44:46Z</time></trkpt>
      <trkpt lat="32.365627" lon="130.508781"><ele>9.0</ele><time>2026-09-30T02:45:21Z</time></trkpt>
      <trkpt lat="32.365779" lon="130.508672"><ele>9.6</ele><time>2026-09-30T02:45:25Z</time></trkpt>
      <trkpt lat="32.365943" lon="130.508002"><ele>14.6</ele><time>2026-09-30T02:45:41Z</time></trkpt>
      <trkpt lat="32.365836" lon="130.507717"><ele>17.2</ele><time>2026-09-30T02:45:50Z</time></trkpt>
      <trkpt lat="32.365353" lon="130.507288"><ele>21.4</ele><time>2026-09-30T02:46:15Z</time></trkpt>
      <trkpt lat="32.365344" lon="130.506982"><ele>22.8</ele><time>2026-09-30T02:46:32Z</time></trkpt>
      <trkpt lat="32.365483" lon="130.506617"><ele>24.0</ele><time>2026-09-30T02:46:51Z</time></trkpt>
      <trkpt lat="32.365642" lon="130.506507"><ele>24.6</ele><time>2026-09-30T02:47:00Z</time></trkpt>
      <trkpt lat="32.366235" lon="130.506523"><ele>26.2</ele><time>2026-09-30T02:47:24Z</time></trkpt>
      <trkpt lat="32.366998" lon="130.506952"><ele>31.0</ele><time>2026-09-30T02:47:57Z</time></trkpt>
      <trkpt lat="32.367267" lon="130.506928"><ele>32.6</ele><time>2026-09-30T02:48:03Z</time></trkpt>
      <trkpt lat="32.367302" lon="130.506723"><ele>33.8</ele><time>2026-09-30T02:48:07Z</time></trkpt>
      <trkpt lat="32.367088" lon="130.506399"><ele>35.4</ele><time>2026-09-30T02:48:16Z</time></trkpt>
      <trkpt lat="32.367075" lon="130.506252"><ele>35.8</ele><time>2026-09-30T02:48:20Z</time></trkpt>
      <trkpt lat="32.367186" lon="130.506048"><ele>36.6</ele><time>2026-09-30T02:48:28Z</time></trkpt>
      <trkpt lat="32.368157" lon="130.505972"><ele>42.2</ele><time>2026-09-30T02:49:02Z</time></trkpt>
      <trkpt lat="32.369285" lon="130.504656"><ele>59.2</ele><time>2026-09-30T02:52:38Z</time></trkpt>
      <trkpt lat="32.369745" lon="130.504485"><ele>62.4</ele><time>2026-09-30T02:53:18Z</time></trkpt>
      <trkpt lat="32.369935" lon="130.504467"><ele>63.4</ele><time>2026-09-30T02:53:29Z</time></trkpt>
      <trkpt lat="32.370699" lon="130.504819"><ele>70.0</ele><time>2026-09-30T02:54:18Z</time></trkpt>
      <trkpt lat="32.372601" lon="130.504527"><ele>87.6</ele><time>2026-09-30T02:56:35Z</time></trkpt>
      <trkpt lat="32.372766" lon="130.504392"><ele>89.6</ele><time>2026-09-30T02:56:50Z</time></trkpt>
      <trkpt lat="32.372807" lon="130.504257"><ele>90.8</ele><time>2026-09-30T02:56:58Z</time></trkpt>
      <trkpt lat="32.372696" lon="130.503379"><ele>98.0</ele><time>2026-09-30T02:58:25Z</time></trkpt>
      <trkpt lat="32.372857" lon="130.503165"><ele>97.2</ele><time>2026-09-30T02:58:37Z</time></trkpt>
      <trkpt lat="32.373077" lon="130.503105"><ele>96.8</ele><time>2026-09-30T02:58:42Z</time></trkpt>
      <trkpt lat="32.373889" lon="130.503834"><ele>95.4</ele><time>2026-09-30T02:59:02Z</time></trkpt>
      <trkpt lat="32.373845" lon="130.504149"><ele>95.6</ele><time>2026-09-30T02:59:07Z</time></trkpt>
      <trkpt lat="32.373596" lon="130.504730"><ele>97.4</ele><time>2026-09-30T02:59:19Z</time></trkpt>
      <trkpt lat="32.373613" lon="130.504909"><ele>97.8</ele><time>2026-09-30T02:59:23Z</time></trkpt>
      <trkpt lat="32.373701" lon="130.505053"><ele>98.6</ele><time>2026-09-30T02:59:28Z</time></trkpt>
      <trkpt lat="32.374111" lon="130.505306"><ele>100.0</ele><time>2026-09-30T02:59:41Z</time></trkpt>
      <trkpt lat="32.374029" lon="130.505571"><ele>101.8</ele><time>2026-09-30T02:59:50Z</time></trkpt>
      <trkpt lat="32.373919" lon="130.505682"><ele>102.2</ele><time>2026-09-30T02:59:55Z</time></trkpt>
      <trkpt lat="32.373416" lon="130.505808"><ele>103.4</ele><time>2026-09-30T03:00:12Z</time></trkpt>
      <trkpt lat="32.372981" lon="130.506212"><ele>104.8</ele><time>2026-09-30T03:00:27Z</time></trkpt>
      <trkpt lat="32.372910" lon="130.506524"><ele>104.8</ele><time>2026-09-30T03:00:34Z</time></trkpt>
      <trkpt lat="32.372999" lon="130.506641"><ele>104.2</ele><time>2026-09-30T03:00:37Z</time></trkpt>
      <trkpt lat="32.373255" lon="130.506656"><ele>104.4</ele><time>2026-09-30T03:00:43Z</time></trkpt>
      <trkpt lat="32.373833" lon="130.506871"><ele>101.0</ele><time>2026-09-30T03:00:51Z</time></trkpt>
      <trkpt lat="32.374639" lon="130.506830"><ele>96.0</ele><time>2026-09-30T03:01:01Z</time></trkpt>
      <trkpt lat="32.375095" lon="130.506905"><ele>96.0</ele><time>2026-09-30T03:01:07Z</time></trkpt>
      <trkpt lat="32.375344" lon="130.507221"><ele>94.8</ele><time>2026-09-30T03:01:12Z</time></trkpt>
      <trkpt lat="32.375358" lon="130.507406"><ele>93.6</ele><time>2026-09-30T03:01:14Z</time></trkpt>
      <trkpt lat="32.375559" lon="130.507501"><ele>90.8</ele><time>2026-09-30T03:01:17Z</time></trkpt>
      <trkpt lat="32.376539" lon="130.507525"><ele>83.2</ele><time>2026-09-30T03:01:25Z</time></trkpt>
      <trkpt lat="32.376988" lon="130.507439"><ele>80.6</ele><time>2026-09-30T03:01:29Z</time></trkpt>
      <trkpt lat="32.377212" lon="130.507621"><ele>79.6</ele><time>2026-09-30T03:01:33Z</time></trkpt>
      <trkpt lat="32.377269" lon="130.508277"><ele>79.0</ele><time>2026-09-30T03:01:41Z</time></trkpt>
      <trkpt lat="32.377505" lon="130.508787"><ele>78.8</ele><time>2026-09-30T03:01:50Z</time></trkpt>
      <trkpt lat="32.377746" lon="130.508522"><ele>81.0</ele><time>2026-09-30T03:01:58Z</time></trkpt>
      <trkpt lat="32.378034" lon="130.508367"><ele>83.2</ele><time>2026-09-30T03:02:04Z</time></trkpt>
      <trkpt lat="32.378183" lon="130.508329"><ele>84.4</ele><time>2026-09-30T03:02:09Z</time></trkpt>
      <trkpt lat="32.378500" lon="130.508425"><ele>84.8</ele><time>2026-09-30T03:02:18Z</time></trkpt>
      <trkpt lat="32.379162" lon="130.509324"><ele>78.0</ele><time>2026-09-30T03:02:39Z</time></trkpt>
      <trkpt lat="32.379718" lon="130.509591"><ele>73.8</ele><time>2026-09-30T03:02:45Z</time></trkpt>
      <trkpt lat="32.380141" lon="130.509901"><ele>69.4</ele><time>2026-09-30T03:02:51Z</time></trkpt>
      <trkpt lat="32.380440" lon="130.509923"><ele>67.0</ele><time>2026-09-30T03:02:55Z</time></trkpt>
      <trkpt lat="32.380535" lon="130.510018"><ele>64.6</ele><time>2026-09-30T03:02:58Z</time></trkpt>
      <trkpt lat="32.380560" lon="130.510272"><ele>61.4</ele><time>2026-09-30T03:03:02Z</time></trkpt>
      <trkpt lat="32.380694" lon="130.510486"><ele>58.0</ele><time>2026-09-30T03:03:05Z</time></trkpt>
      <trkpt lat="32.381789" lon="130.510667"><ele>47.0</ele><time>2026-09-30T03:03:18Z</time></trkpt>
      <trkpt lat="32.382321" lon="130.510971"><ele>40.2</ele><time>2026-09-30T03:03:26Z</time></trkpt>
      <trkpt lat="32.382563" lon="130.510935"><ele>38.0</ele><time>2026-09-30T03:03:29Z</time></trkpt>
      <trkpt lat="32.382721" lon="130.510782"><ele>36.2</ele><time>2026-09-30T03:03:31Z</time></trkpt>
      <trkpt lat="32.382815" lon="130.510507"><ele>35.0</ele><time>2026-09-30T03:03:33Z</time></trkpt>
      <trkpt lat="32.383104" lon="130.510089"><ele>31.2</ele><time>2026-09-30T03:03:37Z</time></trkpt>
      <trkpt lat="32.383605" lon="130.509715"><ele>27.4</ele><time>2026-09-30T03:03:43Z</time></trkpt>
      <trkpt lat="32.383935" lon="130.509556"><ele>27.4</ele><time>2026-09-30T03:03:47Z</time></trkpt>
      <trkpt lat="32.384367" lon="130.509575"><ele>29.0</ele><time>2026-09-30T03:03:53Z</time></trkpt>
      <trkpt lat="32.384618" lon="130.509688"><ele>31.8</ele><time>2026-09-30T03:04:01Z</time></trkpt>
      <trkpt lat="32.385064" lon="130.510164"><ele>37.8</ele><time>2026-09-30T03:04:41Z</time></trkpt>
      <trkpt lat="32.385220" lon="130.510624"><ele>42.0</ele><time>2026-09-30T03:05:17Z</time></trkpt>
      <trkpt lat="32.385579" lon="130.511083"><ele>48.2</ele><time>2026-09-30T03:05:58Z</time></trkpt>
      <trkpt lat="32.385941" lon="130.511355"><ele>53.2</ele><time>2026-09-30T03:06:31Z</time></trkpt>
      <trkpt lat="32.386095" lon="130.511676"><ele>55.6</ele><time>2026-09-30T03:06:59Z</time></trkpt>
      <trkpt lat="32.386205" lon="130.511753"><ele>56.2</ele><time>2026-09-30T03:07:31Z</time></trkpt>
      <trkpt lat="32.386190" lon="130.511835"><ele>56.2</ele><time>2026-09-30T03:07:36Z</time></trkpt>
      <trkpt lat="32.385279" lon="130.512238"><ele>50.6</ele><time>2026-09-30T03:07:55Z</time></trkpt>
      <trkpt lat="32.384440" lon="130.512738"><ele>47.2</ele><time>2026-09-30T03:08:07Z</time></trkpt>
      <trkpt lat="32.383817" lon="130.512799"><ele>47.4</ele><time>2026-09-30T03:08:17Z</time></trkpt>
      <trkpt lat="32.383647" lon="130.512891"><ele>47.6</ele><time>2026-09-30T03:08:21Z</time></trkpt>
      <trkpt lat="32.383304" lon="130.513570"><ele>51.0</ele><time>2026-09-30T03:08:40Z</time></trkpt>
      <trkpt lat="32.382976" lon="130.513703"><ele>54.4</ele><time>2026-09-30T03:08:53Z</time></trkpt>
      <trkpt lat="32.382791" lon="130.513881"><ele>56.0</ele><time>2026-09-30T03:09:04Z</time></trkpt>
      <trkpt lat="32.382968" lon="130.514902"><ele>55.2</ele><time>2026-09-30T03:09:34Z</time></trkpt>
      <trkpt lat="32.383698" lon="130.515265"><ele>59.2</ele><time>2026-09-30T03:10:11Z</time></trkpt>
      <trkpt lat="32.384005" lon="130.515726"><ele>63.6</ele><time>2026-09-30T03:10:43Z</time></trkpt>
      <trkpt lat="32.384316" lon="130.515586"><ele>65.0</ele><time>2026-09-30T03:11:03Z</time></trkpt>
      <trkpt lat="32.384451" lon="130.515189"><ele>68.6</ele><time>2026-09-30T03:11:20Z</time></trkpt>
      <trkpt lat="32.384659" lon="130.515138"><ele>71.0</ele><time>2026-09-30T03:11:33Z</time></trkpt>
      <trkpt lat="32.384855" lon="130.514865"><ele>74.6</ele><time>2026-09-30T03:11:56Z</time></trkpt>
      <trkpt lat="32.384995" lon="130.514797"><ele>76.4</ele><time>2026-09-30T03:12:10Z</time></trkpt>
      <trkpt lat="32.385267" lon="130.514900"><ele>79.4</ele><time>2026-09-30T03:12:31Z</time></trkpt>
      <trkpt lat="32.385615" lon="130.515233"><ele>83.8</ele><time>2026-09-30T03:13:04Z</time></trkpt>
      <trkpt lat="32.385979" lon="130.515107"><ele>86.6</ele><time>2026-09-30T03:13:32Z</time></trkpt>
      <trkpt lat="32.386580" lon="130.515704"><ele>89.0</ele><time>2026-09-30T03:14:09Z</time></trkpt>
      <trkpt lat="32.386951" lon="130.515689"><ele>90.2</ele><time>2026-09-30T03:14:21Z</time></trkpt>
      <trkpt lat="32.387730" lon="130.515360"><ele>93.0</ele><time>2026-09-30T03:14:53Z</time></trkpt>
      <trkpt lat="32.388007" lon="130.515349"><ele>93.6</ele><time>2026-09-30T03:15:13Z</time></trkpt>
      <trkpt lat="32.388029" lon="130.515256"><ele>93.0</ele><time>2026-09-30T03:15:47Z</time></trkpt>
      <trkpt lat="32.388309" lon="130.515383"><ele>92.2</ele><time>2026-09-30T03:16:01Z</time></trkpt>
      <trkpt lat="32.388364" lon="130.515554"><ele>91.8</ele><time>2026-09-30T03:16:06Z</time></trkpt>
      <trkpt lat="32.388318" lon="130.515637"><ele>91.6</ele><time>2026-09-30T03:16:09Z</time></trkpt>
      <trkpt lat="32.387631" lon="130.515994"><ele>87.2</ele><time>2026-09-30T03:16:26Z</time></trkpt>
      <trkpt lat="32.387451" lon="130.516410"><ele>85.6</ele><time>2026-09-30T03:16:32Z</time></trkpt>
      <trkpt lat="32.387500" lon="130.516765"><ele>84.0</ele><time>2026-09-30T03:16:36Z</time></trkpt>
      <trkpt lat="32.387979" lon="130.517085"><ele>79.0</ele><time>2026-09-30T03:16:41Z</time></trkpt>
      <trkpt lat="32.388189" lon="130.517342"><ele>75.2</ele><time>2026-09-30T03:16:45Z</time></trkpt>
      <trkpt lat="32.388173" lon="130.517441"><ele>74.0</ele><time>2026-09-30T03:16:47Z</time></trkpt>
      <trkpt lat="32.388055" lon="130.517522"><ele>73.2</ele><time>2026-09-30T03:16:49Z</time></trkpt>
      <trkpt lat="32.387053" lon="130.517583"><ele>63.2</ele><time>2026-09-30T03:17:03Z</time></trkpt>
      <trkpt lat="32.387116" lon="130.517706"><ele>61.6</ele><time>2026-09-30T03:17:05Z</time></trkpt>
      <trkpt lat="32.387069" lon="130.517862"><ele>60.0</ele><time>2026-09-30T03:17:07Z</time></trkpt>
      <trkpt lat="32.386635" lon="130.518474"><ele>52.8</ele><time>2026-09-30T03:17:15Z</time></trkpt>
      <trkpt lat="32.386659" lon="130.518922"><ele>48.6</ele><time>2026-09-30T03:17:20Z</time></trkpt>
      <trkpt lat="32.388235" lon="130.518837"><ele>39.8</ele><time>2026-09-30T03:17:36Z</time></trkpt>
      <trkpt lat="32.390246" lon="130.518212"><ele>23.6</ele><time>2026-09-30T03:17:53Z</time></trkpt>
      <trkpt lat="32.391123" lon="130.518098"><ele>17.2</ele><time>2026-09-30T03:18:02Z</time></trkpt>
      <trkpt lat="32.391713" lon="130.517743"><ele>15.0</ele><time>2026-09-30T03:18:09Z</time></trkpt>
      <trkpt lat="32.392087" lon="130.517687"><ele>13.8</ele><time>2026-09-30T03:18:14Z</time></trkpt>
      <trkpt lat="32.392220" lon="130.517752"><ele>13.2</ele><time>2026-09-30T03:18:16Z</time></trkpt>
      <trkpt lat="32.392537" lon="130.518392"><ele>12.4</ele><time>2026-09-30T03:18:23Z</time></trkpt>
      <trkpt lat="32.393029" lon="130.518902"><ele>11.8</ele><time>2026-09-30T03:18:32Z</time></trkpt>
      <trkpt lat="32.393979" lon="130.520272"><ele>11.6</ele><time>2026-09-30T03:18:56Z</time></trkpt>
      <trkpt lat="32.394895" lon="130.521151"><ele>12.0</ele><time>2026-09-30T03:19:17Z</time></trkpt>
      <trkpt lat="32.394916" lon="130.521536"><ele>12.2</ele><time>2026-09-30T03:19:25Z</time></trkpt>
      <trkpt lat="32.395321" lon="130.521915"><ele>10.8</ele><time>2026-09-30T03:19:35Z</time></trkpt>
      <trkpt lat="32.396010" lon="130.522248"><ele>12.0</ele><time>2026-09-30T03:19:48Z</time></trkpt>
      <trkpt lat="32.396105" lon="130.522202"><ele>12.2</ele><time>2026-09-30T03:19:50Z</time></trkpt>
      <trkpt lat="32.396162" lon="130.521974"><ele>11.2</ele><time>2026-09-30T03:19:54Z</time></trkpt>
      <trkpt lat="32.396321" lon="130.521801"><ele>11.2</ele><time>2026-09-30T03:19:58Z</time></trkpt>
      <trkpt lat="32.396513" lon="130.521793"><ele>11.2</ele><time>2026-09-30T03:20:01Z</time></trkpt>
      <trkpt lat="32.396651" lon="130.521897"><ele>11.6</ele><time>2026-09-30T03:20:04Z</time></trkpt>
      <trkpt lat="32.398176" lon="130.524265"><ele>10.2</ele><time>2026-09-30T03:20:53Z</time></trkpt>
      <trkpt lat="32.399159" lon="130.525295"><ele>10.6</ele><time>2026-09-30T03:21:17Z</time></trkpt>
      <trkpt lat="32.399984" lon="130.526408"><ele>10.6</ele><time>2026-09-30T03:21:41Z</time></trkpt>
      <trkpt lat="32.401001" lon="130.527284"><ele>10.6</ele><time>2026-09-30T03:22:07Z</time></trkpt>
      <trkpt lat="32.401305" lon="130.527641"><ele>10.2</ele><time>2026-09-30T03:22:16Z</time></trkpt>
      <trkpt lat="32.402432" lon="130.529569"><ele>10.2</ele><time>2026-09-30T03:22:59Z</time></trkpt>
      <trkpt lat="32.403021" lon="130.530223"><ele>10.4</ele><time>2026-09-30T03:23:16Z</time></trkpt>
      <trkpt lat="32.403994" lon="130.531060"><ele>10.4</ele><time>2026-09-30T03:23:41Z</time></trkpt>
      <trkpt lat="32.405096" lon="130.532986"><ele>11.0</ele><time>2026-09-30T03:24:20Z</time></trkpt>
      <trkpt lat="32.406434" lon="130.534315"><ele>9.4</ele><time>2026-09-30T03:24:53Z</time></trkpt>
      <trkpt lat="32.407325" lon="130.536218"><ele>9.6</ele><time>2026-09-30T03:25:29Z</time></trkpt>
      <trkpt lat="32.408123" lon="130.537347"><ele>10.6</ele><time>2026-09-30T03:25:52Z</time></trkpt>
      <trkpt lat="32.408761" lon="130.537860"><ele>10.4</ele><time>2026-09-30T03:26:07Z</time></trkpt>
      <trkpt lat="32.409998" lon="130.538157"><ele>10.8</ele><time>2026-09-30T03:26:32Z</time></trkpt>
      <trkpt lat="32.410306" lon="130.538315"><ele>10.4</ele><time>2026-09-30T03:26:39Z</time></trkpt>
      <trkpt lat="32.410480" lon="130.538512"><ele>10.4</ele><time>2026-09-30T03:26:44Z</time></trkpt>
      <trkpt lat="32.411193" lon="130.539845"><ele>8.8</ele><time>2026-09-30T03:27:05Z</time></trkpt>
      <trkpt lat="32.412338" lon="130.541356"><ele>10.6</ele><time>2026-09-30T03:27:38Z</time></trkpt>
      <trkpt lat="32.413951" lon="130.542076"><ele>11.2</ele><time>2026-09-30T03:28:19Z</time></trkpt>
      <trkpt lat="32.414334" lon="130.542420"><ele>11.8</ele><time>2026-09-30T03:28:32Z</time></trkpt>
      <trkpt lat="32.416908" lon="130.545712"><ele>8.6</ele><time>2026-09-30T03:30:12Z</time></trkpt>
      <trkpt lat="32.417004" lon="130.545847"><ele>8.8</ele><time>2026-09-30T03:30:15Z</time></trkpt>
      <trkpt lat="32.416941" lon="130.546084"><ele>10.8</ele><time>2026-09-30T03:30:22Z</time></trkpt>
      <trkpt lat="32.417420" lon="130.546757"><ele>10.8</ele><time>2026-09-30T03:30:44Z</time></trkpt>
      <trkpt lat="32.418210" lon="130.547499"><ele>8.6</ele><time>2026-09-30T03:31:04Z</time></trkpt>
      <trkpt lat="32.419118" lon="130.548739"><ele>7.0</ele><time>2026-09-30T03:31:27Z</time></trkpt>
      <trkpt lat="32.419568" lon="130.549639"><ele>7.2</ele><time>2026-09-30T03:31:44Z</time></trkpt>
      <trkpt lat="32.419956" lon="130.550124"><ele>7.6</ele><time>2026-09-30T03:31:57Z</time></trkpt>
      <trkpt lat="32.419962" lon="130.550302"><ele>7.8</ele><time>2026-09-30T03:32:01Z</time></trkpt>
      <trkpt lat="32.419716" lon="130.550698"><ele>7.0</ele><time>2026-09-30T03:32:10Z</time></trkpt>
      <trkpt lat="32.419745" lon="130.550817"><ele>7.0</ele><time>2026-09-30T03:32:12Z</time></trkpt>
      <trkpt lat="32.420509" lon="130.551012"><ele>7.0</ele><time>2026-09-30T03:32:30Z</time></trkpt>
      <trkpt lat="32.420918" lon="130.551266"><ele>7.4</ele><time>2026-09-30T03:32:41Z</time></trkpt>
      <trkpt lat="32.421125" lon="130.551501"><ele>7.4</ele><time>2026-09-30T03:32:47Z</time></trkpt>
      <trkpt lat="32.421323" lon="130.551894"><ele>7.2</ele><time>2026-09-30T03:32:55Z</time></trkpt>
      <trkpt lat="32.421916" lon="130.554137"><ele>8.2</ele><time>2026-09-30T03:33:36Z</time></trkpt>
      <trkpt lat="32.422428" lon="130.555332"><ele>9.0</ele><time>2026-09-30T03:33:58Z</time></trkpt>
      <trkpt lat="32.423106" lon="130.556187"><ele>9.0</ele><time>2026-09-30T03:34:16Z</time></trkpt>
      <trkpt lat="32.424890" lon="130.557583"><ele>9.4</ele><time>2026-09-30T03:34:57Z</time></trkpt>
      <trkpt lat="32.425319" lon="130.558121"><ele>9.8</ele><time>2026-09-30T03:35:10Z</time></trkpt>
      <trkpt lat="32.425618" lon="130.558777"><ele>10.0</ele><time>2026-09-30T03:35:23Z</time></trkpt>
      <trkpt lat="32.426218" lon="130.560898"><ele>13.6</ele><time>2026-09-30T03:36:44Z</time></trkpt>
      <trkpt lat="32.426312" lon="130.562623"><ele>9.8</ele><time>2026-09-30T03:37:04Z</time></trkpt>
      <trkpt lat="32.426436" lon="130.563294"><ele>9.4</ele><time>2026-09-30T03:37:12Z</time></trkpt>
      <trkpt lat="32.427067" lon="130.565584"><ele>9.6</ele><time>2026-09-30T03:37:42Z</time></trkpt>
      <trkpt lat="32.427266" lon="130.566037"><ele>9.4</ele><time>2026-09-30T03:37:48Z</time></trkpt>
      <trkpt lat="32.427550" lon="130.566404"><ele>9.8</ele><time>2026-09-30T03:37:54Z</time></trkpt>
      <trkpt lat="32.428045" lon="130.566723"><ele>12.4</ele><time>2026-09-30T03:38:05Z</time></trkpt>
      <trkpt lat="32.429597" lon="130.567284"><ele>16.4</ele><time>2026-09-30T03:39:00Z</time></trkpt>
      <trkpt lat="32.429790" lon="130.567462"><ele>16.2</ele><time>2026-09-30T03:39:06Z</time></trkpt>
      <trkpt lat="32.430307" lon="130.568445"><ele>12.2</ele><time>2026-09-30T03:39:22Z</time></trkpt>
      <trkpt lat="32.430448" lon="130.568575"><ele>11.6</ele><time>2026-09-30T03:39:24Z</time></trkpt>
      <trkpt lat="32.431677" lon="130.568911"><ele>9.8</ele><time>2026-09-30T03:39:40Z</time></trkpt>
      <trkpt lat="32.432089" lon="130.569150"><ele>9.8</ele><time>2026-09-30T03:39:46Z</time></trkpt>
      <trkpt lat="32.433706" lon="130.570810"><ele>12.6</ele><time>2026-09-30T03:40:17Z</time></trkpt>
      <trkpt lat="32.435432" lon="130.572763"><ele>8.0</ele><time>2026-09-30T03:40:54Z</time></trkpt>
      <trkpt lat="32.435787" lon="130.573071"><ele>5.4</ele><time>2026-09-30T03:41:00Z</time></trkpt>
      <trkpt lat="32.437214" lon="130.574059"><ele>6.6</ele><time>2026-09-30T03:41:24Z</time></trkpt>
      <trkpt lat="32.439685" lon="130.575484"><ele>11.2</ele><time>2026-09-30T03:42:17Z</time></trkpt>
      <trkpt lat="32.441140" lon="130.576476"><ele>6.4</ele><time>2026-09-30T03:42:36Z</time></trkpt>
      <trkpt lat="32.446558" lon="130.581441"><ele>4.8</ele><time>2026-09-30T03:44:21Z</time></trkpt>
      <trkpt lat="32.447374" lon="130.582116"><ele>7.2</ele><time>2026-09-30T03:44:40Z</time></trkpt>
      <trkpt lat="32.452536" lon="130.585463"><ele>6.8</ele><time>2026-09-30T03:46:21Z</time></trkpt>
      <trkpt lat="32.455278" lon="130.587340"><ele>8.0</ele><time>2026-09-30T03:47:14Z</time></trkpt>
      <trkpt lat="32.456644" lon="130.588694"><ele>8.6</ele><time>2026-09-30T03:47:42Z</time></trkpt>
      <trkpt lat="32.457776" lon="130.590244"><ele>7.6</ele><time>2026-09-30T03:48:11Z</time></trkpt>
      <trkpt lat="32.458021" lon="130.590212"><ele>7.8</ele><time>2026-09-30T03:48:18Z</time></trkpt>
      <trkpt lat="32.460702" lon="130.589047"><ele>8.0</ele><time>2026-09-30T03:49:12Z</time></trkpt>
      <trkpt lat="32.462845" lon="130.588375"><ele>7.6</ele><time>2026-09-30T03:49:55Z</time></trkpt>
      <trkpt lat="32.464029" lon="130.588142"><ele>8.2</ele><time>2026-09-30T03:50:16Z</time></trkpt>
      <trkpt lat="32.465188" lon="130.587795"><ele>9.6</ele><time>2026-09-30T03:50:37Z</time></trkpt>
      <trkpt lat="32.465933" lon="130.587791"><ele>11.2</ele><time>2026-09-30T03:50:53Z</time></trkpt>
      <trkpt lat="32.466533" lon="130.587620"><ele>9.8</ele><time>2026-09-30T03:51:07Z</time></trkpt>
      <trkpt lat="32.467246" lon="130.587576"><ele>10.4</ele><time>2026-09-30T03:51:21Z</time></trkpt>
      <trkpt lat="32.468379" lon="130.587366"><ele>11.4</ele><time>2026-09-30T03:51:51Z</time></trkpt>
      <trkpt lat="32.469320" lon="130.586963"><ele>10.0</ele><time>2026-09-30T03:52:52Z</time></trkpt>
      <trkpt lat="32.469401" lon="130.586988"><ele>9.6</ele><time>2026-09-30T03:52:54Z</time></trkpt>
      <trkpt lat="32.469483" lon="130.587187"><ele>9.0</ele><time>2026-09-30T03:52:58Z</time></trkpt>
      <trkpt lat="32.469794" lon="130.588351"><ele>8.4</ele><time>2026-09-30T03:53:19Z</time></trkpt>
      <trkpt lat="32.470229" lon="130.588245"><ele>8.2</ele><time>2026-09-30T03:53:33Z</time></trkpt>
      <trkpt lat="32.470197" lon="130.588607"><ele>8.4</ele><time>2026-09-30T03:53:41Z</time></trkpt>
      <trkpt lat="32.470249" lon="130.588801"><ele>9.2</ele><time>2026-09-30T03:53:46Z</time></trkpt>
      <trkpt lat="32.470778" lon="130.589775"><ele>9.0</ele><time>2026-09-30T03:54:07Z</time></trkpt>
      <trkpt lat="32.474590" lon="130.588630"><ele>8.6</ele><time>2026-09-30T03:55:25Z</time></trkpt>
      <trkpt lat="32.474743" lon="130.589134"><ele>8.8</ele><time>2026-09-30T03:55:36Z</time></trkpt>
      <trkpt lat="32.477427" lon="130.592196"><ele>9.4</ele><time>2026-09-30T03:56:55Z</time></trkpt>
      <trkpt lat="32.478756" lon="130.593829"><ele>9.2</ele><time>2026-09-30T03:57:27Z</time></trkpt>
      <trkpt lat="32.479210" lon="130.594666"><ele>9.2</ele><time>2026-09-30T03:57:42Z</time></trkpt>
      <trkpt lat="32.479643" lon="130.595915"><ele>9.8</ele><time>2026-09-30T03:58:01Z</time></trkpt>
      <trkpt lat="32.479892" lon="130.597110"><ele>9.4</ele><time>2026-09-30T03:58:20Z</time></trkpt>
      <trkpt lat="32.480237" lon="130.597970"><ele>9.8</ele><time>2026-09-30T03:58:36Z</time></trkpt>
      <trkpt lat="32.481414" lon="130.599349"><ele>9.6</ele><time>2026-09-30T03:59:07Z</time></trkpt>
      <trkpt lat="32.481730" lon="130.599469"><ele>10.0</ele><time>2026-09-30T03:59:14Z</time></trkpt>
      <trkpt lat="32.482621" lon="130.599410"><ele>10.6</ele><time>2026-09-30T03:59:33Z</time></trkpt>
      <trkpt lat="32.484097" lon="130.599570"><ele>11.2</ele><time>2026-09-30T04:00:06Z</time></trkpt>
      <trkpt lat="32.484481" lon="130.599737"><ele>10.8</ele><time>2026-09-30T04:00:15Z</time></trkpt>
      <trkpt lat="32.485402" lon="130.600418"><ele>10.0</ele><time>2026-09-30T04:00:37Z</time></trkpt>
      <trkpt lat="32.487224" lon="130.601026"><ele>9.6</ele><time>2026-09-30T04:01:12Z</time></trkpt>
      <trkpt lat="32.488381" lon="130.601684"><ele>10.6</ele><time>2026-09-30T04:01:38Z</time></trkpt>
      <trkpt lat="32.488860" lon="130.601728"><ele>11.2</ele><time>2026-09-30T04:01:51Z</time></trkpt>
      <trkpt lat="32.489426" lon="130.602107"><ele>11.2</ele><time>2026-09-30T04:02:06Z</time></trkpt>
      <trkpt lat="32.489929" lon="130.601396"><ele>11.4</ele><time>2026-09-30T04:02:27Z</time></trkpt>
      <trkpt lat="32.490082" lon="130.601315"><ele>11.2</ele><time>2026-09-30T04:02:30Z</time></trkpt>
      <trkpt lat="32.492116" lon="130.600443"><ele>16.6</ele><time>2026-09-30T04:03:13Z</time></trkpt>
      <trkpt lat="32.494694" lon="130.599496"><ele>16.6</ele><time>2026-09-30T04:04:31Z</time></trkpt>
      <trkpt lat="32.494819" lon="130.599362"><ele>16.6</ele><time>2026-09-30T04:04:36Z</time></trkpt>
      <trkpt lat="32.494745" lon="130.598988"><ele>15.6</ele><time>2026-09-30T04:06:13Z</time></trkpt>
      <trkpt lat="32.494919" lon="130.599351"><ele>16.6</ele><time>2026-09-30T04:06:31Z</time></trkpt>
      <trkpt lat="32.495570" lon="130.599151"><ele>14.4</ele><time>2026-09-30T04:06:47Z</time></trkpt>
      <trkpt lat="32.498346" lon="130.599006"><ele>12.8</ele><time>2026-09-30T04:07:33Z</time></trkpt>
      <trkpt lat="32.502499" lon="130.598187"><ele>16.4</ele><time>2026-09-30T04:09:09Z</time></trkpt>
      <trkpt lat="32.503545" lon="130.598215"><ele>12.4</ele><time>2026-09-30T04:09:29Z</time></trkpt>
      <trkpt lat="32.503437" lon="130.598512"><ele>13.4</ele><time>2026-09-30T04:11:20Z</time></trkpt>
      <trkpt lat="32.503405" lon="130.599240"><ele>13.2</ele><time>2026-09-30T04:11:37Z</time></trkpt>
      <trkpt lat="32.504382" lon="130.599416"><ele>13.8</ele><time>2026-09-30T04:12:13Z</time></trkpt>
      <trkpt lat="32.504433" lon="130.600175"><ele>14.2</ele><time>2026-09-30T04:12:38Z</time></trkpt>
      <trkpt lat="32.504339" lon="130.600851"><ele>14.4</ele><time>2026-09-30T04:12:53Z</time></trkpt>
      <trkpt lat="32.504452" lon="130.601322"><ele>15.0</ele><time>2026-09-30T04:13:12Z</time></trkpt>
      <trkpt lat="32.504310" lon="130.602122"><ele>15.6</ele><time>2026-09-30T04:13:54Z</time></trkpt>
      <trkpt lat="32.504380" lon="130.602282"><ele>15.4</ele><time>2026-09-30T04:14:36Z</time></trkpt>
      <trkpt lat="32.504465" lon="130.602216"><ele>15.4</ele><time>2026-09-30T04:15:25Z</time></trkpt>
      <trkpt lat="32.504306" lon="130.602353"><ele>14.6</ele><time>2026-09-30T04:15:42Z</time></trkpt>
      <trkpt lat="32.504284" lon="130.603319"><ele>15.2</ele><time>2026-09-30T04:16:13Z</time></trkpt>
    </trkseg>
  </trk>
</gpx>
