<?xml version="1.0" encoding="UTF-8"?>
<gpx version="1.1" creator="gpx2reel" xmlns="http://www.topografix.com/GPX/1/1">
  <trk><name>Day 10</name>
    <trkseg>
      <trkpt lat="32.460217" lon="130.198078"><ele>4.4</ele><time>2026-10-02T00:41:36Z</time></trkpt>
      <trkpt lat="32.459451" lon="130.196780"><ele>4.4</ele><time>2026-10-02T00:42:12Z</time></trkpt>
      <trkpt lat="32.459248" lon="130.196228"><ele>4.2</ele><time>2026-10-02T00:42:28Z</time></trkpt>
      <trkpt lat="32.458487" lon="130.195205"><ele>5.2</ele><time>2026-10-02T00:42:59Z</time></trkpt>
      <trkpt lat="32.457461" lon="130.196103"><ele>9.4</ele><time>2026-10-02T00:43:33Z</time></trkpt>
      <trkpt lat="32.456742" lon="130.196938"><ele>6.2</ele><time>2026-10-02T00:43:59Z</time></trkpt>
      <trkpt lat="32.457032" lon="130.197574"><ele>6.0</ele><time>2026-10-02T00:44:15Z</time></trkpt>
      <trkpt lat="32.456944" lon="130.197938"><ele>5.2</ele><time>2026-10-02T00:44:24Z</time></trkpt>
      <trkpt lat="32.455270" lon="130.200681"><ele>7.4</ele><time>2026-10-02T00:45:32Z</time></trkpt>
      <trkpt lat="32.454762" lon="130.201055"><ele>11.4</ele><time>2026-10-02T00:45:59Z</time></trkpt>
      <trkpt lat="32.454008" lon="130.201180"><ele>10.6</ele><time>2026-10-02T00:46:27Z</time></trkpt>
      <trkpt lat="32.450292" lon="130.201330"><ele>3.8</ele><time>2026-10-02T00:47:27Z</time></trkpt>
      <trkpt lat="32.449534" lon="130.200961"><ele>3.8</ele><time>2026-10-02T00:47:42Z</time></trkpt>
      <trkpt lat="32.448667" lon="130.200404"><ele>5.2</ele><time>2026-10-02T00:48:00Z</time></trkpt>
      <trkpt lat="32.447985" lon="130.200263"><ele>4.2</ele><time>2026-10-02T00:48:13Z</time></trkpt>
      <trkpt lat="32.445521" lon="130.202162"><ele>3.6</ele><time>2026-10-02T00:49:03Z</time></trkpt>
      <trkpt lat="32.444834" lon="130.202597"><ele>3.4</ele><time>2026-10-02T00:49:16Z</time></trkpt>
      <trkpt lat="32.444799" lon="130.202745"><ele>3.6</ele><time>2026-10-02T00:49:18Z</time></trkpt>
      <trkpt lat="32.444960" lon="130.203678"><ele>6.0</ele><time>2026-10-02T00:49:36Z</time></trkpt>
      <trkpt lat="32.444907" lon="130.203743"><ele>5.6</ele><time>2026-10-02T00:49:39Z</time></trkpt>
      <trkpt lat="32.441385" lon="130.204857"><ele>4.6</ele><time>2026-10-02T00:50:47Z</time></trkpt>
      <trkpt lat="32.438483" lon="130.207387"><ele>4.2</ele><time>2026-10-02T00:51:45Z</time></trkpt>
      <trkpt lat="32.437347" lon="130.208130"><ele>4.4</ele><time>2026-10-02T00:52:06Z</time></trkpt>
      <trkpt lat="32.436817" lon="130.208395"><ele>4.4</ele><time>2026-10-02T00:52:15Z</time></trkpt>
      <trkpt lat="32.434988" lon="130.208905"><ele>4.4</ele><time>2026-10-02T00:52:44Z</time></trkpt>
      <trkpt lat="32.433787" lon="130.209078"><ele>4.2</ele><time>2026-10-02T00:53:02Z</time></trkpt>
      <trkpt lat="32.430266" lon="130.209319"><ele>3.2</ele><time>2026-10-02T00:53:56Z</time></trkpt>
      <trkpt lat="32.429515" lon="130.209614"><ele>4.4</ele><time>2026-10-02T00:54:09Z</time></trkpt>
      <trkpt lat="32.429381" lon="130.209768"><ele>4.4</ele><time>2026-10-02T00:54:13Z</time></trkpt>
      <trkpt lat="32.429034" lon="130.209190"><ele>4.8</ele><time>2026-10-02T00:54:30Z</time></trkpt>
      <trkpt lat="32.429132" lon="130.208186"><ele>5.2</ele><time>2026-10-02T00:54:55Z</time></trkpt>
      <trkpt lat="32.429095" lon="130.207877"><ele>5.0</ele><time>2026-10-02T00:55:02Z</time></trkpt>
      <trkpt lat="32.428795" lon="130.207788"><ele>5.6</ele><time>2026-10-02T00:55:09Z</time></trkpt>
      <trkpt lat="32.427254" lon="130.206902"><ele>5.6</ele><time>2026-10-02T00:55:44Z</time></trkpt>
      <trkpt lat="32.426358" lon="130.207147"><ele>6.4</ele><time>2026-10-02T00:56:03Z</time></trkpt>
      <trkpt lat="32.424658" lon="130.206951"><ele>5.2</ele><time>2026-10-02T00:56:30Z</time></trkpt>
      <trkpt lat="32.424274" lon="130.206825"><ele>6.2</ele><time>2026-10-02T00:56:37Z</time></trkpt>
      <trkpt lat="32.423962" lon="130.206591"><ele>6.8</ele><time>2026-10-02T00:56:46Z</time></trkpt>
      <trkpt lat="32.423816" lon="130.206369"><ele>7.2</ele><time>2026-10-02T00:56:52Z</time></trkpt>
      <trkpt lat="32.423314" lon="130.204446"><ele>15.6</ele><time>2026-10-02T00:57:46Z</time></trkpt>
      <trkpt lat="32.422797" lon="130.204021"><ele>20.4</ele><time>2026-10-02T00:58:18Z</time></trkpt>
      <trkpt lat="32.420347" lon="130.203348"><ele>14.0</ele><time>2026-10-02T00:59:05Z</time></trkpt>
      <trkpt lat="32.419456" lon="130.202455"><ele>9.6</ele><time>2026-10-02T00:59:17Z</time></trkpt>
      <trkpt lat="32.418245" lon="130.201870"><ele>5.4</ele><time>2026-10-02T00:59:29Z</time></trkpt>
      <trkpt lat="32.417543" lon="130.201636"><ele>5.2</ele><time>2026-10-02T00:59:37Z</time></trkpt>
      <trkpt lat="32.416532" lon="130.201527"><ele>6.2</ele><time>2026-10-02T00:59:49Z</time></trkpt>
      <trkpt lat="32.415339" lon="130.201599"><ele>6.2</ele><time>2026-10-02T01:00:05Z</time></trkpt>
      <trkpt lat="32.412811" lon="130.201940"><ele>11.2</ele><time>2026-10-02T01:01:07Z</time></trkpt>
      <trkpt lat="32.411700" lon="130.202249"><ele>11.2</ele><time>2026-10-02T01:01:35Z</time></trkpt>
      <trkpt lat="32.411228" lon="130.202214"><ele>9.4</ele><time>2026-10-02T01:01:41Z</time></trkpt>
      <trkpt lat="32.410914" lon="130.202011"><ele>8.4</ele><time>2026-10-02T01:01:45Z</time></trkpt>
      <trkpt lat="32.410188" lon="130.201133"><ele>7.6</ele><time>2026-10-02T01:01:57Z</time></trkpt>
      <trkpt lat="32.408836" lon="130.200612"><ele>8.2</ele><time>2026-10-02T01:02:18Z</time></trkpt>
      <trkpt lat="32.408526" lon="130.200402"><ele>8.0</ele><time>2026-10-02T01:02:24Z</time></trkpt>
      <trkpt lat="32.407479" lon="130.199369"><ele>9.8</ele><time>2026-10-02T01:02:47Z</time></trkpt>
      <trkpt lat="32.405862" lon="130.198110"><ele>12.4</ele><time>2026-10-02T01:03:31Z</time></trkpt>
      <trkpt lat="32.404595" lon="130.197338"><ele>8.6</ele><time>2026-10-02T01:03:53Z</time></trkpt>
      <trkpt lat="32.402971" lon="130.196591"><ele>5.4</ele><time>2026-10-02T01:04:14Z</time></trkpt>
      <trkpt lat="32.402652" lon="130.196607"><ele>5.4</ele><time>2026-10-02T01:04:18Z</time></trkpt>
      <trkpt lat="32.402125" lon="130.196896"><ele>5.4</ele><time>2026-10-02T01:04:26Z</time></trkpt>
      <trkpt lat="32.401871" lon="130.197093"><ele>5.6</ele><time>2026-10-02T01:04:30Z</time></trkpt>
      <trkpt lat="32.401742" lon="130.197325"><ele>5.8</ele><time>2026-10-02T01:04:33Z</time></trkpt>
      <trkpt lat="32.401684" lon="130.197739"><ele>7.0</ele><time>2026-10-02T01:04:38Z</time></trkpt>
      <trkpt lat="32.401832" lon="130.198882"><ele>6.0</ele><time>2026-10-02T01:04:56Z</time></trkpt>
      <trkpt lat="32.401688" lon="130.199995"><ele>4.8</ele><time>2026-10-02T01:05:15Z</time></trkpt>
      <trkpt lat="32.401481" lon="130.200866"><ele>5.0</ele><time>2026-10-02T01:05:31Z</time></trkpt>
      <trkpt lat="32.399261" lon="130.201887"><ele>5.2</ele><time>2026-10-02T01:06:11Z</time></trkpt>
      <trkpt lat="32.398902" lon="130.201840"><ele>6.2</ele><time>2026-10-02T01:06:17Z</time></trkpt>
      <trkpt lat="32.398184" lon="130.201360"><ele>5.8</ele><time>2026-10-02T01:06:29Z</time></trkpt>
      <trkpt lat="32.397453" lon="130.201255"><ele>6.2</ele><time>2026-10-02T01:06:40Z</time></trkpt>
      <trkpt lat="32.396744" lon="130.200931"><ele>5.4</ele><time>2026-10-02T01:06:51Z</time></trkpt>
      <trkpt lat="32.396153" lon="130.200332"><ele>6.0</ele><time>2026-10-02T01:07:02Z</time></trkpt>
      <trkpt lat="32.395942" lon="130.200271"><ele>5.4</ele><time>2026-10-02T01:07:05Z</time></trkpt>
      <trkpt lat="32.395688" lon="130.200388"><ele>5.2</ele><time>2026-10-02T01:07:09Z</time></trkpt>
      <trkpt lat="32.395116" lon="130.201282"><ele>6.2</ele><time>2026-10-02T01:07:27Z</time></trkpt>
      <trkpt lat="32.394900" lon="130.201428"><ele>7.2</ele><time>2026-10-02T01:07:33Z</time></trkpt>
      <trkpt lat="32.394659" lon="130.201441"><ele>8.4</ele><time>2026-10-02T01:07:39Z</time></trkpt>
      <trkpt lat="32.394021" lon="130.201219"><ele>10.2</ele><time>2026-10-02T01:07:55Z</time></trkpt>
      <trkpt lat="32.393718" lon="130.201196"><ele>11.0</ele><time>2026-10-02T01:08:03Z</time></trkpt>
      <trkpt lat="32.391992" lon="130.201346"><ele>9.8</ele><time>2026-10-02T01:08:33Z</time></trkpt>
      <trkpt lat="32.391576" lon="130.201195"><ele>8.4</ele><time>2026-10-02T01:08:39Z</time></trkpt>
      <trkpt lat="32.390932" lon="130.200799"><ele>8.4</ele><time>2026-10-02T01:08:48Z</time></trkpt>
      <trkpt lat="32.390054" lon="130.199659"><ele>8.4</ele><time>2026-10-02T01:09:04Z</time></trkpt>
      <trkpt lat="32.389757" lon="130.199121"><ele>7.8</ele><time>2026-10-02T01:09:11Z</time></trkpt>
      <trkpt lat="32.388890" lon="130.195854"><ele>9.2</ele><time>2026-10-02T01:09:48Z</time></trkpt>
      <trkpt lat="32.388857" lon="130.195489"><ele>9.6</ele><time>2026-10-02T01:09:52Z</time></trkpt>
      <trkpt lat="32.388966" lon="130.194133"><ele>8.6</ele><time>2026-10-02T01:10:08Z</time></trkpt>
      <trkpt lat="32.388928" lon="130.193786"><ele>8.8</ele><time>2026-10-02T01:10:12Z</time></trkpt>
      <trkpt lat="32.388818" lon="130.193657"><ele>10.4</ele><time>2026-10-02T01:10:14Z</time></trkpt>
      <trkpt lat="32.388273" lon="130.193451"><ele>16.0</ele><time>2026-10-02T01:10:23Z</time></trkpt>
      <trkpt lat="32.387615" lon="130.193196"><ele>10.0</ele><time>2026-10-02T01:10:34Z</time></trkpt>
      <trkpt lat="32.386563" lon="130.193653"><ele>5.4</ele><time>2026-10-02T01:10:53Z</time></trkpt>
      <trkpt lat="32.385999" lon="130.193728"><ele>5.2</ele><time>2026-10-02T01:11:03Z</time></trkpt>
      <trkpt lat="32.383844" lon="130.192965"><ele>5.0</ele><time>2026-10-02T01:11:37Z</time></trkpt>
      <trkpt lat="32.382801" lon="130.193009"><ele>6.2</ele><time>2026-10-02T01:11:53Z</time></trkpt>
      <trkpt lat="32.380598" lon="130.191728"><ele>6.4</ele><time>2026-10-02T01:12:27Z</time></trkpt>
      <trkpt lat="32.379221" lon="130.190435"><ele>7.8</ele><time>2026-10-02T01:12:51Z</time></trkpt>
      <trkpt lat="32.377377" lon="130.190040"><ele>6.4</ele><time>2026-10-02T01:13:18Z</time></trkpt>
      <trkpt lat="32.374691" lon="130.189656"><ele>6.0</ele><time>2026-10-02T01:13:53Z</time></trkpt>
      <trkpt lat="32.373037" lon="130.189193"><ele>6.0</ele><time>2026-10-02T01:14:15Z</time></trkpt>
      <trkpt lat="32.366610" lon="130.185886"><ele>7.0</ele><time>2026-10-02T01:15:52Z</time></trkpt>
      <trkpt lat="32.363616" lon="130.183984"><ele>9.0</ele><time>2026-10-02T01:16:48Z</time></trkpt>
      <trkpt lat="32.363485" lon="130.183692"><ele>8.8</ele><time>2026-10-02T01:16:55Z</time></trkpt>
      <trkpt lat="32.363734" lon="130.181742"><ele>10.6</ele><time>2026-10-02T01:17:28Z</time></trkpt>
      <trkpt lat="32.364015" lon="130.180474"><ele>12.8</ele><time>2026-10-02T01:17:57Z</time></trkpt>
      <trkpt lat="32.365546" lon="130.174493"><ele>19.4</ele><time>2026-10-02T01:20:56Z</time></trkpt>
      <trkpt lat="32.367635" lon="130.167366"><ele>37.2</ele><time>2026-10-02T01:24:43Z</time></trkpt>
      <trkpt lat="32.367546" lon="130.166198"><ele>39.4</ele><time>2026-10-02T01:25:14Z</time></trkpt>
      <trkpt lat="32.367580" lon="130.165744"><ele>41.2</ele><time>2026-10-02T01:25:27Z</time></trkpt>
      <trkpt lat="32.367771" lon="130.165241"><ele>43.4</ele><time>2026-10-02T01:25:47Z</time></trkpt>
      <trkpt lat="32.367795" lon="130.164967"><ele>43.6</ele><time>2026-10-02T01:25:55Z</time></trkpt>
      <trkpt lat="32.367720" lon="130.164792"><ele>44.2</ele><time>2026-10-02T01:26:01Z</time></trkpt>
      <trkpt lat="32.367343" lon="130.164487"><ele>46.0</ele><time>2026-10-02T01:26:17Z</time></trkpt>
      <trkpt lat="32.366987" lon="130.164380"><ele>48.2</ele><time>2026-10-02T01:26:34Z</time></trkpt>
      <trkpt lat="32.366673" lon="130.163854"><ele>52.6</ele><time>2026-10-02T01:27:13Z</time></trkpt>
      <trkpt lat="32.366515" lon="130.163425"><ele>55.6</ele><time>2026-10-02T01:27:35Z</time></trkpt>
      <trkpt lat="32.366289" lon="130.163418"><ele>58.2</ele><time>2026-10-02T01:27:48Z</time></trkpt>
      <trkpt lat="32.366078" lon="130.163545"><ele>59.0</ele><time>2026-10-02T01:28:01Z</time></trkpt>
      <trkpt lat="32.366100" lon="130.164307"><ele>64.6</ele><time>2026-10-02T01:28:38Z</time></trkpt>
      <trkpt lat="32.365762" lon="130.164401"><ele>66.2</ele><time>2026-10-02T01:28:59Z</time></trkpt>
      <trkpt lat="32.365479" lon="130.164380"><ele>68.6</ele><time>2026-10-02T01:29:19Z</time></trkpt>
      <trkpt lat="32.365232" lon="130.164211"><ele>69.2</ele><time>2026-10-02T01:29:31Z</time></trkpt>
      <trkpt lat="32.364829" lon="130.163461"><ele>70.0</ele><time>2026-10-02T01:29:53Z</time></trkpt>
      <trkpt lat="32.364857" lon="130.163097"><ele>71.8</ele><time>2026-10-02T01:30:04Z</time></trkpt>
      <trkpt lat="32.364970" lon="130.162895"><ele>72.6</ele><time>2026-10-02T01:30:10Z</time></trkpt>
      <trkpt lat="32.365505" lon="130.162173"><ele>76.0</ele><time>2026-10-02T01:30:36Z</time></trkpt>
      <trkpt lat="32.365922" lon="130.161380"><ele>79.0</ele><time>2026-10-02T01:31:04Z</time></trkpt>
      <trkpt lat="32.366571" lon="130.160431"><ele>82.6</ele><time>2026-10-02T01:31:39Z</time></trkpt>
      <trkpt lat="32.366686" lon="130.159981"><ele>84.2</ele><time>2026-10-02T01:31:51Z</time></trkpt>
      <trkpt lat="32.366666" lon="130.159251"><ele>87.6</ele><time>2026-10-02T01:32:15Z</time></trkpt>
      <trkpt lat="32.366508" lon="130.158727"><ele>89.0</ele><time>2026-10-02T01:32:34Z</time></trkpt>
      <trkpt lat="32.366285" lon="130.158471"><ele>91.6</ele><time>2026-10-02T01:32:46Z</time></trkpt>
      <trkpt lat="32.365865" lon="130.158182"><ele>95.4</ele><time>2026-10-02T01:33:10Z</time></trkpt>
      <trkpt lat="32.365225" lon="130.157970"><ele>101.0</ele><time>2026-10-02T01:33:46Z</time></trkpt>
      <trkpt lat="32.364909" lon="130.157725"><ele>103.4</ele><time>2026-10-02T01:34:09Z</time></trkpt>
      <trkpt lat="32.364633" lon="130.157243"><ele>106.6</ele><time>2026-10-02T01:34:38Z</time></trkpt>
      <trkpt lat="32.364144" lon="130.156939"><ele>111.0</ele><time>2026-10-02T01:35:11Z</time></trkpt>
      <trkpt lat="32.363540" lon="130.156229"><ele>115.8</ele><time>2026-10-02T01:36:04Z</time></trkpt>
      <trkpt lat="32.362322" lon="130.154657"><ele>111.8</ele><time>2026-10-02T01:36:38Z</time></trkpt>
      <trkpt lat="32.361988" lon="130.151867"><ele>107.2</ele><time>2026-10-02T01:37:07Z</time></trkpt>
      <trkpt lat="32.362376" lon="130.150744"><ele>104.2</ele><time>2026-10-02T01:37:22Z</time></trkpt>
      <trkpt lat="32.362392" lon="130.150496"><ele>102.4</ele><time>2026-10-02T01:37:25Z</time></trkpt>
      <trkpt lat="32.362307" lon="130.150359"><ele>102.0</ele><time>2026-10-02T01:37:27Z</time></trkpt>
      <trkpt lat="32.359867" lon="130.150621"><ele>106.6</ele><time>2026-10-02T01:38:09Z</time></trkpt>
      <trkpt lat="32.359482" lon="130.150599"><ele>108.4</ele><time>2026-10-02T01:38:21Z</time></trkpt>
      <trkpt lat="32.359071" lon="130.150360"><ele>110.6</ele><time>2026-10-02T01:38:37Z</time></trkpt>
      <trkpt lat="32.357963" lon="130.148895"><ele>113.4</ele><time>2026-10-02T01:39:23Z</time></trkpt>
      <trkpt lat="32.357615" lon="130.148578"><ele>114.8</ele><time>2026-10-02T01:39:34Z</time></trkpt>
      <trkpt lat="32.357042" lon="130.148532"><ele>116.6</ele><time>2026-10-02T01:39:50Z</time></trkpt>
      <trkpt lat="32.356322" lon="130.148336"><ele>113.0</ele><time>2026-10-02T01:40:04Z</time></trkpt>
      <trkpt lat="32.355626" lon="130.148548"><ele>111.0</ele><time>2026-10-02T01:40:13Z</time></trkpt>
      <trkpt lat="32.354858" lon="130.148580"><ele>107.8</ele><time>2026-10-02T01:40:23Z</time></trkpt>
      <trkpt lat="32.354299" lon="130.148722"><ele>105.6</ele><time>2026-10-02T01:40:29Z</time></trkpt>
      <trkpt lat="32.353720" lon="130.148431"><ele>101.8</ele><time>2026-10-02T01:40:40Z</time></trkpt>
      <trkpt lat="32.354141" lon="130.148562"><ele>99.4</ele><time>2026-10-02T01:40:48Z</time></trkpt>
      <trkpt lat="32.354474" lon="130.148522"><ele>97.6</ele><time>2026-10-02T01:40:53Z</time></trkpt>
      <trkpt lat="32.354631" lon="130.148380"><ele>97.0</ele><time>2026-10-02T01:40:56Z</time></trkpt>
      <trkpt lat="32.354744" lon="130.148006"><ele>96.0</ele><time>2026-10-02T01:41:01Z</time></trkpt>
      <trkpt lat="32.354954" lon="130.147754"><ele>94.6</ele><time>2026-10-02T01:41:05Z</time></trkpt>
      <trkpt lat="32.355497" lon="130.147624"><ele>92.4</ele><time>2026-10-02T01:41:12Z</time></trkpt>
      <trkpt lat="32.356296" lon="130.147642"><ele>90.0</ele><time>2026-10-02T01:41:22Z</time></trkpt>
      <trkpt lat="32.355910" lon="130.147119"><ele>88.0</ele><time>2026-10-02T01:41:31Z</time></trkpt>
      <trkpt lat="32.355734" lon="130.146362"><ele>85.0</ele><time>2026-10-02T01:41:39Z</time></trkpt>
      <trkpt lat="32.355545" lon="130.146095"><ele>82.6</ele><time>2026-10-02T01:41:43Z</time></trkpt>
      <trkpt lat="32.355435" lon="130.146080"><ele>80.8</ele><time>2026-10-02T01:41:46Z</time></trkpt>
      <trkpt lat="32.355014" lon="130.146303"><ele>79.0</ele><time>2026-10-02T01:41:52Z</time></trkpt>
      <trkpt lat="32.354355" lon="130.146363"><ele>75.8</ele><time>2026-10-02T01:42:01Z</time></trkpt>
      <trkpt lat="32.353755" lon="130.145780"><ele>74.6</ele><time>2026-10-02T01:42:11Z</time></trkpt>
      <trkpt lat="32.353691" lon="130.145477"><ele>74.0</ele><time>2026-10-02T01:42:16Z</time></trkpt>
      <trkpt lat="32.353944" lon="130.145318"><ele>71.8</ele><time>2026-10-02T01:42:20Z</time></trkpt>
      <trkpt lat="32.354238" lon="130.144927"><ele>70.4</ele><time>2026-10-02T01:42:25Z</time></trkpt>
      <trkpt lat="32.354369" lon="130.144610"><ele>69.0</ele><time>2026-10-02T01:42:30Z</time></trkpt>
      <trkpt lat="32.353824" lon="130.144746"><ele>63.6</ele><time>2026-10-02T01:42:44Z</time></trkpt>
      <trkpt lat="32.353873" lon="130.144800"><ele>64.6</ele><time>2026-10-02T01:43:02Z</time></trkpt>
      <trkpt lat="32.353084" lon="130.145171"><ele>66.4</ele><time>2026-10-02T01:43:44Z</time></trkpt>
      <trkpt lat="32.352881" lon="130.145172"><ele>67.4</ele><time>2026-10-02T01:43:51Z</time></trkpt>
      <trkpt lat="32.352777" lon="130.145087"><ele>67.8</ele><time>2026-10-02T01:43:57Z</time></trkpt>
      <trkpt lat="32.352762" lon="130.144929"><ele>68.2</ele><time>2026-10-02T01:44:03Z</time></trkpt>
      <trkpt lat="32.352991" lon="130.144367"><ele>70.0</ele><time>2026-10-02T01:44:28Z</time></trkpt>
      <trkpt lat="32.353222" lon="130.144147"><ele>71.6</ele><time>2026-10-02T01:44:43Z</time></trkpt>
      <trkpt lat="32.353632" lon="130.143965"><ele>73.0</ele><time>2026-10-02T01:45:01Z</time></trkpt>
      <trkpt lat="32.354096" lon="130.143560"><ele>75.4</ele><time>2026-10-02T01:45:23Z</time></trkpt>
      <trkpt lat="32.354147" lon="130.143407"><ele>75.8</ele><time>2026-10-02T01:45:29Z</time></trkpt>
      <trkpt lat="32.353963" lon="130.143312"><ele>76.4</ele><time>2026-10-02T01:45:38Z</time></trkpt>
      <trkpt lat="32.353568" lon="130.143465"><ele>78.2</ele><time>2026-10-02T01:45:54Z</time></trkpt>
      <trkpt lat="32.353428" lon="130.143443"><ele>79.2</ele><time>2026-10-02T01:46:03Z</time></trkpt>
      <trkpt lat="32.353337" lon="130.143241"><ele>80.2</ele><time>2026-10-02T01:46:14Z</time></trkpt>
      <trkpt lat="32.353441" lon="130.142776"><ele>81.6</ele><time>2026-10-02T01:46:33Z</time></trkpt>
      <trkpt lat="32.353349" lon="130.142687"><ele>81.8</ele><time>2026-10-02T01:46:38Z</time></trkpt>
      <trkpt lat="32.353154" lon="130.142815"><ele>83.4</ele><time>2026-10-02T01:46:49Z</time></trkpt>
      <trkpt lat="32.352919" lon="130.143200"><ele>84.4</ele><time>2026-10-02T01:47:06Z</time></trkpt>
      <trkpt lat="32.352784" lon="130.143293"><ele>84.6</ele><time>2026-10-02T01:47:12Z</time></trkpt>
      <trkpt lat="32.352680" lon="130.143243"><ele>85.2</ele><time>2026-10-02T01:47:18Z</time></trkpt>
      <trkpt lat="32.352666" lon="130.143109"><ele>85.8</ele><time>2026-10-02T01:47:23Z</time></trkpt>
      <trkpt lat="32.352977" lon="130.142044"><ele>89.8</ele><time>2026-10-02T01:48:06Z</time></trkpt>
      <trkpt lat="32.352839" lon="130.141300"><ele>93.0</ele><time>2026-10-02T01:49:28Z</time></trkpt>
      <trkpt lat="32.352860" lon="130.141416"><ele>93.2</ele><time>2026-10-02T01:50:13Z</time></trkpt>
      <trkpt lat="32.352825" lon="130.141356"><ele>93.2</ele><time>2026-10-02T01:50:29Z</time></trkpt>
      <trkpt lat="32.352642" lon="130.141682"><ele>94.6</ele><time>2026-10-02T01:51:18Z</time></trkpt>
      <trkpt lat="32.352423" lon="130.142331"><ele>97.6</ele><time>2026-10-02T01:51:44Z</time></trkpt>
      <trkpt lat="32.352272" lon="130.142444"><ele>98.0</ele><time>2026-10-02T01:51:50Z</time></trkpt>
      <trkpt lat="32.351876" lon="130.142497"><ele>98.8</ele><time>2026-10-02T01:52:07Z</time></trkpt>
      <trkpt lat="32.351593" lon="130.142689"><ele>100.0</ele><time>2026-10-02T01:52:21Z</time></trkpt>
      <trkpt lat="32.351475" lon="130.142625"><ele>100.6</ele><time>2026-10-02T01:52:27Z</time></trkpt>
      <trkpt lat="32.351507" lon="130.141893"><ele>102.6</ele><time>2026-10-02T01:52:51Z</time></trkpt>
      <trkpt lat="32.351348" lon="130.141623"><ele>103.8</ele><time>2026-10-02T01:53:01Z</time></trkpt>
      <trkpt lat="32.351777" lon="130.140620"><ele>107.2</ele><time>2026-10-02T01:53:38Z</time></trkpt>
      <trkpt lat="32.351539" lon="130.140354"><ele>108.8</ele><time>2026-10-02T01:53:51Z</time></trkpt>
      <trkpt lat="32.351125" lon="130.140760"><ele>110.8</ele><time>2026-10-02T01:54:08Z</time></trkpt>
      <trkpt lat="32.350941" lon="130.140731"><ele>112.6</ele><time>2026-10-02T01:54:17Z</time></trkpt>
      <trkpt lat="32.350886" lon="130.140476"><ele>115.0</ele><time>2026-10-02T01:54:27Z</time></trkpt>
      <trkpt lat="32.350936" lon="130.140035"><ele>114.8</ele><time>2026-10-02T01:54:40Z</time></trkpt>
      <trkpt lat="32.350506" lon="130.138433"><ele>106.8</ele><time>2026-10-02T01:55:04Z</time></trkpt>
      <trkpt lat="32.350741" lon="130.138803"><ele>104.8</ele><time>2026-10-02T01:55:15Z</time></trkpt>
      <trkpt lat="32.350956" lon="130.138892"><ele>104.4</ele><time>2026-10-02T01:55:19Z</time></trkpt>
      <trkpt lat="32.351324" lon="130.138432"><ele>102.8</ele><time>2026-10-02T01:55:28Z</time></trkpt>
      <trkpt lat="32.350877" lon="130.138049"><ele>98.4</ele><time>2026-10-02T01:55:38Z</time></trkpt>
      <trkpt lat="32.350604" lon="130.137667"><ele>96.4</ele><time>2026-10-02T01:55:43Z</time></trkpt>
      <trkpt lat="32.350152" lon="130.136733"><ele>92.2</ele><time>2026-10-02T01:55:55Z</time></trkpt>
      <trkpt lat="32.349821" lon="130.135627"><ele>87.0</ele><time>2026-10-02T01:56:12Z</time></trkpt>
      <trkpt lat="32.349286" lon="130.135109"><ele>83.4</ele><time>2026-10-02T01:56:21Z</time></trkpt>
      <trkpt lat="32.348976" lon="130.134668"><ele>81.6</ele><time>2026-10-02T01:56:26Z</time></trkpt>
      <trkpt lat="32.348932" lon="130.134434"><ele>80.8</ele><time>2026-10-02T01:56:28Z</time></trkpt>
      <trkpt lat="32.349058" lon="130.133902"><ele>79.0</ele><time>2026-10-02T01:56:34Z</time></trkpt>
      <trkpt lat="32.348977" lon="130.133716"><ele>78.4</ele><time>2026-10-02T01:56:37Z</time></trkpt>
      <trkpt lat="32.348197" lon="130.133317"><ele>77.8</ele><time>2026-10-02T01:56:50Z</time></trkpt>
      <trkpt lat="32.347773" lon="130.132734"><ele>77.6</ele><time>2026-10-02T01:57:00Z</time></trkpt>
      <trkpt lat="32.346772" lon="130.129778"><ele>70.8</ele><time>2026-10-02T01:57:32Z</time></trkpt>
      <trkpt lat="32.345219" lon="130.125986"><ele>69.8</ele><time>2026-10-02T01:58:19Z</time></trkpt>
      <trkpt lat="32.344945" lon="130.125690"><ele>69.6</ele><time>2026-10-02T01:58:26Z</time></trkpt>
      <trkpt lat="32.344077" lon="130.125081"><ele>68.2</ele><time>2026-10-02T01:58:41Z</time></trkpt>
      <trkpt lat="32.343846" lon="130.124728"><ele>67.0</ele><time>2026-10-02T01:58:46Z</time></trkpt>
      <trkpt lat="32.343688" lon="130.124263"><ele>66.0</ele><time>2026-10-02T01:58:51Z</time></trkpt>
      <trkpt lat="32.343441" lon="130.122124"><ele>59.6</ele><time>2026-10-02T01:59:08Z</time></trkpt>
      <trkpt lat="32.343195" lon="130.121458"><ele>58.2</ele><time>2026-10-02T01:59:15Z</time></trkpt>
      <trkpt lat="32.342926" lon="130.121085"><ele>57.4</ele><time>2026-10-02T01:59:20Z</time></trkpt>
      <trkpt lat="32.342514" lon="130.120726"><ele>56.2</ele><time>2026-10-02T01:59:26Z</time></trkpt>
      <trkpt lat="32.341359" lon="130.120343"><ele>55.2</ele><time>2026-10-02T01:59:39Z</time></trkpt>
      <trkpt lat="32.340564" lon="130.119931"><ele>54.0</ele><time>2026-10-02T01:59:48Z</time></trkpt>
      <trkpt lat="32.340275" lon="130.119689"><ele>53.2</ele><time>2026-10-02T01:59:52Z</time></trkpt>
      <trkpt lat="32.339669" lon="130.118774"><ele>52.0</ele><time>2026-10-02T02:00:03Z</time></trkpt>
      <trkpt lat="32.338796" lon="130.116692"><ele>49.8</ele><time>2026-10-02T02:00:26Z</time></trkpt>
      <trkpt lat="32.338468" lon="130.116182"><ele>49.0</ele><time>2026-10-02T02:00:32Z</time></trkpt>
      <trkpt lat="32.338135" lon="130.115848"><ele>49.6</ele><time>2026-10-02T02:00:37Z</time></trkpt>
      <trkpt lat="32.335869" lon="130.114202"><ele>48.0</ele><time>2026-10-02T02:01:06Z</time></trkpt>
      <trkpt lat="32.335192" lon="130.113253"><ele>49.6</ele><time>2026-10-02T02:01:20Z</time></trkpt>
      <trkpt lat="32.334921" lon="130.112988"><ele>50.6</ele><time>2026-10-02T02:01:27Z</time></trkpt>
      <trkpt lat="32.334343" lon="130.112820"><ele>49.4</ele><time>2026-10-02T02:01:38Z</time></trkpt>
      <trkpt lat="32.332830" lon="130.112800"><ele>43.6</ele><time>2026-10-02T02:01:56Z</time></trkpt>
      <trkpt lat="32.332376" lon="130.112560"><ele>43.0</ele><time>2026-10-02T02:02:01Z</time></trkpt>
      <trkpt lat="32.328555" lon="130.108761"><ele>39.2</ele><time>2026-10-02T02:02:55Z</time></trkpt>
      <trkpt lat="32.327452" lon="130.108119"><ele>38.6</ele><time>2026-10-02T02:03:10Z</time></trkpt>
      <trkpt lat="32.325738" lon="130.107298"><ele>41.4</ele><time>2026-10-02T02:03:41Z</time></trkpt>
      <trkpt lat="32.325278" lon="130.106879"><ele>39.2</ele><time>2026-10-02T02:03:51Z</time></trkpt>
      <trkpt lat="32.325026" lon="130.106299"><ele>37.8</ele><time>2026-10-02T02:03:59Z</time></trkpt>
      <trkpt lat="32.324987" lon="130.105847"><ele>37.0</ele><time>2026-10-02T02:04:04Z</time></trkpt>
      <trkpt lat="32.325177" lon="130.105114"><ele>37.6</ele><time>2026-10-02T02:04:14Z</time></trkpt>
      <trkpt lat="32.325833" lon="130.104216"><ele>39.2</ele><time>2026-10-02T02:04:35Z</time></trkpt>
      <trkpt lat="32.326046" lon="130.103618"><ele>39.6</ele><time>2026-10-02T02:04:48Z</time></trkpt>
      <trkpt lat="32.325960" lon="130.102172"><ele>40.6</ele><time>2026-10-02T02:05:11Z</time></trkpt>
      <trkpt lat="32.326004" lon="130.100914"><ele>46.8</ele><time>2026-10-02T02:05:45Z</time></trkpt>
      <trkpt lat="32.325922" lon="130.100553"><ele>48.0</ele><time>2026-10-02T02:05:59Z</time></trkpt>
      <trkpt lat="32.326055" lon="130.100323"><ele>49.8</ele><time>2026-10-02T02:06:24Z</time></trkpt>
      <trkpt lat="32.326010" lon="130.100431"><ele>48.8</ele><time>2026-10-02T02:06:36Z</time></trkpt>
      <trkpt lat="32.325876" lon="130.099745"><ele>51.2</ele><time>2026-10-02T02:07:05Z</time></trkpt>
      <trkpt lat="32.325181" lon="130.098480"><ele>56.8</ele><time>2026-10-02T02:08:05Z</time></trkpt>
      <trkpt lat="32.324705" lon="130.098100"><ele>60.6</ele><time>2026-10-02T02:08:36Z</time></trkpt>
      <trkpt lat="32.324243" lon="130.098095"><ele>63.2</ele><time>2026-10-02T02:08:58Z</time></trkpt>
      <trkpt lat="32.323492" lon="130.098340"><ele>63.6</ele><time>2026-10-02T02:09:24Z</time></trkpt>
      <trkpt lat="32.322914" lon="130.098073"><ele>61.2</ele><time>2026-10-02T02:09:34Z</time></trkpt>
      <trkpt lat="32.321704" lon="130.096908"><ele>53.4</ele><time>2026-10-02T02:09:49Z</time></trkpt>
      <trkpt lat="32.321338" lon="130.096092"><ele>50.8</ele><time>2026-10-02T02:09:56Z</time></trkpt>
      <trkpt lat="32.321205" lon="130.095491"><ele>49.4</ele><time>2026-10-02T02:10:01Z</time></trkpt>
      <trkpt lat="32.320859" lon="130.094981"><ele>47.6</ele><time>2026-10-02T02:10:06Z</time></trkpt>
      <trkpt lat="32.319478" lon="130.095200"><ele>41.4</ele><time>2026-10-02T02:10:19Z</time></trkpt>
      <trkpt lat="32.319183" lon="130.095027"><ele>39.6</ele><time>2026-10-02T02:10:22Z</time></trkpt>
      <trkpt lat="32.318506" lon="130.094204"><ele>30.6</ele><time>2026-10-02T02:10:30Z</time></trkpt>
      <trkpt lat="32.318289" lon="130.094086"><ele>30.0</ele><time>2026-10-02T02:10:32Z</time></trkpt>
      <trkpt lat="32.317772" lon="130.094107"><ele>28.6</ele><time>2026-10-02T02:10:36Z</time></trkpt>
      <trkpt lat="32.316703" lon="130.093896"><ele>22.8</ele><time>2026-10-02T02:10:45Z</time></trkpt>
      <trkpt lat="32.316480" lon="130.093759"><ele>22.0</ele><time>2026-10-02T02:10:47Z</time></trkpt>
      <trkpt lat="32.315731" lon="130.092978"><ele>19.6</ele><time>2026-10-02T02:10:56Z</time></trkpt>
      <trkpt lat="32.315634" lon="130.092638"><ele>18.6</ele><time>2026-10-02T02:10:59Z</time></trkpt>
      <trkpt lat="32.315687" lon="130.092257"><ele>17.8</ele><time>2026-10-02T02:11:02Z</time></trkpt>
      <trkpt lat="32.315612" lon="130.090957"><ele>15.4</ele><time>2026-10-02T02:11:14Z</time></trkpt>
      <trkpt lat="32.315365" lon="130.090215"><ele>14.2</ele><time>2026-10-02T02:11:21Z</time></trkpt>
      <trkpt lat="32.314011" lon="130.087311"><ele>11.6</ele><time>2026-10-02T02:11:53Z</time></trkpt>
      <trkpt lat="32.311943" lon="130.084030"><ele>8.2</ele><time>2026-10-02T02:12:50Z</time></trkpt>
      <trkpt lat="32.311907" lon="130.083830"><ele>8.0</ele><time>2026-10-02T02:12:53Z</time></trkpt>
      <trkpt lat="32.312453" lon="130.083068"><ele>8.4</ele><time>2026-10-02T02:13:07Z</time></trkpt>
      <trkpt lat="32.312812" lon="130.082840"><ele>8.0</ele><time>2026-10-02T02:13:13Z</time></trkpt>
      <trkpt lat="32.316331" lon="130.082025"><ele>6.8</ele><time>2026-10-02T02:14:08Z</time></trkpt>
      <trkpt lat="32.316913" lon="130.081757"><ele>6.6</ele><time>2026-10-02T02:14:21Z</time></trkpt>
      <trkpt lat="32.317215" lon="130.081461"><ele>7.0</ele><time>2026-10-02T02:14:28Z</time></trkpt>
      <trkpt lat="32.319164" lon="130.077188"><ele>8.0</ele><time>2026-10-02T02:15:40Z</time></trkpt>
      <trkpt lat="32.320509" lon="130.073620"><ele>9.4</ele><time>2026-10-02T02:16:34Z</time></trkpt>
      <trkpt lat="32.320501" lon="130.073221"><ele>9.2</ele><time>2026-10-02T02:16:40Z</time></trkpt>
      <trkpt lat="32.320376" lon="130.072858"><ele>9.4</ele><time>2026-10-02T02:16:46Z</time></trkpt>
      <trkpt lat="32.320173" lon="130.072632"><ele>10.0</ele><time>2026-10-02T02:16:51Z</time></trkpt>
      <trkpt lat="32.319807" lon="130.072532"><ele>10.4</ele><time>2026-10-02T02:16:58Z</time></trkpt>
      <trkpt lat="32.314348" lon="130.072335"><ele>6.4</ele><time>2026-10-02T02:18:25Z</time></trkpt>
      <trkpt lat="32.311791" lon="130.072432"><ele>6.2</ele><time>2026-10-02T02:19:08Z</time></trkpt>
      <trkpt lat="32.311564" lon="130.072401"><ele>6.4</ele><time>2026-10-02T02:19:12Z</time></trkpt>
      <trkpt lat="32.311255" lon="130.072213"><ele>6.2</ele><time>2026-10-02T02:19:18Z</time></trkpt>
      <trkpt lat="32.308961" lon="130.070005"><ele>6.6</ele><time>2026-10-02T02:20:03Z</time></trkpt>
      <trkpt lat="32.308529" lon="130.069372"><ele>6.6</ele><time>2026-10-02T02:20:14Z</time></trkpt>
      <trkpt lat="32.307834" lon="130.067932"><ele>6.6</ele><time>2026-10-02T02:20:38Z</time></trkpt>
      <trkpt lat="32.305732" lon="130.065597"><ele>6.4</ele><time>2026-10-02T02:21:23Z</time></trkpt>
      <trkpt lat="32.304887" lon="130.064326"><ele>8.4</ele><time>2026-10-02T02:21:45Z</time></trkpt>
      <trkpt lat="32.304513" lon="130.063476"><ele>8.6</ele><time>2026-10-02T02:21:59Z</time></trkpt>
      <trkpt lat="32.304617" lon="130.062141"><ele>8.8</ele><time>2026-10-02T02:22:17Z</time></trkpt>
      <trkpt lat="32.304308" lon="130.060835"><ele>8.6</ele><time>2026-10-02T02:22:37Z</time></trkpt>
      <trkpt lat="32.303401" lon="130.057722"><ele>11.6</ele><time>2026-10-02T02:23:31Z</time></trkpt>
      <trkpt lat="32.303444" lon="130.057053"><ele>13.4</ele><time>2026-10-02T02:23:45Z</time></trkpt>
      <trkpt lat="32.303754" lon="130.056663"><ele>14.2</ele><time>2026-10-02T02:23:59Z</time></trkpt>
      <trkpt lat="32.304025" lon="130.056559"><ele>14.0</ele><time>2026-10-02T02:24:05Z</time></trkpt>
      <trkpt lat="32.305104" lon="130.056640"><ele>11.4</ele><time>2026-10-02T02:24:21Z</time></trkpt>
      <trkpt lat="32.306002" lon="130.056361"><ele>10.8</ele><time>2026-10-02T02:24:36Z</time></trkpt>
      <trkpt lat="32.307116" lon="130.056175"><ele>10.2</ele><time>2026-10-02T02:24:56Z</time></trkpt>
      <trkpt lat="32.307354" lon="130.056009"><ele>10.0</ele><time>2026-10-02T02:25:01Z</time></trkpt>
      <trkpt lat="32.308048" lon="130.055112"><ele>10.6</ele><time>2026-10-02T02:25:22Z</time></trkpt>
      <trkpt lat="32.308372" lon="130.054936"><ele>10.8</ele><time>2026-10-02T02:25:29Z</time></trkpt>
      <trkpt lat="32.309107" lon="130.054744"><ele>10.6</ele><time>2026-10-02T02:25:41Z</time></trkpt>
      <trkpt lat="32.309417" lon="130.054478"><ele>10.6</ele><time>2026-10-02T02:25:47Z</time></trkpt>
      <trkpt lat="32.309632" lon="130.053870"><ele>11.2</ele><time>2026-10-02T02:25:57Z</time></trkpt>
      <trkpt lat="32.310368" lon="130.050012"><ele>10.6</ele><time>2026-10-02T02:27:01Z</time></trkpt>
      <trkpt lat="32.310843" lon="130.048258"><ele>10.4</ele><time>2026-10-02T02:27:30Z</time></trkpt>
      <trkpt lat="32.310797" lon="130.047793"><ele>10.4</ele><time>2026-10-02T02:27:39Z</time></trkpt>
      <trkpt lat="32.310555" lon="130.046944"><ele>10.0</ele><time>2026-10-02T02:27:55Z</time></trkpt>
      <trkpt lat="32.310560" lon="130.046589"><ele>9.8</ele><time>2026-10-02T02:28:03Z</time></trkpt>
      <trkpt lat="32.310581" lon="130.046501"><ele>9.8</ele><time>2026-10-02T02:28:07Z</time></trkpt>
      <trkpt lat="32.310648" lon="130.046510"><ele>9.8</ele><time>2026-10-02T02:28:19Z</time></trkpt>
      <trkpt lat="32.310552" lon="130.046518"><ele>10.8</ele><time>2026-10-02T02:28:38Z</time></trkpt>
      <trkpt lat="32.310595" lon="130.046546"><ele>10.8</ele><time>2026-10-02T02:28:57Z</time></trkpt>
      <trkpt lat="32.310802" lon="130.045830"><ele>9.2</ele><time>2026-10-02T02:29:22Z</time></trkpt>
      <trkpt lat="32.311612" lon="130.044059"><ele>9.6</ele><time>2026-10-02T02:29:57Z</time></trkpt>
      <trkpt lat="32.311903" lon="130.043652"><ele>9.4</ele><time>2026-10-02T02:30:06Z</time></trkpt>
      <trkpt lat="32.313524" lon="130.042501"><ele>9.4</ele><time>2026-10-02T02:30:52Z</time></trkpt>
      <trkpt lat="32.313560" lon="130.042595"><ele>9.4</ele><time>2026-10-02T02:32:15Z</time></trkpt>
      <trkpt lat="32.314284" lon="130.041986"><ele>10.0</ele><time>2026-10-02T02:32:50Z</time></trkpt>
      <trkpt lat="32.314811" lon="130.041207"><ele>10.0</ele><time>2026-10-02T02:33:07Z</time></trkpt>
      <trkpt lat="32.315026" lon="130.040673"><ele>9.6</ele><time>2026-10-02T02:33:16Z</time></trkpt>
      <trkpt lat="32.315059" lon="130.040267"><ele>9.6</ele><time>2026-10-02T02:33:22Z</time></trkpt>
      <trkpt lat="32.314846" lon="130.038852"><ele>9.6</ele><time>2026-10-02T02:33:43Z</time></trkpt>
      <trkpt lat="32.315090" lon="130.037556"><ele>12.6</ele><time>2026-10-02T02:34:12Z</time></trkpt>
      <trkpt lat="32.315455" lon="130.036628"><ele>14.8</ele><time>2026-10-02T02:34:46Z</time></trkpt>
      <trkpt lat="32.315367" lon="130.036436"><ele>15.8</ele><time>2026-10-02T02:34:52Z</time></trkpt>
      <trkpt lat="32.316107" lon="130.026941"><ele>16.4</ele><time>2026-10-02T02:37:52Z</time></trkpt>
      <trkpt lat="32.315983" lon="130.024890"><ele>8.8</ele><time>2026-10-02T02:38:21Z</time></trkpt>
      <trkpt lat="32.314850" lon="130.023923"><ele>8.4</ele><time>2026-10-02T02:38:43Z</time></trkpt>
      <trkpt lat="32.314414" lon="130.023802"><ele>8.6</ele><time>2026-10-02T02:38:52Z</time></trkpt>
      <trkpt lat="32.313577" lon="130.023874"><ele>8.4</ele><time>2026-10-02T02:39:08Z</time></trkpt>
      <trkpt lat="32.312560" lon="130.024576"><ele>8.6</ele><time>2026-10-02T02:39:31Z</time></trkpt>
      <trkpt lat="32.311970" lon="130.025232"><ele>9.6</ele><time>2026-10-02T02:39:50Z</time></trkpt>
      <trkpt lat="32.312054" lon="130.025858"><ele>8.4</ele><time>2026-10-02T02:41:37Z</time></trkpt>
      <trkpt lat="32.312119" lon="130.025806"><ele>7.4</ele><time>2026-10-02T02:41:58Z</time></trkpt>
      <trkpt lat="32.312166" lon="130.025893"><ele>8.4</ele><time>2026-10-02T02:42:33Z</time></trkpt>
      <trkpt lat="32.312209" lon="130.025706"><ele>7.6</ele><time>2026-10-02T02:43:20Z</time></trkpt>
      <trkpt lat="32.312053" lon="130.025847"><ele>7.0</ele><time>2026-10-02T02:44:10Z</time></trkpt>
      <trkpt lat="32.312103" lon="130.025915"><ele>7.2</ele><time>2026-10-02T02:44:24Z</time></trkpt>
      <trkpt lat="32.312065" lon="130.026260"><ele>6.6</ele><time>2026-10-02T02:45:40Z</time></trkpt>
      <trkpt lat="32.312080" lon="130.025821"><ele>7.2</ele><time>2026-10-02T02:47:35Z</time></trkpt>
      <trkpt lat="32.311981" lon="130.025396"><ele>7.0</ele><time>2026-10-02T02:48:30Z</time></trkpt>
      <trkpt lat="32.311567" lon="130.025631"><ele>7.2</ele><time>2026-10-02T02:48:47Z</time></trkpt>
      <trkpt lat="32.311278" lon="130.025666"><ele>6.8</ele><time>2026-10-02T02:48:54Z</time></trkpt>
      <trkpt lat="32.310874" lon="130.025486"><ele>7.0</ele><time>2026-10-02T02:49:05Z</time></trkpt>
      <trkpt lat="32.309858" lon="130.024782"><ele>7.0</ele><time>2026-10-02T02:49:39Z</time></trkpt>
      <trkpt lat="32.309566" lon="130.023830"><ele>8.6</ele><time>2026-10-02T02:50:06Z</time></trkpt>
      <trkpt lat="32.309575" lon="130.023613"><ele>9.0</ele><time>2026-10-02T02:50:12Z</time></trkpt>
      <trkpt lat="32.309828" lon="130.022821"><ele>8.6</ele><time>2026-10-02T02:50:29Z</time></trkpt>
      <trkpt lat="32.309856" lon="130.022393"><ele>9.2</ele><time>2026-10-02T02:50:37Z</time></trkpt>
      <trkpt lat="32.309657" lon="130.021855"><ele>9.0</ele><time>2026-10-02T02:50:48Z</time></trkpt>
      <trkpt lat="32.309161" lon="130.021440"><ele>11.2</ele><time>2026-10-02T02:51:06Z</time></trkpt>
      <trkpt lat="32.309140" lon="130.021117"><ele>10.8</ele><time>2026-10-02T02:51:53Z</time></trkpt>
      <trkpt lat="32.309168" lon="130.021492"><ele>11.0</ele><time>2026-10-02T02:52:36Z</time></trkpt>
      <trkpt lat="32.309074" lon="130.021634"><ele>11.2</ele><time>2026-10-02T02:53:13Z</time></trkpt>
      <trkpt lat="32.309069" lon="130.021556"><ele>12.2</ele><time>2026-10-02T02:53:35Z</time></trkpt>
      <trkpt lat="32.309004" lon="130.021588"><ele>10.4</ele><time>2026-10-02T02:54:02Z</time></trkpt>
      <trkpt lat="32.309182" lon="130.021480"><ele>11.8</ele><time>2026-10-02T02:54:40Z</time></trkpt>
      <trkpt lat="32.309140" lon="130.021311"><ele>12.6</ele><time>2026-10-02T02:55:01Z</time></trkpt>
      <trkpt lat="32.309198" lon="130.020933"><ele>12.2</ele><time>2026-10-02T02:55:22Z</time></trkpt>
      <trkpt lat="32.309533" lon="130.020274"><ele>10.8</ele><time>2026-10-02T02:55:42Z</time></trkpt>
      <trkpt lat="32.309535" lon="130.019867"><ele>12.2</ele><time>2026-10-02T02:57:06Z</time></trkpt>
      <trkpt lat="32.309902" lon="130.019613"><ele>11.8</ele><time>2026-10-02T02:57:20Z</time></trkpt>
      <trkpt lat="32.309966" lon="130.019477"><ele>11.8</ele><time>2026-10-02T02:57:25Z</time></trkpt>
      <trkpt lat="32.310097" lon="130.018175"><ele>12.4</ele><time>2026-10-02T02:58:00Z</time></trkpt>
      <trkpt lat="32.310169" lon="130.018105"><ele>12.4</ele><time>2026-10-02T02:58:04Z</time></trkpt>
      <trkpt lat="32.310499" lon="130.017935"><ele>12.4</ele><time>2026-10-02T02:58:15Z</time></trkpt>
      <trkpt lat="32.310745" lon="130.017924"><ele>12.4</ele><time>2026-10-02T02:58:21Z</time></trkpt>
      <trkpt lat="32.311210" lon="130.018312"><ele>12.4</ele><time>2026-10-02T02:58:34Z</time></trkpt>
      <trkpt lat="32.311500" lon="130.018105"><ele>12.6</ele><time>2026-10-02T02:58:43Z</time></trkpt>
      <trkpt lat="32.311674" lon="130.018100"><ele>13.0</ele><time>2026-10-02T02:58:48Z</time></trkpt>
      <trkpt lat="32.311791" lon="130.018413"><ele>12.4</ele><time>2026-10-02T02:58:57Z</time></trkpt>
      <trkpt lat="32.312017" lon="130.018678"><ele>11.8</ele><time>2026-10-02T02:59:04Z</time></trkpt>
      <trkpt lat="32.312657" lon="130.018757"><ele>11.6</ele><time>2026-10-02T02:59:17Z</time></trkpt>
      <trkpt lat="32.313471" lon="130.017988"><ele>12.4</ele><time>2026-10-02T02:59:49Z</time></trkpt>
      <trkpt lat="32.314081" lon="130.017841"><ele>13.2</ele><time>2026-10-02T03:00:08Z</time></trkpt>
      <trkpt lat="32.314257" lon="130.017421"><ele>14.0</ele><time>2026-10-02T03:00:19Z</time></trkpt>
      <trkpt lat="32.314158" lon="130.016004"><ele>13.2</ele><time>2026-10-02T03:00:49Z</time></trkpt>
      <trkpt lat="32.314403" lon="130.015495"><ele>12.8</ele><time>2026-10-02T03:01:03Z</time></trkpt>
      <trkpt lat="32.314381" lon="130.015339"><ele>12.8</ele><time>2026-10-02T03:01:06Z</time></trkpt>
      <trkpt lat="32.314119" lon="130.014914"><ele>13.2</ele><time>2026-10-02T03:01:16Z</time></trkpt>
      <trkpt lat="32.313631" lon="130.014482"><ele>13.0</ele><time>2026-10-02T03:01:31Z</time></trkpt>
      <trkpt lat="32.313577" lon="130.014297"><ele>12.6</ele><time>2026-10-02T03:01:36Z</time></trkpt>
      <trkpt lat="32.313620" lon="130.014135"><ele>12.8</ele><time>2026-10-02T03:01:40Z</time></trkpt>
      <trkpt lat="32.313969" lon="130.013727"><ele>13.2</ele><time>2026-10-02T03:01:53Z</time></trkpt>
      <trkpt lat="32.314007" lon="130.013535"><ele>13.2</ele><time>2026-10-02T03:01:58Z</time></trkpt>
      <trkpt lat="32.314004" lon="130.012984"><ele>12.6</ele><time>2026-10-02T03:02:12Z</time></trkpt>
      <trkpt lat="32.313837" lon="130.012408"><ele>12.4</ele><time>2026-10-02T03:02:27Z</time></trkpt>
      <trkpt lat="32.313622" lon="130.012091"><ele>12.4</ele><time>2026-10-02T03:02:37Z</time></trkpt>
      <trkpt lat="32.313267" lon="130.011872"><ele>12.6</ele><time>2026-10-02T03:02:49Z</time></trkpt>
      <trkpt lat="32.312367" lon="130.011986"><ele>12.6</ele><time>2026-10-02T03:03:18Z</time></trkpt>
      <trkpt lat="32.311307" lon="130.009983"><ele>14.2</ele><time>2026-10-02T03:04:30Z</time></trkpt>
      <trkpt lat="32.311313" lon="130.009381"><ele>14.0</ele><time>2026-10-02T03:04:50Z</time></trkpt>
      <trkpt lat="32.311660" lon="130.008822"><ele>12.6</ele><time>2026-10-02T03:05:05Z</time></trkpt>
      <trkpt lat="32.311710" lon="130.008529"><ele>14.8</ele><time>2026-10-02T03:05:22Z</time></trkpt>
      <trkpt lat="32.311901" lon="130.008174"><ele>15.0</ele><time>2026-10-02T03:06:02Z</time></trkpt>
      <trkpt lat="32.312236" lon="130.007696"><ele>14.6</ele><time>2026-10-02T03:06:18Z</time></trkpt>
      <trkpt lat="32.312205" lon="130.007096"><ele>15.2</ele><time>2026-10-02T03:06:34Z</time></trkpt>
      <trkpt lat="32.312265" lon="130.006788"><ele>15.0</ele><time>2026-10-02T03:06:42Z</time></trkpt>
      <trkpt lat="32.312809" lon="130.006391"><ele>15.0</ele><time>2026-10-02T03:07:01Z</time></trkpt>
      <trkpt lat="32.314040" lon="130.006344"><ele>13.4</ele><time>2026-10-02T03:07:29Z</time></trkpt>
      <trkpt lat="32.314202" lon="130.006197"><ele>13.6</ele><time>2026-10-02T03:07:33Z</time></trkpt>
      <trkpt lat="32.314252" lon="130.005851"><ele>13.8</ele><time>2026-10-02T03:07:39Z</time></trkpt>
      <trkpt lat="32.314426" lon="130.005642"><ele>14.2</ele><time>2026-10-02T03:07:45Z</time></trkpt>
      <trkpt lat="32.315642" lon="130.005254"><ele>13.2</ele><time>2026-10-02T03:08:12Z</time></trkpt>
      <trkpt lat="32.317060" lon="130.004658"><ele>17.2</ele><time>2026-10-02T03:08:52Z</time></trkpt>
      <trkpt lat="32.317282" lon="130.004620"><ele>18.4</ele><time>2026-10-02T03:09:01Z</time></trkpt>
      <trkpt lat="32.317911" lon="130.004721"><ele>21.2</ele><time>2026-10-02T03:09:26Z</time></trkpt>
      <trkpt lat="32.318381" lon="130.004930"><ele>23.8</ele><time>2026-10-02T03:09:52Z</time></trkpt>
      <trkpt lat="32.318785" lon="130.004814"><ele>24.0</ele><time>2026-10-02T03:10:07Z</time></trkpt>
      <trkpt lat="32.319237" lon="130.004914"><ele>24.8</ele><time>2026-10-02T03:10:23Z</time></trkpt>
      <trkpt lat="32.319649" lon="130.004348"><ele>26.2</ele><time>2026-10-02T03:10:43Z</time></trkpt>
      <trkpt lat="32.322908" lon="129.997801"><ele>14.8</ele><time>2026-10-02T03:12:45Z</time></trkpt>
      <trkpt lat="32.323097" lon="129.997732"><ele>14.6</ele><time>2026-10-02T03:12:48Z</time></trkpt>
      <trkpt lat="32.323657" lon="129.997262"><ele>14.6</ele><time>2026-10-02T03:13:00Z</time></trkpt>
      <trkpt lat="32.327983" lon="129.994579"><ele>16.2</ele><time>2026-10-02T03:14:42Z</time></trkpt>
      <trkpt lat="32.328261" lon="129.994332"><ele>16.6</ele><time>2026-10-02T03:14:50Z</time></trkpt>
      <trkpt lat="32.330589" lon="129.992981"><ele>16.0</ele><time>2026-10-02T03:16:21Z</time></trkpt>
      <trkpt lat="32.331349" lon="129.992972"><ele>17.6</ele><time>2026-10-02T03:16:47Z</time></trkpt>
      <trkpt lat="32.332205" lon="129.993418"><ele>17.8</ele><time>2026-10-02T03:17:39Z</time></trkpt>
      <trkpt lat="32.332891" lon="129.994568"><ele>20.4</ele><time>2026-10-02T03:18:26Z</time></trkpt>
      <trkpt lat="32.334295" lon="129.996406"><ele>32.8</ele><time>2026-10-02T03:20:27Z</time></trkpt>
      <trkpt lat="32.335193" lon="129.996964"><ele>34.6</ele><time>2026-10-02T03:21:20Z</time></trkpt>
      <trkpt lat="32.336375" lon="129.997335"><ele>35.6</ele><time>2026-10-02T03:22:01Z</time></trkpt>
      <trkpt lat="32.338170" lon="129.997134"><ele>39.4</ele><time>2026-10-02T03:23:13Z</time></trkpt>
      <trkpt lat="32.338362" lon="129.996819"><ele>40.4</ele><time>2026-10-02T03:23:36Z</time></trkpt>
      <trkpt lat="32.339009" lon="129.996974"><ele>39.4</ele><time>2026-10-02T03:23:47Z</time></trkpt>
      <trkpt lat="32.339993" lon="129.996954"><ele>42.6</ele><time>2026-10-02T03:24:24Z</time></trkpt>
      <trkpt lat="32.341266" lon="129.996693"><ele>49.4</ele><time>2026-10-02T03:26:03Z</time></trkpt>
      <trkpt lat="32.341243" lon="129.996771"><ele>47.2</ele><time>2026-10-02T03:27:25Z</time></trkpt>
      <trkpt lat="32.341254" lon="129.996560"><ele>47.6</ele><time>2026-10-02T03:27:53Z</time></trkpt>
      <trkpt lat="32.341235" lon="129.996865"><ele>47.6</ele><time>2026-10-02T03:28:25Z</time></trkpt>
      <trkpt lat="32.341243" lon="129.996662"><ele>47.6</ele><time>2026-10-02T03:35:13Z</time></trkpt>
      <trkpt lat="32.341258" lon="129.996718"><ele>47.6</ele><time>2026-10-02T03:35:37Z</time></trkpt>
      <trkpt lat="32.341228" lon="129.996671"><ele>47.6</ele><time>2026-10-02T03:37:16Z</time></trkpt>
      <trkpt lat="32.341463" lon="129.996669"><ele>46.8</ele><time>2026-10-02T03:37:46Z</time></trkpt>
      <trkpt lat="32.344064" lon="129.995393"><ele>54.4</ele><time>2026-10-02T03:40:02Z</time></trkpt>
      <trkpt lat="32.345212" lon="129.994998"><ele>60.2</ele><time>2026-10-02T03:41:03Z</time></trkpt>
      <trkpt lat="32.346624" lon="129.994936"><ele>69.2</ele><time>2026-10-02T03:42:28Z</time></trkpt>
      <trkpt lat="32.348333" lon="129.994679"><ele>82.2</ele><time>2026-10-02T03:44:09Z</time></trkpt>
      <trkpt lat="32.349336" lon="129.994421"><ele>85.4</ele><time>2026-10-02T03:45:05Z</time></trkpt>
      <trkpt lat="32.356238" lon="129.993211"><ele>101.6</ele><time>2026-10-02T03:49:39Z</time></trkpt>
      <trkpt lat="32.357714" lon="129.994052"><ele>97.4</ele><time>2026-10-02T03:50:16Z</time></trkpt>
      <trkpt lat="32.359178" lon="129.994222"><ele>90.4</ele><time>2026-10-02T03:50:33Z</time></trkpt>
      <trkpt lat="32.359579" lon="129.994401"><ele>88.2</ele><time>2026-10-02T03:50:37Z</time></trkpt>
      <trkpt lat="32.359949" lon="129.994691"><ele>86.6</ele><time>2026-10-02T03:50:41Z</time></trkpt>
      <trkpt lat="32.360260" lon="129.995013"><ele>84.0</ele><time>2026-10-02T03:50:45Z</time></trkpt>
      <trkpt lat="32.360883" lon="129.996045"><ele>77.8</ele><time>2026-10-02T03:50:55Z</time></trkpt>
      <trkpt lat="32.364371" lon="130.000793"><ele>41.4</ele><time>2026-10-02T03:51:40Z</time></trkpt>
      <trkpt lat="32.365205" lon="130.001462"><ele>35.6</ele><time>2026-10-02T03:51:49Z</time></trkpt>
      <trkpt lat="32.366306" lon="130.001987"><ele>29.0</ele><time>2026-10-02T03:51:59Z</time></trkpt>
      <trkpt lat="32.366785" lon="130.002082"><ele>21.8</ele><time>2026-10-02T03:52:08Z</time></trkpt>
      <trkpt lat="32.367474" lon="130.001953"><ele>21.8</ele><time>2026-10-02T03:53:22Z</time></trkpt>
      <trkpt lat="32.367994" lon="130.001572"><ele>18.2</ele><time>2026-10-02T03:53:33Z</time></trkpt>
      <trkpt lat="32.368090" lon="130.001166"><ele>17.6</ele><time>2026-10-02T03:53:40Z</time></trkpt>
      <trkpt lat="32.368324" lon="130.000928"><ele>16.2</ele><time>2026-10-02T03:53:46Z</time></trkpt>
      <trkpt lat="32.368312" lon="130.000376"><ele>15.8</ele><time>2026-10-02T03:53:55Z</time></trkpt>
      <trkpt lat="32.368413" lon="130.000108"><ele>15.6</ele><time>2026-10-02T03:54:00Z</time></trkpt>
      <trkpt lat="32.368998" lon="130.000089"><ele>15.2</ele><time>2026-10-02T03:54:12Z</time></trkpt>
      <trkpt lat="32.369832" lon="129.999718"><ele>13.4</ele><time>2026-10-02T03:54:30Z</time></trkpt>
      <trkpt lat="32.370204" lon="129.999396"><ele>11.8</ele><time>2026-10-02T03:54:41Z</time></trkpt>
      <trkpt lat="32.370973" lon="129.999337"><ele>11.6</ele><time>2026-10-02T03:54:58Z</time></trkpt>
      <trkpt lat="32.371506" lon="129.999104"><ele>10.2</ele><time>2026-10-02T03:55:15Z</time></trkpt>
      <trkpt lat="32.371667" lon="129.999000"><ele>10.8</ele><time>2026-10-02T03:55:21Z</time></trkpt>
      <trkpt lat="32.371702" lon="129.998740"><ele>9.0</ele><time>2026-10-02T03:55:30Z</time></trkpt>
      <trkpt lat="32.371891" lon="129.998473"><ele>10.0</ele><time>2026-10-02T03:55:41Z</time></trkpt>
      <trkpt lat="32.372730" lon="129.997675"><ele>7.8</ele><time>2026-10-02T03:56:19Z</time></trkpt>
      <trkpt lat="32.373401" lon="129.997167"><ele>6.6</ele><time>2026-10-02T03:56:48Z</time></trkpt>
      <trkpt lat="32.374240" lon="129.996794"><ele>6.2</ele><time>2026-10-02T03:57:15Z</time></trkpt>
      <trkpt lat="32.374336" lon="129.996683"><ele>6.2</ele><time>2026-10-02T03:57:19Z</time></trkpt>
      <trkpt lat="32.374247" lon="129.995647"><ele>6.2</ele><time>2026-10-02T03:57:43Z</time></trkpt>
      <trkpt lat="32.374637" lon="129.994589"><ele>5.8</ele><time>2026-10-02T03:58:15Z</time></trkpt>
      <trkpt lat="32.374426" lon="129.994032"><ele>4.6</ele><time>2026-10-02T03:58:31Z</time></trkpt>
      <trkpt lat="32.374435" lon="129.993774"><ele>4.8</ele><time>2026-10-02T03:58:40Z</time></trkpt>
      <trkpt lat="32.375073" lon="129.993688"><ele>6.4</ele><time>2026-10-02T03:59:14Z</time></trkpt>
      <trkpt lat="32.375178" lon="129.993782"><ele>6.8</ele><time>2026-10-02T03:59:23Z</time></trkpt>
      <trkpt lat="32.375417" lon="129.993404"><ele>5.2</ele><time>2026-10-02T03:59:50Z</time></trkpt>
      <trkpt lat="32.376183" lon="129.994298"><ele>6.0</ele><time>2026-10-02T04:00:44Z</time></trkpt>
      <trkpt lat="32.376954" lon="129.994724"><ele>5.8</ele><time>2026-10-02T04:01:57Z</time></trkpt>
      <trkpt lat="32.377178" lon="129.994314"><ele>0.8</ele><time>2026-10-02T04:03:26Z</time></trkpt>
      <trkpt lat="32.376945" lon="129.994724"><ele>5.6</ele><time>2026-10-02T04:06:45Z</time></trkpt>
      <trkpt lat="32.378315" lon="129.995147"><ele>6.2</ele><time>2026-10-02T04:07:51Z</time></trkpt>
      <trkpt lat="32.379608" lon="129.995367"><ele>4.4</ele><time>2026-10-02T04:08:32Z</time></trkpt>
      <trkpt lat="32.381784" lon="129.995044"><ele>4.6</ele><time>2026-10-02T04:09:44Z</time></trkpt>
      <trkpt lat="32.382778" lon="129.994599"><ele>4.4</ele><time>2026-10-02T04:10:13Z</time></trkpt>
      <trkpt lat="32.383275" lon="129.994229"><ele>4.2</ele><time>2026-10-02T04:10:27Z</time></trkpt>
      <trkpt lat="32.384091" lon="129.994846"><ele>6.8</ele><time>2026-10-02T04:10:50Z</time></trkpt>
      <trkpt lat="32.384658" lon="129.994370"><ele>10.6</ele><time>2026-10-02T04:11:12Z</time></trkpt>
      <trkpt lat="32.384858" lon="129.994090"><ele>12.4</ele><time>2026-10-02T04:11:25Z</time></trkpt>
      <trkpt lat="32.385222" lon="129.993906"><ele>14.2</ele><time>2026-10-02T04:11:45Z</time></trkpt>
      <trkpt lat="32.385902" lon="129.993315"><ele>20.8</ele><time>2026-10-02T04:12:29Z</time></trkpt>
      <trkpt lat="32.386053" lon="129.993239"><ele>22.0</ele><time>2026-10-02T04:12:38Z</time></trkpt>
      <trkpt lat="32.386391" lon="129.993243"><ele>25.4</ele><time>2026-10-02T04:12:59Z</time></trkpt>
      <trkpt lat="32.386451" lon="129.993054"><ele>26.4</ele><time>2026-10-02T04:13:09Z</time></trkpt>
      <trkpt lat="32.386268" lon="129.992927"><ele>27.0</ele><time>2026-10-02T04:13:20Z</time></trkpt>
      <trkpt lat="32.386038" lon="129.992588"><ele>27.4</ele><time>2026-10-02T04:13:34Z</time></trkpt>
      <trkpt lat="32.385590" lon="129.992468"><ele>28.8</ele><time>2026-10-02T04:13:52Z</time></trkpt>
      <trkpt lat="32.385306" lon="129.992121"><ele>30.8</ele><time>2026-10-02T04:14:12Z</time></trkpt>
      <trkpt lat="32.385212" lon="129.992129"><ele>31.4</ele><time>2026-10-02T04:14:18Z</time></trkpt>
      <trkpt lat="32.384955" lon="129.992540"><ele>31.8</ele><time>2026-10-02T04:14:34Z</time></trkpt>
      <trkpt lat="32.384806" lon="129.992624"><ele>32.6</ele><time>2026-10-02T04:14:39Z</time></trkpt>
      <trkpt lat="32.384640" lon="129.992613"><ele>33.0</ele><time>2026-10-02T04:14:44Z</time></trkpt>
      <trkpt lat="32.384228" lon="129.992276"><ele>34.6</ele><time>2026-10-02T04:15:02Z</time></trkpt>
      <trkpt lat="32.383811" lon="129.992277"><ele>35.2</ele><time>2026-10-02T04:15:17Z</time></trkpt>
      <trkpt lat="32.383743" lon="129.991770"><ele>35.8</ele><time>2026-10-02T04:15:41Z</time></trkpt>
      <trkpt lat="32.383827" lon="129.991517"><ele>36.2</ele><time>2026-10-02T04:16:35Z</time></trkpt>
      <trkpt lat="32.384086" lon="129.991089"><ele>39.0</ele><time>2026-10-02T04:17:01Z</time></trkpt>
      <trkpt lat="32.384473" lon="129.990939"><ele>40.6</ele><time>2026-10-02T04:17:20Z</time></trkpt>
      <trkpt lat="32.384536" lon="129.990748"><ele>41.0</ele><time>2026-10-02T04:17:27Z</time></trkpt>
      <trkpt lat="32.384448" lon="129.990558"><ele>41.6</ele><time>2026-10-02T04:17:34Z</time></trkpt>
      <trkpt lat="32.384037" lon="129.990229"><ele>43.8</ele><time>2026-10-02T04:17:53Z</time></trkpt>
      <trkpt lat="32.384000" lon="129.990091"><ele>44.6</ele><time>2026-10-02T04:17:59Z</time></trkpt>
      <trkpt lat="32.384210" lon="129.989664"><ele>47.0</ele><time>2026-10-02T04:18:20Z</time></trkpt>
      <trkpt lat="32.384035" lon="129.989205"><ele>49.4</ele><time>2026-10-02T04:18:43Z</time></trkpt>
      <trkpt lat="32.383927" lon="129.989142"><ele>49.8</ele><time>2026-10-02T04:19:02Z</time></trkpt>
      <trkpt lat="32.384067" lon="129.989080"><ele>49.2</ele><time>2026-10-02T04:19:35Z</time></trkpt>
      <trkpt lat="32.384201" lon="129.989158"><ele>50.6</ele><time>2026-10-02T04:19:42Z</time></trkpt>
      <trkpt lat="32.384434" lon="129.989849"><ele>55.4</ele><time>2026-10-02T04:20:17Z</time></trkpt>
      <trkpt lat="32.384671" lon="129.990133"><ele>57.4</ele><time>2026-10-02T04:20:37Z</time></trkpt>
      <trkpt lat="32.385058" lon="129.990464"><ele>59.2</ele><time>2026-10-02T04:21:04Z</time></trkpt>
      <trkpt lat="32.385558" lon="129.990447"><ele>60.6</ele><time>2026-10-02T04:21:29Z</time></trkpt>
      <trkpt lat="32.385770" lon="129.990635"><ele>61.0</ele><time>2026-10-02T04:21:38Z</time></trkpt>
      <trkpt lat="32.386792" lon="129.992463"><ele>55.6</ele><time>2026-10-02T04:22:17Z</time></trkpt>
      <trkpt lat="32.386993" lon="129.992584"><ele>55.4</ele><time>2026-10-02T04:22:19Z</time></trkpt>
      <trkpt lat="32.387509" lon="129.992675"><ele>59.6</ele><time>2026-10-02T04:22:27Z</time></trkpt>
      <trkpt lat="32.387731" lon="129.992814"><ele>61.2</ele><time>2026-10-02T04:22:35Z</time></trkpt>
      <trkpt lat="32.388580" lon="129.994194"><ele>71.2</ele><time>2026-10-02T04:23:47Z</time></trkpt>
      <trkpt lat="32.388749" lon="129.994673"><ele>72.8</ele><time>2026-10-02T04:24:14Z</time></trkpt>
      <trkpt lat="32.388893" lon="129.994700"><ele>74.8</ele><time>2026-10-02T04:25:28Z</time></trkpt>
      <trkpt lat="32.388911" lon="129.994633"><ele>74.8</ele><time>2026-10-02T04:25:45Z</time></trkpt>
      <trkpt lat="32.388785" lon="129.994659"><ele>76.2</ele><time>2026-10-02T04:26:35Z</time></trkpt>
      <trkpt lat="32.389043" lon="129.995277"><ele>78.4</ele><time>2026-10-02T04:27:19Z</time></trkpt>
      <trkpt lat="32.389568" lon="129.996081"><ele>82.0</ele><time>2026-10-02T04:29:06Z</time></trkpt>
      <trkpt lat="32.389785" lon="129.996284"><ele>82.0</ele><time>2026-10-02T04:29:14Z</time></trkpt>
      <trkpt lat="32.389952" lon="129.996659"><ele>79.4</ele><time>2026-10-02T04:29:21Z</time></trkpt>
      <trkpt lat="32.389930" lon="129.997477"><ele>74.0</ele><time>2026-10-02T04:29:28Z</time></trkpt>
      <trkpt lat="32.389997" lon="129.997878"><ele>73.4</ele><time>2026-10-02T04:29:31Z</time></trkpt>
      <trkpt lat="32.389932" lon="129.998346"><ele>73.2</ele><time>2026-10-02T04:29:36Z</time></trkpt>
      <trkpt lat="32.389828" lon="129.998571"><ele>73.4</ele><time>2026-10-02T04:29:38Z</time></trkpt>
      <trkpt lat="32.389834" lon="129.998927"><ele>72.8</ele><time>2026-10-02T04:29:42Z</time></trkpt>
      <trkpt lat="32.390118" lon="129.999497"><ele>71.6</ele><time>2026-10-02T04:29:50Z</time></trkpt>
      <trkpt lat="32.390536" lon="129.999621"><ele>70.6</ele><time>2026-10-02T04:29:53Z</time></trkpt>
      <trkpt lat="32.391033" lon="129.999455"><ele>68.4</ele><time>2026-10-02T04:29:59Z</time></trkpt>
      <trkpt lat="32.391325" lon="129.999687"><ele>67.2</ele><time>2026-10-02T04:30:05Z</time></trkpt>
      <trkpt lat="32.392251" lon="129.999762"><ele>63.2</ele><time>2026-10-02T04:30:16Z</time></trkpt>
      <trkpt lat="32.392821" lon="129.999687"><ele>60.2</ele><time>2026-10-02T04:30:22Z</time></trkpt>
      <trkpt lat="32.393563" lon="129.999440"><ele>56.2</ele><time>2026-10-02T04:30:30Z</time></trkpt>
      <trkpt lat="32.394318" lon="129.999758"><ele>50.4</ele><time>2026-10-02T04:30:38Z</time></trkpt>
      <trkpt lat="32.394511" lon="129.999686"><ele>49.0</ele><time>2026-10-02T04:30:40Z</time></trkpt>
      <trkpt lat="32.395313" lon="129.999077"><ele>49.4</ele><time>2026-10-02T04:30:50Z</time></trkpt>
      <trkpt lat="32.396314" lon="129.998938"><ele>44.0</ele><time>2026-10-02T04:31:01Z</time></trkpt>
      <trkpt lat="32.396602" lon="129.999121"><ele>42.4</ele><time>2026-10-02T04:31:05Z</time></trkpt>
      <trkpt lat="32.396672" lon="129.999300"><ele>42.6</ele><time>2026-10-02T04:31:07Z</time></trkpt>
      <trkpt lat="32.396700" lon="129.999486"><ele>42.0</ele><time>2026-10-02T04:31:09Z</time></trkpt>
      <trkpt lat="32.396499" lon="130.000272"><ele>39.6</ele><time>2026-10-02T04:31:16Z</time></trkpt>
      <trkpt lat="32.396540" lon="130.000531"><ele>39.6</ele><time>2026-10-02T04:31:18Z</time></trkpt>
      <trkpt lat="32.396724" lon="130.000704"><ele>40.2</ele><time>2026-10-02T04:31:20Z</time></trkpt>
      <trkpt lat="32.396918" lon="130.000767"><ele>41.0</ele><time>2026-10-02T04:31:22Z</time></trkpt>
      <trkpt lat="32.397171" lon="130.000711"><ele>42.2</ele><time>2026-10-02T04:31:25Z</time></trkpt>
      <trkpt lat="32.397707" lon="130.000361"><ele>45.0</ele><time>2026-10-02T04:31:39Z</time></trkpt>
      <trkpt lat="32.398018" lon="130.000302"><ele>46.6</ele><time>2026-10-02T04:31:52Z</time></trkpt>
      <trkpt lat="32.399234" lon="130.000947"><ele>48.4</ele><time>2026-10-02T04:32:25Z</time></trkpt>
      <trkpt lat="32.399754" lon="130.001441"><ele>45.8</ele><time>2026-10-02T04:32:41Z</time></trkpt>
      <trkpt lat="32.400127" lon="130.001984"><ele>42.8</ele><time>2026-10-02T04:32:49Z</time></trkpt>
      <trkpt lat="32.400223" lon="130.002316"><ele>40.4</ele><time>2026-10-02T04:32:53Z</time></trkpt>
      <trkpt lat="32.400155" lon="130.002498"><ele>39.6</ele><time>2026-10-02T04:32:55Z</time></trkpt>
      <trkpt lat="32.399761" lon="130.002657"><ele>37.8</ele><time>2026-10-02T04:32:59Z</time></trkpt>
      <trkpt lat="32.399668" lon="130.002834"><ele>36.8</ele><time>2026-10-02T04:33:01Z</time></trkpt>
      <trkpt lat="32.399720" lon="130.003021"><ele>35.4</ele><time>2026-10-02T04:33:03Z</time></trkpt>
      <trkpt lat="32.400402" lon="130.003237"><ele>32.2</ele><time>2026-10-02T04:33:11Z</time></trkpt>
      <trkpt lat="32.400674" lon="130.003522"><ele>29.2</ele><time>2026-10-02T04:33:15Z</time></trkpt>
      <trkpt lat="32.400842" lon="130.003834"><ele>26.4</ele><time>2026-10-02T04:33:19Z</time></trkpt>
      <trkpt lat="32.400769" lon="130.003950"><ele>25.4</ele><time>2026-10-02T04:33:21Z</time></trkpt>
      <trkpt lat="32.400250" lon="130.003904"><ele>23.2</ele><time>2026-10-02T04:33:28Z</time></trkpt>
      <trkpt lat="32.399724" lon="130.004313"><ele>21.8</ele><time>2026-10-02T04:33:37Z</time></trkpt>
      <trkpt lat="32.399653" lon="130.004481"><ele>20.4</ele><time>2026-10-02T04:33:40Z</time></trkpt>
      <trkpt lat="32.399764" lon="130.004464"><ele>19.6</ele><time>2026-10-02T04:33:42Z</time></trkpt>
      <trkpt lat="32.400136" lon="130.004681"><ele>18.4</ele><time>2026-10-02T04:33:46Z</time></trkpt>
      <trkpt lat="32.400296" lon="130.005179"><ele>17.0</ele><time>2026-10-02T04:33:52Z</time></trkpt>
      <trkpt lat="32.400132" lon="130.005620"><ele>15.6</ele><time>2026-10-02T04:33:58Z</time></trkpt>
      <trkpt lat="32.399651" lon="130.006085"><ele>12.8</ele><time>2026-10-02T04:34:06Z</time></trkpt>
      <trkpt lat="32.398907" lon="130.007555"><ele>11.8</ele><time>2026-10-02T04:34:24Z</time></trkpt>
      <trkpt lat="32.398914" lon="130.007721"><ele>12.2</ele><time>2026-10-02T04:34:26Z</time></trkpt>
      <trkpt lat="32.399341" lon="130.008802"><ele>12.0</ele><time>2026-10-02T04:34:41Z</time></trkpt>
      <trkpt lat="32.399518" lon="130.009143"><ele>12.4</ele><time>2026-10-02T04:34:46Z</time></trkpt>
      <trkpt lat="32.399637" lon="130.009224"><ele>12.6</ele><time>2026-10-02T04:34:48Z</time></trkpt>
      <trkpt lat="32.400094" lon="130.009184"><ele>14.2</ele><time>2026-10-02T04:34:56Z</time></trkpt>
      <trkpt lat="32.400536" lon="130.008890"><ele>17.0</ele><time>2026-10-02T04:35:08Z</time></trkpt>
      <trkpt lat="32.400717" lon="130.008615"><ele>18.6</ele><time>2026-10-02T04:35:15Z</time></trkpt>
      <trkpt lat="32.400823" lon="130.007990"><ele>21.4</ele><time>2026-10-02T04:35:39Z</time></trkpt>
      <trkpt lat="32.400938" lon="130.007798"><ele>23.2</ele><time>2026-10-02T04:35:56Z</time></trkpt>
      <trkpt lat="32.401098" lon="130.007740"><ele>24.4</ele><time>2026-10-02T04:36:06Z</time></trkpt>
      <trkpt lat="32.401843" lon="130.007983"><ele>29.8</ele><time>2026-10-02T04:36:57Z</time></trkpt>
      <trkpt lat="32.402170" lon="130.007985"><ele>31.8</ele><time>2026-10-02T04:37:16Z</time></trkpt>
      <trkpt lat="32.402282" lon="130.007879"><ele>32.4</ele><time>2026-10-02T04:37:24Z</time></trkpt>
      <trkpt lat="32.401911" lon="130.006741"><ele>40.4</ele><time>2026-10-02T04:38:30Z</time></trkpt>
      <trkpt lat="32.401584" lon="130.006462"><ele>40.6</ele><time>2026-10-02T04:38:45Z</time></trkpt>
      <trkpt lat="32.401440" lon="130.006114"><ele>38.6</ele><time>2026-10-02T04:38:50Z</time></trkpt>
      <trkpt lat="32.401510" lon="130.005947"><ele>37.8</ele><time>2026-10-02T04:38:52Z</time></trkpt>
      <trkpt lat="32.401748" lon="130.005814"><ele>36.4</ele><time>2026-10-02T04:38:55Z</time></trkpt>
      <trkpt lat="32.402275" lon="130.005925"><ele>36.2</ele><time>2026-10-02T04:39:01Z</time></trkpt>
      <trkpt lat="32.402481" lon="130.005772"><ele>35.8</ele><time>2026-10-02T04:39:04Z</time></trkpt>
      <trkpt lat="32.402750" lon="130.005309"><ele>34.8</ele><time>2026-10-02T04:39:10Z</time></trkpt>
      <trkpt lat="32.403307" lon="130.005148"><ele>35.8</ele><time>2026-10-02T04:39:19Z</time></trkpt>
      <trkpt lat="32.403736" lon="130.005192"><ele>37.2</ele><time>2026-10-02T04:39:28Z</time></trkpt>
      <trkpt lat="32.407650" lon="130.007457"><ele>50.2</ele><time>2026-10-02T04:41:54Z</time></trkpt>
      <trkpt lat="32.408263" lon="130.007747"><ele>51.2</ele><time>2026-10-02T04:42:23Z</time></trkpt>
      <trkpt lat="32.408467" lon="130.007700"><ele>51.0</ele><time>2026-10-02T04:42:34Z</time></trkpt>
      <trkpt lat="32.408519" lon="130.007848"><ele>50.8</ele><time>2026-10-02T04:42:39Z</time></trkpt>
      <trkpt lat="32.408871" lon="130.008063"><ele>50.6</ele><time>2026-10-02T04:42:53Z</time></trkpt>
      <trkpt lat="32.408784" lon="130.008235"><ele>52.0</ele><time>2026-10-02T04:43:30Z</time></trkpt>
      <trkpt lat="32.408860" lon="130.008142"><ele>51.2</ele><time>2026-10-02T04:43:44Z</time></trkpt>
      <trkpt lat="32.409012" lon="130.008150"><ele>50.4</ele><time>2026-10-02T04:43:58Z</time></trkpt>
      <trkpt lat="32.408773" lon="130.007929"><ele>51.4</ele><time>2026-10-02T04:44:36Z</time></trkpt>
      <trkpt lat="32.408813" lon="130.007724"><ele>50.6</ele><time>2026-10-02T04:44:56Z</time></trkpt>
      <trkpt lat="32.408604" lon="130.007575"><ele>51.0</ele><time>2026-10-02T04:45:31Z</time></trkpt>
      <trkpt lat="32.408500" lon="130.007600"><ele>50.8</ele><time>2026-10-02T04:46:37Z</time></trkpt>
      <trkpt lat="32.408816" lon="130.008078"><ele>49.6</ele><time>2026-10-02T04:48:03Z</time></trkpt>
      <trkpt lat="32.408944" lon="130.007937"><ele>48.6</ele><time>2026-10-02T04:49:00Z</time></trkpt>
      <trkpt lat="32.408817" lon="130.008000"><ele>47.4</ele><time>2026-10-02T04:49:14Z</time></trkpt>
      <trkpt lat="32.409037" lon="130.008192"><ele>47.8</ele><time>2026-10-02T04:49:26Z</time></trkpt>
      <trkpt lat="32.409516" lon="130.008435"><ele>47.2</ele><time>2026-10-02T04:49:38Z</time></trkpt>
      <trkpt lat="32.410081" lon="130.008593"><ele>46.2</ele><time>2026-10-02T04:49:49Z</time></trkpt>
      <trkpt lat="32.415409" lon="130.003941"><ele>33.2</ele><time>2026-10-02T04:51:21Z</time></trkpt>
      <trkpt lat="32.415852" lon="130.003624"><ele>31.6</ele><time>2026-10-02T04:51:30Z</time></trkpt>
      <trkpt lat="32.416159" lon="130.003563"><ele>30.8</ele><time>2026-10-02T04:51:36Z</time></trkpt>
      <trkpt lat="32.416541" lon="130.003565"><ele>29.8</ele><time>2026-10-02T04:51:44Z</time></trkpt>
      <trkpt lat="32.417307" lon="130.003880"><ele>27.6</ele><time>2026-10-02T04:52:00Z</time></trkpt>
      <trkpt lat="32.418068" lon="130.003778"><ele>24.4</ele><time>2026-10-02T04:52:17Z</time></trkpt>
      <trkpt lat="32.419138" lon="130.004423"><ele>21.2</ele><time>2026-10-02T04:52:36Z</time></trkpt>
      <trkpt lat="32.419399" lon="130.004432"><ele>20.2</ele><time>2026-10-02T04:52:39Z</time></trkpt>
      <trkpt lat="32.419913" lon="130.004062"><ele>19.6</ele><time>2026-10-02T04:52:46Z</time></trkpt>
      <trkpt lat="32.420307" lon="130.004010"><ele>19.4</ele><time>2026-10-02T04:52:53Z</time></trkpt>
      <trkpt lat="32.420513" lon="130.004349"><ele>17.8</ele><time>2026-10-02T04:52:57Z</time></trkpt>
      <trkpt lat="32.421324" lon="130.004721"><ele>15.4</ele><time>2026-10-02T04:53:12Z</time></trkpt>
      <trkpt lat="32.421532" lon="130.004506"><ele>13.2</ele><time>2026-10-02T04:53:18Z</time></trkpt>
      <trkpt lat="32.421702" lon="130.004443"><ele>13.6</ele><time>2026-10-02T04:53:22Z</time></trkpt>
      <trkpt lat="32.421996" lon="130.004799"><ele>13.2</ele><time>2026-10-02T04:53:30Z</time></trkpt>
      <trkpt lat="32.422294" lon="130.004984"><ele>11.0</ele><time>2026-10-02T04:53:36Z</time></trkpt>
      <trkpt lat="32.422659" lon="130.005383"><ele>9.2</ele><time>2026-10-02T04:53:45Z</time></trkpt>
      <trkpt lat="32.423699" lon="130.006218"><ele>7.6</ele><time>2026-10-02T04:54:09Z</time></trkpt>
    </trkseg>
  </trk>
</gpx>
