<?xml version="1.0" encoding="UTF-8"?>
<gpx version="1.1" creator="gpx2reel" xmlns="http://www.topografix.com/GPX/1/1">
  <trk><name>Day 11</name>
    <trkseg>
      <trkpt lat="32.457880" lon="130.031098"><ele>8.8</ele><time>2026-10-03T01:10:08Z</time></trkpt>
      <trkpt lat="32.459346" lon="130.031906"><ele>9.8</ele><time>2026-10-03T01:10:56Z</time></trkpt>
      <trkpt lat="32.460441" lon="130.032123"><ele>9.2</ele><time>2026-10-03T01:11:25Z</time></trkpt>
      <trkpt lat="32.461013" lon="130.032362"><ele>8.8</ele><time>2026-10-03T01:11:40Z</time></trkpt>
      <trkpt lat="32.462641" lon="130.034058"><ele>8.2</ele><time>2026-10-03T01:12:34Z</time></trkpt>
      <trkpt lat="32.465093" lon="130.037205"><ele>8.2</ele><time>2026-10-03T01:13:53Z</time></trkpt>
      <trkpt lat="32.465854" lon="130.037963"><ele>8.4</ele><time>2026-10-03T01:14:13Z</time></trkpt>
      <trkpt lat="32.466382" lon="130.038173"><ele>8.2</ele><time>2026-10-03T01:14:24Z</time></trkpt>
      <trkpt lat="32.466813" lon="130.038184"><ele>8.2</ele><time>2026-10-03T01:14:32Z</time></trkpt>
      <trkpt lat="32.469340" lon="130.037510"><ele>6.2</ele><time>2026-10-03T01:15:17Z</time></trkpt>
      <trkpt lat="32.469924" lon="130.037571"><ele>5.4</ele><time>2026-10-03T01:15:27Z</time></trkpt>
      <trkpt lat="32.471194" lon="130.038115"><ele>5.2</ele><time>2026-10-03T01:15:51Z</time></trkpt>
      <trkpt lat="32.472487" lon="130.038384"><ele>5.4</ele><time>2026-10-03T01:16:16Z</time></trkpt>
      <trkpt lat="32.474034" lon="130.039252"><ele>7.6</ele><time>2026-10-03T01:16:52Z</time></trkpt>
      <trkpt lat="32.475408" lon="130.039386"><ele>7.8</ele><time>2026-10-03T01:17:23Z</time></trkpt>
      <trkpt lat="32.477780" lon="130.040714"><ele>6.4</ele><time>2026-10-03T01:18:12Z</time></trkpt>
      <trkpt lat="32.479877" lon="130.041556"><ele>6.8</ele><time>2026-10-03T01:18:56Z</time></trkpt>
      <trkpt lat="32.482271" lon="130.042283"><ele>8.2</ele><time>2026-10-03T01:19:49Z</time></trkpt>
      <trkpt lat="32.482852" lon="130.042765"><ele>8.4</ele><time>2026-10-03T01:20:08Z</time></trkpt>
      <trkpt lat="32.484523" lon="130.045448"><ele>10.4</ele><time>2026-10-03T01:21:16Z</time></trkpt>
      <trkpt lat="32.484880" lon="130.045769"><ele>10.0</ele><time>2026-10-03T01:21:26Z</time></trkpt>
      <trkpt lat="32.486477" lon="130.046590"><ele>7.4</ele><time>2026-10-03T01:21:57Z</time></trkpt>
      <trkpt lat="32.488005" lon="130.047069"><ele>11.0</ele><time>2026-10-03T01:22:37Z</time></trkpt>
      <trkpt lat="32.488398" lon="130.047126"><ele>11.2</ele><time>2026-10-03T01:22:49Z</time></trkpt>
      <trkpt lat="32.489538" lon="130.046985"><ele>9.8</ele><time>2026-10-03T01:23:14Z</time></trkpt>
      <trkpt lat="32.490245" lon="130.047172"><ele>9.8</ele><time>2026-10-03T01:23:26Z</time></trkpt>
      <trkpt lat="32.490863" lon="130.047777"><ele>12.0</ele><time>2026-10-03T01:23:44Z</time></trkpt>
      <trkpt lat="32.491533" lon="130.049332"><ele>17.4</ele><time>2026-10-03T01:24:32Z</time></trkpt>
      <trkpt lat="32.492411" lon="130.050162"><ele>20.0</ele><time>2026-10-03T01:25:13Z</time></trkpt>
      <trkpt lat="32.492779" lon="130.050332"><ele>19.6</ele><time>2026-10-03T01:25:23Z</time></trkpt>
      <trkpt lat="32.493178" lon="130.050440"><ele>19.2</ele><time>2026-10-03T01:25:32Z</time></trkpt>
      <trkpt lat="32.494779" lon="130.050210"><ele>15.0</ele><time>2026-10-03T01:25:58Z</time></trkpt>
      <trkpt lat="32.496059" lon="130.049413"><ele>12.8</ele><time>2026-10-03T01:26:22Z</time></trkpt>
      <trkpt lat="32.496454" lon="130.049519"><ele>12.0</ele><time>2026-10-03T01:26:29Z</time></trkpt>
      <trkpt lat="32.504855" lon="130.050374"><ele>7.2</ele><time>2026-10-03T01:29:21Z</time></trkpt>
      <trkpt lat="32.509411" lon="130.051820"><ele>7.2</ele><time>2026-10-03T01:31:37Z</time></trkpt>
      <trkpt lat="32.509850" lon="130.052856"><ele>8.4</ele><time>2026-10-03T01:32:08Z</time></trkpt>
      <trkpt lat="32.510270" lon="130.052876"><ele>8.0</ele><time>2026-10-03T01:32:17Z</time></trkpt>
      <trkpt lat="32.510938" lon="130.053106"><ele>7.8</ele><time>2026-10-03T01:32:32Z</time></trkpt>
      <trkpt lat="32.512146" lon="130.054129"><ele>8.4</ele><time>2026-10-03T01:33:08Z</time></trkpt>
      <trkpt lat="32.512240" lon="130.054715"><ele>9.8</ele><time>2026-10-03T01:33:21Z</time></trkpt>
      <trkpt lat="32.511945" lon="130.054871"><ele>10.8</ele><time>2026-10-03T01:33:29Z</time></trkpt>
      <trkpt lat="32.512724" lon="130.055905"><ele>11.0</ele><time>2026-10-03T01:33:58Z</time></trkpt>
      <trkpt lat="32.513120" lon="130.056788"><ele>10.8</ele><time>2026-10-03T01:34:18Z</time></trkpt>
      <trkpt lat="32.514261" lon="130.060580"><ele>17.4</ele><time>2026-10-03T01:35:47Z</time></trkpt>
      <trkpt lat="32.515038" lon="130.063227"><ele>9.0</ele><time>2026-10-03T01:36:22Z</time></trkpt>
      <trkpt lat="32.515129" lon="130.063828"><ele>7.8</ele><time>2026-10-03T01:36:28Z</time></trkpt>
      <trkpt lat="32.515200" lon="130.066442"><ele>15.0</ele><time>2026-10-03T01:37:17Z</time></trkpt>
      <trkpt lat="32.515574" lon="130.067646"><ele>18.4</ele><time>2026-10-03T01:37:55Z</time></trkpt>
      <trkpt lat="32.515955" lon="130.068281"><ele>19.2</ele><time>2026-10-03T01:38:19Z</time></trkpt>
      <trkpt lat="32.516520" lon="130.068937"><ele>19.0</ele><time>2026-10-03T01:38:42Z</time></trkpt>
      <trkpt lat="32.517653" lon="130.069638"><ele>18.6</ele><time>2026-10-03T01:39:10Z</time></trkpt>
      <trkpt lat="32.518473" lon="130.070042"><ele>18.6</ele><time>2026-10-03T01:39:29Z</time></trkpt>
      <trkpt lat="32.519815" lon="130.070907"><ele>14.4</ele><time>2026-10-03T01:39:52Z</time></trkpt>
      <trkpt lat="32.520436" lon="130.071361"><ele>10.8</ele><time>2026-10-03T01:40:00Z</time></trkpt>
      <trkpt lat="32.520832" lon="130.071863"><ele>8.0</ele><time>2026-10-03T01:40:06Z</time></trkpt>
      <trkpt lat="32.521060" lon="130.072441"><ele>7.6</ele><time>2026-10-03T01:40:12Z</time></trkpt>
      <trkpt lat="32.522082" lon="130.076736"><ele>5.2</ele><time>2026-10-03T01:41:13Z</time></trkpt>
      <trkpt lat="32.522385" lon="130.077453"><ele>5.0</ele><time>2026-10-03T01:41:27Z</time></trkpt>
      <trkpt lat="32.523218" lon="130.078787"><ele>5.6</ele><time>2026-10-03T01:41:55Z</time></trkpt>
      <trkpt lat="32.523582" lon="130.079695"><ele>5.6</ele><time>2026-10-03T01:42:13Z</time></trkpt>
      <trkpt lat="32.523697" lon="130.080584"><ele>6.0</ele><time>2026-10-03T01:42:29Z</time></trkpt>
      <trkpt lat="32.523720" lon="130.082125"><ele>5.2</ele><time>2026-10-03T01:42:58Z</time></trkpt>
      <trkpt lat="32.523931" lon="130.083138"><ele>8.0</ele><time>2026-10-03T01:43:25Z</time></trkpt>
      <trkpt lat="32.524202" lon="130.083700"><ele>10.8</ele><time>2026-10-03T01:43:49Z</time></trkpt>
      <trkpt lat="32.526336" lon="130.087659"><ele>5.4</ele><time>2026-10-03T01:45:06Z</time></trkpt>
      <trkpt lat="32.526700" lon="130.088067"><ele>5.0</ele><time>2026-10-03T01:45:14Z</time></trkpt>
      <trkpt lat="32.527589" lon="130.088533"><ele>4.8</ele><time>2026-10-03T01:45:31Z</time></trkpt>
      <trkpt lat="32.527952" lon="130.088947"><ele>4.8</ele><time>2026-10-03T01:45:41Z</time></trkpt>
      <trkpt lat="32.528469" lon="130.091075"><ele>4.8</ele><time>2026-10-03T01:46:18Z</time></trkpt>
      <trkpt lat="32.529048" lon="130.092230"><ele>5.4</ele><time>2026-10-03T01:46:41Z</time></trkpt>
      <trkpt lat="32.530305" lon="130.093709"><ele>5.6</ele><time>2026-10-03T01:47:16Z</time></trkpt>
      <trkpt lat="32.531089" lon="130.094800"><ele>6.0</ele><time>2026-10-03T01:47:41Z</time></trkpt>
      <trkpt lat="32.532161" lon="130.096005"><ele>5.6</ele><time>2026-10-03T01:48:13Z</time></trkpt>
      <trkpt lat="32.532459" lon="130.096231"><ele>5.2</ele><time>2026-10-03T01:48:20Z</time></trkpt>
      <trkpt lat="32.533464" lon="130.096720"><ele>6.0</ele><time>2026-10-03T01:48:43Z</time></trkpt>
      <trkpt lat="32.533946" lon="130.097213"><ele>5.8</ele><time>2026-10-03T01:48:57Z</time></trkpt>
      <trkpt lat="32.534471" lon="130.098442"><ele>6.4</ele><time>2026-10-03T01:49:22Z</time></trkpt>
      <trkpt lat="32.534874" lon="130.100009"><ele>6.0</ele><time>2026-10-03T01:49:51Z</time></trkpt>
      <trkpt lat="32.535628" lon="130.101980"><ele>6.2</ele><time>2026-10-03T01:50:26Z</time></trkpt>
      <trkpt lat="32.536695" lon="130.103511"><ele>5.6</ele><time>2026-10-03T01:51:02Z</time></trkpt>
      <trkpt lat="32.537808" lon="130.104393"><ele>5.6</ele><time>2026-10-03T01:51:32Z</time></trkpt>
      <trkpt lat="32.538130" lon="130.105069"><ele>6.0</ele><time>2026-10-03T01:51:47Z</time></trkpt>
      <trkpt lat="32.538588" lon="130.106743"><ele>6.0</ele><time>2026-10-03T01:52:17Z</time></trkpt>
      <trkpt lat="32.539180" lon="130.108075"><ele>6.2</ele><time>2026-10-03T01:52:44Z</time></trkpt>
      <trkpt lat="32.539394" lon="130.109374"><ele>5.0</ele><time>2026-10-03T01:53:06Z</time></trkpt>
      <trkpt lat="32.539844" lon="130.110567"><ele>5.6</ele><time>2026-10-03T01:53:30Z</time></trkpt>
      <trkpt lat="32.539821" lon="130.112121"><ele>6.6</ele><time>2026-10-03T01:54:03Z</time></trkpt>
      <trkpt lat="32.539907" lon="130.112739"><ele>6.6</ele><time>2026-10-03T01:54:15Z</time></trkpt>
      <trkpt lat="32.540566" lon="130.114822"><ele>10.6</ele><time>2026-10-03T01:55:10Z</time></trkpt>
      <trkpt lat="32.540479" lon="130.114909"><ele>10.6</ele><time>2026-10-03T01:55:41Z</time></trkpt>
      <trkpt lat="32.540617" lon="130.115058"><ele>10.8</ele><time>2026-10-03T01:57:22Z</time></trkpt>
      <trkpt lat="32.541070" lon="130.116328"><ele>14.0</ele><time>2026-10-03T01:58:02Z</time></trkpt>
      <trkpt lat="32.541274" lon="130.116563"><ele>14.6</ele><time>2026-10-03T01:58:10Z</time></trkpt>
      <trkpt lat="32.542350" lon="130.117208"><ele>15.4</ele><time>2026-10-03T01:58:49Z</time></trkpt>
      <trkpt lat="32.544540" lon="130.119481"><ele>14.4</ele><time>2026-10-03T02:00:05Z</time></trkpt>
      <trkpt lat="32.545031" lon="130.120323"><ele>12.0</ele><time>2026-10-03T02:00:17Z</time></trkpt>
      <trkpt lat="32.545472" lon="130.121604"><ele>11.0</ele><time>2026-10-03T02:00:34Z</time></trkpt>
      <trkpt lat="32.545590" lon="130.122119"><ele>11.2</ele><time>2026-10-03T02:00:42Z</time></trkpt>
      <trkpt lat="32.545656" lon="130.123231"><ele>8.6</ele><time>2026-10-03T02:00:56Z</time></trkpt>
      <trkpt lat="32.545387" lon="130.125052"><ele>4.6</ele><time>2026-10-03T02:01:17Z</time></trkpt>
      <trkpt lat="32.545354" lon="130.125903"><ele>4.8</ele><time>2026-10-03T02:01:30Z</time></trkpt>
      <trkpt lat="32.545822" lon="130.127915"><ele>5.2</ele><time>2026-10-03T02:02:05Z</time></trkpt>
      <trkpt lat="32.545802" lon="130.128326"><ele>5.2</ele><time>2026-10-03T02:02:13Z</time></trkpt>
      <trkpt lat="32.545445" lon="130.129506"><ele>5.0</ele><time>2026-10-03T02:02:36Z</time></trkpt>
      <trkpt lat="32.545324" lon="130.130229"><ele>5.0</ele><time>2026-10-03T02:02:49Z</time></trkpt>
      <trkpt lat="32.545528" lon="130.132858"><ele>13.2</ele><time>2026-10-03T02:04:03Z</time></trkpt>
      <trkpt lat="32.545790" lon="130.135585"><ele>7.8</ele><time>2026-10-03T02:05:03Z</time></trkpt>
      <trkpt lat="32.546109" lon="130.137540"><ele>5.2</ele><time>2026-10-03T02:05:29Z</time></trkpt>
      <trkpt lat="32.546249" lon="130.137942"><ele>4.8</ele><time>2026-10-03T02:05:36Z</time></trkpt>
      <trkpt lat="32.546487" lon="130.138341"><ele>5.0</ele><time>2026-10-03T02:05:44Z</time></trkpt>
      <trkpt lat="32.547133" lon="130.139100"><ele>7.4</ele><time>2026-10-03T02:06:03Z</time></trkpt>
      <trkpt lat="32.547295" lon="130.139392"><ele>7.4</ele><time>2026-10-03T02:06:11Z</time></trkpt>
      <trkpt lat="32.547463" lon="130.139964"><ele>6.8</ele><time>2026-10-03T02:06:23Z</time></trkpt>
      <trkpt lat="32.548086" lon="130.145565"><ele>6.8</ele><time>2026-10-03T02:08:13Z</time></trkpt>
      <trkpt lat="32.548502" lon="130.146606"><ele>6.6</ele><time>2026-10-03T02:08:33Z</time></trkpt>
      <trkpt lat="32.549295" lon="130.147324"><ele>10.8</ele><time>2026-10-03T02:08:57Z</time></trkpt>
      <trkpt lat="32.549564" lon="130.147819"><ele>11.2</ele><time>2026-10-03T02:09:12Z</time></trkpt>
      <trkpt lat="32.549548" lon="130.152339"><ele>10.2</ele><time>2026-10-03T02:10:29Z</time></trkpt>
      <trkpt lat="32.549266" lon="130.154020"><ele>11.2</ele><time>2026-10-03T02:11:07Z</time></trkpt>
      <trkpt lat="32.549237" lon="130.154567"><ele>9.4</ele><time>2026-10-03T02:11:14Z</time></trkpt>
      <trkpt lat="32.549536" lon="130.156138"><ele>6.8</ele><time>2026-10-03T02:11:34Z</time></trkpt>
      <trkpt lat="32.549913" lon="130.159774"><ele>5.2</ele><time>2026-10-03T02:13:33Z</time></trkpt>
      <trkpt lat="32.550479" lon="130.161675"><ele>6.0</ele><time>2026-10-03T02:14:16Z</time></trkpt>
      <trkpt lat="32.550373" lon="130.162304"><ele>5.2</ele><time>2026-10-03T02:14:29Z</time></trkpt>
      <trkpt lat="32.549605" lon="130.164727"><ele>5.4</ele><time>2026-10-03T02:15:17Z</time></trkpt>
      <trkpt lat="32.549470" lon="130.165890"><ele>5.8</ele><time>2026-10-03T02:15:39Z</time></trkpt>
      <trkpt lat="32.549500" lon="130.166701"><ele>6.2</ele><time>2026-10-03T02:15:54Z</time></trkpt>
      <trkpt lat="32.549671" lon="130.167812"><ele>6.0</ele><time>2026-10-03T02:16:16Z</time></trkpt>
      <trkpt lat="32.550285" lon="130.170318"><ele>6.0</ele><time>2026-10-03T02:17:05Z</time></trkpt>
      <trkpt lat="32.550170" lon="130.172005"><ele>6.2</ele><time>2026-10-03T02:17:36Z</time></trkpt>
      <trkpt lat="32.550434" lon="130.174495"><ele>8.8</ele><time>2026-10-03T02:18:34Z</time></trkpt>
      <trkpt lat="32.550372" lon="130.174918"><ele>9.4</ele><time>2026-10-03T02:18:45Z</time></trkpt>
      <trkpt lat="32.549846" lon="130.176367"><ele>7.2</ele><time>2026-10-03T02:19:14Z</time></trkpt>
      <trkpt lat="32.549791" lon="130.177226"><ele>6.8</ele><time>2026-10-03T02:19:25Z</time></trkpt>
      <trkpt lat="32.549817" lon="130.179903"><ele>9.0</ele><time>2026-10-03T02:20:12Z</time></trkpt>
      <trkpt lat="32.549606" lon="130.180494"><ele>11.2</ele><time>2026-10-03T02:20:31Z</time></trkpt>
      <trkpt lat="32.548699" lon="130.182031"><ele>8.4</ele><time>2026-10-03T02:21:01Z</time></trkpt>
      <trkpt lat="32.548014" lon="130.183616"><ele>6.6</ele><time>2026-10-03T02:21:30Z</time></trkpt>
      <trkpt lat="32.547758" lon="130.185536"><ele>5.0</ele><time>2026-10-03T02:21:59Z</time></trkpt>
      <trkpt lat="32.547667" lon="130.185793"><ele>5.0</ele><time>2026-10-03T02:22:04Z</time></trkpt>
      <trkpt lat="32.547530" lon="130.185937"><ele>5.4</ele><time>2026-10-03T02:22:08Z</time></trkpt>
      <trkpt lat="32.547538" lon="130.186504"><ele>4.8</ele><time>2026-10-03T02:22:19Z</time></trkpt>
      <trkpt lat="32.546732" lon="130.186765"><ele>5.4</ele><time>2026-10-03T02:22:41Z</time></trkpt>
      <trkpt lat="32.546702" lon="130.186883"><ele>5.0</ele><time>2026-10-03T02:22:45Z</time></trkpt>
      <trkpt lat="32.546827" lon="130.186862"><ele>5.0</ele><time>2026-10-03T02:23:06Z</time></trkpt>
      <trkpt lat="32.546816" lon="130.187008"><ele>5.0</ele><time>2026-10-03T02:24:13Z</time></trkpt>
      <trkpt lat="32.546889" lon="130.187092"><ele>5.0</ele><time>2026-10-03T02:24:46Z</time></trkpt>
      <trkpt lat="32.546759" lon="130.186924"><ele>5.0</ele><time>2026-10-03T02:28:18Z</time></trkpt>
      <trkpt lat="32.546770" lon="130.186986"><ele>5.0</ele><time>2026-10-03T02:29:00Z</time></trkpt>
      <trkpt lat="32.546900" lon="130.186829"><ele>5.4</ele><time>2026-10-03T02:29:35Z</time></trkpt>
      <trkpt lat="32.546894" lon="130.186731"><ele>5.8</ele><time>2026-10-03T02:30:18Z</time></trkpt>
      <trkpt lat="32.546823" lon="130.186680"><ele>6.2</ele><time>2026-10-03T02:31:20Z</time></trkpt>
      <trkpt lat="32.546694" lon="130.186832"><ele>6.2</ele><time>2026-10-03T02:32:32Z</time></trkpt>
      <trkpt lat="32.546781" lon="130.186907"><ele>6.2</ele><time>2026-10-03T02:33:00Z</time></trkpt>
      <trkpt lat="32.546902" lon="130.186710"><ele>6.8</ele><time>2026-10-03T02:33:35Z</time></trkpt>
      <trkpt lat="32.546767" lon="130.186878"><ele>7.2</ele><time>2026-10-03T02:33:59Z</time></trkpt>
      <trkpt lat="32.546726" lon="130.186805"><ele>7.0</ele><time>2026-10-03T02:34:37Z</time></trkpt>
      <trkpt lat="32.546738" lon="130.186892"><ele>7.4</ele><time>2026-10-03T02:35:05Z</time></trkpt>
      <trkpt lat="32.546806" lon="130.186867"><ele>6.0</ele><time>2026-10-03T02:35:26Z</time></trkpt>
      <trkpt lat="32.546678" lon="130.186776"><ele>6.2</ele><time>2026-10-03T02:35:34Z</time></trkpt>
      <trkpt lat="32.546555" lon="130.187004"><ele>6.4</ele><time>2026-10-03T02:36:10Z</time></trkpt>
      <trkpt lat="32.546523" lon="130.187266"><ele>5.6</ele><time>2026-10-03T02:36:25Z</time></trkpt>
      <trkpt lat="32.546441" lon="130.187330"><ele>5.2</ele><time>2026-10-03T02:36:45Z</time></trkpt>
      <trkpt lat="32.546529" lon="130.187313"><ele>6.0</ele><time>2026-10-03T02:37:16Z</time></trkpt>
      <trkpt lat="32.546459" lon="130.187357"><ele>6.4</ele><time>2026-10-03T02:37:29Z</time></trkpt>
      <trkpt lat="32.546660" lon="130.187458"><ele>10.0</ele><time>2026-10-03T02:37:53Z</time></trkpt>
      <trkpt lat="32.546438" lon="130.187599"><ele>9.2</ele><time>2026-10-03T02:38:32Z</time></trkpt>
    </trkseg>
    <trkseg>
      <trkpt lat="32.608929" lon="130.185156"><ele>11.8</ele><time>2026-10-03T03:20:07Z</time></trkpt>
      <trkpt lat="32.609801" lon="130.185348"><ele>11.8</ele><time>2026-10-03T03:20:31Z</time></trkpt>
      <trkpt lat="32.610259" lon="130.185356"><ele>11.8</ele><time>2026-10-03T03:20:43Z</time></trkpt>
      <trkpt lat="32.611417" lon="130.186401"><ele>11.4</ele><time>2026-10-03T03:21:26Z</time></trkpt>
      <trkpt lat="32.611726" lon="130.186559"><ele>11.8</ele><time>2026-10-03T03:21:34Z</time></trkpt>
      <trkpt lat="32.612027" lon="130.186962"><ele>11.8</ele><time>2026-10-03T03:21:45Z</time></trkpt>
      <trkpt lat="32.612139" lon="130.187293"><ele>12.0</ele><time>2026-10-03T03:21:52Z</time></trkpt>
      <trkpt lat="32.612190" lon="130.188001"><ele>12.2</ele><time>2026-10-03T03:22:05Z</time></trkpt>
      <trkpt lat="32.612082" lon="130.188452"><ele>12.0</ele><time>2026-10-03T03:22:14Z</time></trkpt>
      <trkpt lat="32.612100" lon="130.188570"><ele>11.6</ele><time>2026-10-03T03:22:17Z</time></trkpt>
      <trkpt lat="32.612203" lon="130.188628"><ele>11.6</ele><time>2026-10-03T03:22:20Z</time></trkpt>
      <trkpt lat="32.612193" lon="130.188728"><ele>12.0</ele><time>2026-10-03T03:22:24Z</time></trkpt>
      <trkpt lat="32.611992" lon="130.188783"><ele>12.2</ele><time>2026-10-03T03:22:28Z</time></trkpt>
      <trkpt lat="32.611907" lon="130.188932"><ele>11.8</ele><time>2026-10-03T03:22:31Z</time></trkpt>
      <trkpt lat="32.610754" lon="130.191991"><ele>12.2</ele><time>2026-10-03T03:23:37Z</time></trkpt>
      <trkpt lat="32.610475" lon="130.192941"><ele>11.8</ele><time>2026-10-03T03:23:53Z</time></trkpt>
      <trkpt lat="32.610391" lon="130.193905"><ele>12.0</ele><time>2026-10-03T03:24:10Z</time></trkpt>
      <trkpt lat="32.610543" lon="130.196362"><ele>11.4</ele><time>2026-10-03T03:24:54Z</time></trkpt>
      <trkpt lat="32.609704" lon="130.200706"><ele>13.4</ele><time>2026-10-03T03:26:21Z</time></trkpt>
      <trkpt lat="32.609221" lon="130.201512"><ele>13.8</ele><time>2026-10-03T03:26:40Z</time></trkpt>
      <trkpt lat="32.608216" lon="130.202383"><ele>13.2</ele><time>2026-10-03T03:27:05Z</time></trkpt>
      <trkpt lat="32.607520" lon="130.202732"><ele>13.2</ele><time>2026-10-03T03:27:20Z</time></trkpt>
      <trkpt lat="32.606553" lon="130.203025"><ele>14.2</ele><time>2026-10-03T03:27:40Z</time></trkpt>
      <trkpt lat="32.605881" lon="130.203606"><ele>16.6</ele><time>2026-10-03T03:27:58Z</time></trkpt>
      <trkpt lat="32.605626" lon="130.204036"><ele>16.2</ele><time>2026-10-03T03:28:08Z</time></trkpt>
      <trkpt lat="32.605433" lon="130.204629"><ele>15.6</ele><time>2026-10-03T03:28:19Z</time></trkpt>
      <trkpt lat="32.604688" lon="130.207442"><ele>17.8</ele><time>2026-10-03T03:29:11Z</time></trkpt>
      <trkpt lat="32.604688" lon="130.207797"><ele>18.6</ele><time>2026-10-03T03:29:20Z</time></trkpt>
      <trkpt lat="32.604783" lon="130.208138"><ele>18.6</ele><time>2026-10-03T03:29:29Z</time></trkpt>
      <trkpt lat="32.605887" lon="130.209536"><ele>14.8</ele><time>2026-10-03T03:30:05Z</time></trkpt>
      <trkpt lat="32.606374" lon="130.211111"><ele>15.0</ele><time>2026-10-03T03:30:34Z</time></trkpt>
      <trkpt lat="32.606393" lon="130.211519"><ele>14.6</ele><time>2026-10-03T03:30:42Z</time></trkpt>
      <trkpt lat="32.605588" lon="130.217091"><ele>16.0</ele><time>2026-10-03T03:32:47Z</time></trkpt>
      <trkpt lat="32.605563" lon="130.218117"><ele>16.6</ele><time>2026-10-03T03:33:47Z</time></trkpt>
      <trkpt lat="32.605749" lon="130.219125"><ele>16.2</ele><time>2026-10-03T03:34:10Z</time></trkpt>
      <trkpt lat="32.605954" lon="130.219719"><ele>16.6</ele><time>2026-10-03T03:34:25Z</time></trkpt>
      <trkpt lat="32.607356" lon="130.222488"><ele>16.8</ele><time>2026-10-03T03:35:32Z</time></trkpt>
      <trkpt lat="32.607832" lon="130.223244"><ele>15.8</ele><time>2026-10-03T03:35:52Z</time></trkpt>
      <trkpt lat="32.609587" lon="130.224855"><ele>17.0</ele><time>2026-10-03T03:36:43Z</time></trkpt>
      <trkpt lat="32.610605" lon="130.226370"><ele>16.2</ele><time>2026-10-03T03:37:21Z</time></trkpt>
      <trkpt lat="32.610827" lon="130.227191"><ele>17.2</ele><time>2026-10-03T03:37:38Z</time></trkpt>
      <trkpt lat="32.611115" lon="130.228790"><ele>21.4</ele><time>2026-10-03T03:38:16Z</time></trkpt>
      <trkpt lat="32.611481" lon="130.229484"><ele>24.2</ele><time>2026-10-03T03:38:37Z</time></trkpt>
      <trkpt lat="32.612016" lon="130.230217"><ele>27.6</ele><time>2026-10-03T03:39:10Z</time></trkpt>
      <trkpt lat="32.612377" lon="130.230576"><ele>26.6</ele><time>2026-10-03T03:39:23Z</time></trkpt>
      <trkpt lat="32.613065" lon="130.230951"><ele>22.4</ele><time>2026-10-03T03:39:32Z</time></trkpt>
      <trkpt lat="32.614630" lon="130.230984"><ele>18.2</ele><time>2026-10-03T03:39:49Z</time></trkpt>
      <trkpt lat="32.615190" lon="130.231065"><ele>19.2</ele><time>2026-10-03T03:39:57Z</time></trkpt>
      <trkpt lat="32.616630" lon="130.231532"><ele>18.6</ele><time>2026-10-03T03:40:21Z</time></trkpt>
      <trkpt lat="32.621748" lon="130.234591"><ele>18.8</ele><time>2026-10-03T03:42:15Z</time></trkpt>
      <trkpt lat="32.622700" lon="130.235656"><ele>17.8</ele><time>2026-10-03T03:42:42Z</time></trkpt>
      <trkpt lat="32.623021" lon="130.235901"><ele>18.0</ele><time>2026-10-03T03:42:50Z</time></trkpt>
      <trkpt lat="32.625268" lon="130.236879"><ele>16.6</ele><time>2026-10-03T03:43:50Z</time></trkpt>
      <trkpt lat="32.626205" lon="130.237569"><ele>17.0</ele><time>2026-10-03T03:44:14Z</time></trkpt>
      <trkpt lat="32.631550" lon="130.245466"><ele>19.4</ele><time>2026-10-03T03:47:14Z</time></trkpt>
      <trkpt lat="32.631765" lon="130.245935"><ele>18.8</ele><time>2026-10-03T03:47:23Z</time></trkpt>
      <trkpt lat="32.632925" lon="130.250777"><ele>17.8</ele><time>2026-10-03T03:48:37Z</time></trkpt>
      <trkpt lat="32.633705" lon="130.252107"><ele>19.0</ele><time>2026-10-03T03:49:06Z</time></trkpt>
      <trkpt lat="32.634755" lon="130.253082"><ele>19.4</ele><time>2026-10-03T03:49:35Z</time></trkpt>
      <trkpt lat="32.635293" lon="130.253430"><ele>20.0</ele><time>2026-10-03T03:49:49Z</time></trkpt>
      <trkpt lat="32.635759" lon="130.253510"><ele>19.8</ele><time>2026-10-03T03:50:00Z</time></trkpt>
      <trkpt lat="32.642948" lon="130.252717"><ele>19.2</ele><time>2026-10-03T03:52:11Z</time></trkpt>
      <trkpt lat="32.649071" lon="130.253402"><ele>19.8</ele><time>2026-10-03T03:53:59Z</time></trkpt>
      <trkpt lat="32.649546" lon="130.253570"><ele>20.0</ele><time>2026-10-03T03:54:08Z</time></trkpt>
      <trkpt lat="32.651091" lon="130.254419"><ele>18.4</ele><time>2026-10-03T03:54:36Z</time></trkpt>
      <trkpt lat="32.652679" lon="130.255390"><ele>19.0</ele><time>2026-10-03T03:55:24Z</time></trkpt>
      <trkpt lat="32.654017" lon="130.256417"><ele>19.2</ele><time>2026-10-03T03:55:57Z</time></trkpt>
      <trkpt lat="32.654686" lon="130.257154"><ele>19.2</ele><time>2026-10-03T03:56:17Z</time></trkpt>
      <trkpt lat="32.654976" lon="130.258342"><ele>21.8</ele><time>2026-10-03T03:56:43Z</time></trkpt>
      <trkpt lat="32.655016" lon="130.258936"><ele>24.0</ele><time>2026-10-03T03:56:58Z</time></trkpt>
      <trkpt lat="32.654946" lon="130.259638"><ele>25.6</ele><time>2026-10-03T03:57:13Z</time></trkpt>
      <trkpt lat="32.654561" lon="130.260664"><ele>23.0</ele><time>2026-10-03T03:57:30Z</time></trkpt>
      <trkpt lat="32.653250" lon="130.262906"><ele>19.2</ele><time>2026-10-03T03:58:03Z</time></trkpt>
      <trkpt lat="32.652897" lon="130.263917"><ele>19.6</ele><time>2026-10-03T03:58:18Z</time></trkpt>
      <trkpt lat="32.652835" lon="130.264470"><ele>19.8</ele><time>2026-10-03T03:58:26Z</time></trkpt>
      <trkpt lat="32.652879" lon="130.265473"><ele>19.8</ele><time>2026-10-03T03:58:41Z</time></trkpt>
      <trkpt lat="32.653001" lon="130.265984"><ele>19.4</ele><time>2026-10-03T03:58:49Z</time></trkpt>
      <trkpt lat="32.653878" lon="130.267854"><ele>18.6</ele><time>2026-10-03T03:59:23Z</time></trkpt>
      <trkpt lat="32.654166" lon="130.267595"><ele>19.0</ele><time>2026-10-03T03:59:31Z</time></trkpt>
      <trkpt lat="32.654330" lon="130.267571"><ele>19.6</ele><time>2026-10-03T03:59:35Z</time></trkpt>
      <trkpt lat="32.654675" lon="130.268022"><ele>20.4</ele><time>2026-10-03T03:59:47Z</time></trkpt>
      <trkpt lat="32.656118" lon="130.268379"><ele>22.0</ele><time>2026-10-03T04:00:21Z</time></trkpt>
      <trkpt lat="32.656775" lon="130.268320"><ele>21.8</ele><time>2026-10-03T04:00:38Z</time></trkpt>
      <trkpt lat="32.657174" lon="130.268413"><ele>22.4</ele><time>2026-10-03T04:00:48Z</time></trkpt>
      <trkpt lat="32.657450" lon="130.268350"><ele>22.4</ele><time>2026-10-03T04:00:55Z</time></trkpt>
      <trkpt lat="32.657758" lon="130.267944"><ele>23.2</ele><time>2026-10-03T04:01:07Z</time></trkpt>
      <trkpt lat="32.658186" lon="130.267729"><ele>23.4</ele><time>2026-10-03T04:01:19Z</time></trkpt>
      <trkpt lat="32.659453" lon="130.267730"><ele>25.2</ele><time>2026-10-03T04:01:50Z</time></trkpt>
      <trkpt lat="32.659639" lon="130.267376"><ele>27.4</ele><time>2026-10-03T04:02:00Z</time></trkpt>
      <trkpt lat="32.659761" lon="130.267288"><ele>28.8</ele><time>2026-10-03T04:02:05Z</time></trkpt>
      <trkpt lat="32.660482" lon="130.267292"><ele>30.8</ele><time>2026-10-03T04:02:28Z</time></trkpt>
      <trkpt lat="32.660899" lon="130.267185"><ele>33.2</ele><time>2026-10-03T04:02:41Z</time></trkpt>
      <trkpt lat="32.661317" lon="130.267223"><ele>36.6</ele><time>2026-10-03T04:02:53Z</time></trkpt>
      <trkpt lat="32.661754" lon="130.267559"><ele>40.2</ele><time>2026-10-03T04:03:14Z</time></trkpt>
      <trkpt lat="32.662105" lon="130.267616"><ele>42.2</ele><time>2026-10-03T04:03:28Z</time></trkpt>
      <trkpt lat="32.663140" lon="130.267491"><ele>47.8</ele><time>2026-10-03T04:04:11Z</time></trkpt>
      <trkpt lat="32.663506" lon="130.267239"><ele>50.0</ele><time>2026-10-03T04:04:25Z</time></trkpt>
      <trkpt lat="32.664401" lon="130.266843"><ele>57.2</ele><time>2026-10-03T04:07:10Z</time></trkpt>
      <trkpt lat="32.665024" lon="130.266085"><ele>64.6</ele><time>2026-10-03T04:09:00Z</time></trkpt>
      <trkpt lat="32.665081" lon="130.266176"><ele>65.6</ele><time>2026-10-03T04:09:25Z</time></trkpt>
      <trkpt lat="32.665241" lon="130.265920"><ele>66.2</ele><time>2026-10-03T04:10:01Z</time></trkpt>
      <trkpt lat="32.665729" lon="130.265715"><ele>66.8</ele><time>2026-10-03T04:10:26Z</time></trkpt>
      <trkpt lat="32.665933" lon="130.265456"><ele>66.6</ele><time>2026-10-03T04:10:36Z</time></trkpt>
      <trkpt lat="32.666630" lon="130.265164"><ele>67.0</ele><time>2026-10-03T04:10:53Z</time></trkpt>
      <trkpt lat="32.667003" lon="130.264880"><ele>67.8</ele><time>2026-10-03T04:11:05Z</time></trkpt>
      <trkpt lat="32.667533" lon="130.264265"><ele>73.6</ele><time>2026-10-03T04:11:31Z</time></trkpt>
      <trkpt lat="32.668134" lon="130.264060"><ele>75.6</ele><time>2026-10-03T04:11:59Z</time></trkpt>
      <trkpt lat="32.668679" lon="130.264127"><ele>76.8</ele><time>2026-10-03T04:12:18Z</time></trkpt>
      <trkpt lat="32.668932" lon="130.264020"><ele>77.2</ele><time>2026-10-03T04:12:26Z</time></trkpt>
      <trkpt lat="32.669274" lon="130.263347"><ele>84.6</ele><time>2026-10-03T04:12:52Z</time></trkpt>
      <trkpt lat="32.669959" lon="130.263122"><ele>92.4</ele><time>2026-10-03T04:13:30Z</time></trkpt>
      <trkpt lat="32.670365" lon="130.263297"><ele>97.2</ele><time>2026-10-03T04:13:56Z</time></trkpt>
      <trkpt lat="32.670519" lon="130.263172"><ele>98.0</ele><time>2026-10-03T04:14:05Z</time></trkpt>
      <trkpt lat="32.670563" lon="130.262856"><ele>101.0</ele><time>2026-10-03T04:16:37Z</time></trkpt>
      <trkpt lat="32.670530" lon="130.262929"><ele>101.4</ele><time>2026-10-03T04:17:25Z</time></trkpt>
      <trkpt lat="32.671358" lon="130.263009"><ele>104.4</ele><time>2026-10-03T04:17:56Z</time></trkpt>
      <trkpt lat="32.671716" lon="130.262655"><ele>106.6</ele><time>2026-10-03T04:18:17Z</time></trkpt>
      <trkpt lat="32.671861" lon="130.262658"><ele>107.6</ele><time>2026-10-03T04:18:25Z</time></trkpt>
      <trkpt lat="32.671990" lon="130.262819"><ele>108.8</ele><time>2026-10-03T04:18:34Z</time></trkpt>
      <trkpt lat="32.672190" lon="130.262886"><ele>111.0</ele><time>2026-10-03T04:18:43Z</time></trkpt>
      <trkpt lat="32.672519" lon="130.262684"><ele>114.0</ele><time>2026-10-03T04:19:08Z</time></trkpt>
      <trkpt lat="32.672836" lon="130.262623"><ele>117.2</ele><time>2026-10-03T04:19:30Z</time></trkpt>
      <trkpt lat="32.673476" lon="130.262168"><ele>123.0</ele><time>2026-10-03T04:20:20Z</time></trkpt>
      <trkpt lat="32.673707" lon="130.261792"><ele>125.6</ele><time>2026-10-03T04:20:46Z</time></trkpt>
      <trkpt lat="32.674449" lon="130.261177"><ele>131.8</ele><time>2026-10-03T04:21:48Z</time></trkpt>
      <trkpt lat="32.674846" lon="130.261004"><ele>134.6</ele><time>2026-10-03T04:22:18Z</time></trkpt>
      <trkpt lat="32.675733" lon="130.260926"><ele>145.2</ele><time>2026-10-03T04:23:15Z</time></trkpt>
      <trkpt lat="32.676505" lon="130.261231"><ele>148.8</ele><time>2026-10-03T04:23:55Z</time></trkpt>
      <trkpt lat="32.677102" lon="130.261235"><ele>153.4</ele><time>2026-10-03T04:24:21Z</time></trkpt>
      <trkpt lat="32.677716" lon="130.261520"><ele>159.2</ele><time>2026-10-03T04:24:56Z</time></trkpt>
      <trkpt lat="32.678238" lon="130.261310"><ele>163.6</ele><time>2026-10-03T04:25:29Z</time></trkpt>
      <trkpt lat="32.678531" lon="130.261314"><ele>165.8</ele><time>2026-10-03T04:25:46Z</time></trkpt>
      <trkpt lat="32.678754" lon="130.261458"><ele>168.4</ele><time>2026-10-03T04:26:25Z</time></trkpt>
      <trkpt lat="32.678716" lon="130.261303"><ele>168.6</ele><time>2026-10-03T04:26:56Z</time></trkpt>
      <trkpt lat="32.678823" lon="130.261265"><ele>169.8</ele><time>2026-10-03T04:27:16Z</time></trkpt>
      <trkpt lat="32.679546" lon="130.261351"><ele>174.4</ele><time>2026-10-03T04:28:46Z</time></trkpt>
      <trkpt lat="32.680099" lon="130.261544"><ele>176.4</ele><time>2026-10-03T04:29:16Z</time></trkpt>
      <trkpt lat="32.681502" lon="130.261476"><ele>186.4</ele><time>2026-10-03T04:30:23Z</time></trkpt>
      <trkpt lat="32.682152" lon="130.261688"><ele>192.2</ele><time>2026-10-03T04:31:00Z</time></trkpt>
      <trkpt lat="32.682623" lon="130.261674"><ele>199.4</ele><time>2026-10-03T04:31:30Z</time></trkpt>
      <trkpt lat="32.683283" lon="130.261524"><ele>203.8</ele><time>2026-10-03T04:32:13Z</time></trkpt>
      <trkpt lat="32.683659" lon="130.261261"><ele>209.6</ele><time>2026-10-03T04:32:42Z</time></trkpt>
      <trkpt lat="32.684312" lon="130.261466"><ele>211.2</ele><time>2026-10-03T04:33:15Z</time></trkpt>
      <trkpt lat="32.685184" lon="130.261164"><ele>223.4</ele><time>2026-10-03T04:34:37Z</time></trkpt>
      <trkpt lat="32.685552" lon="130.261356"><ele>225.8</ele><time>2026-10-03T04:35:52Z</time></trkpt>
      <trkpt lat="32.686072" lon="130.261423"><ele>227.0</ele><time>2026-10-03T04:36:22Z</time></trkpt>
      <trkpt lat="32.686524" lon="130.261339"><ele>233.8</ele><time>2026-10-03T04:36:57Z</time></trkpt>
      <trkpt lat="32.686535" lon="130.261434"><ele>233.0</ele><time>2026-10-03T04:37:34Z</time></trkpt>
      <trkpt lat="32.687276" lon="130.261311"><ele>240.4</ele><time>2026-10-03T04:39:10Z</time></trkpt>
      <trkpt lat="32.687771" lon="130.261082"><ele>242.6</ele><time>2026-10-03T04:39:45Z</time></trkpt>
      <trkpt lat="32.688224" lon="130.260683"><ele>246.4</ele><time>2026-10-03T04:40:19Z</time></trkpt>
      <trkpt lat="32.688301" lon="130.260752"><ele>247.0</ele><time>2026-10-03T04:41:07Z</time></trkpt>
      <trkpt lat="32.688480" lon="130.260513"><ele>250.6</ele><time>2026-10-03T04:41:44Z</time></trkpt>
      <trkpt lat="32.688492" lon="130.260579"><ele>250.0</ele><time>2026-10-03T04:42:00Z</time></trkpt>
      <trkpt lat="32.688647" lon="130.260457"><ele>253.0</ele><time>2026-10-03T04:42:50Z</time></trkpt>
      <trkpt lat="32.688625" lon="130.260368"><ele>254.2</ele><time>2026-10-03T04:43:25Z</time></trkpt>
      <trkpt lat="32.688595" lon="130.260445"><ele>254.2</ele><time>2026-10-03T04:43:50Z</time></trkpt>
      <trkpt lat="32.688683" lon="130.260448"><ele>253.4</ele><time>2026-10-03T04:44:13Z</time></trkpt>
      <trkpt lat="32.688698" lon="130.260307"><ele>255.4</ele><time>2026-10-03T04:44:41Z</time></trkpt>
      <trkpt lat="32.688735" lon="130.260468"><ele>255.4</ele><time>2026-10-03T04:46:01Z</time></trkpt>
      <trkpt lat="32.688782" lon="130.260377"><ele>254.6</ele><time>2026-10-03T04:46:37Z</time></trkpt>
      <trkpt lat="32.688725" lon="130.260356"><ele>254.6</ele><time>2026-10-03T04:47:07Z</time></trkpt>
      <trkpt lat="32.688819" lon="130.260354"><ele>254.6</ele><time>2026-10-03T04:47:22Z</time></trkpt>
      <trkpt lat="32.688731" lon="130.260399"><ele>254.6</ele><time>2026-10-03T04:47:49Z</time></trkpt>
      <trkpt lat="32.688759" lon="130.260280"><ele>254.6</ele><time>2026-10-03T04:48:34Z</time></trkpt>
      <trkpt lat="32.688924" lon="130.260073"><ele>262.6</ele><time>2026-10-03T04:49:55Z</time></trkpt>
      <trkpt lat="32.689427" lon="130.258949"><ele>280.6</ele><time>2026-10-03T04:56:18Z</time></trkpt>
      <trkpt lat="32.690053" lon="130.258387"><ele>289.0</ele><time>2026-10-03T04:58:19Z</time></trkpt>
      <trkpt lat="32.690825" lon="130.257941"><ele>303.4</ele><time>2026-10-03T05:00:29Z</time></trkpt>
      <trkpt lat="32.691325" lon="130.257797"><ele>314.8</ele><time>2026-10-03T05:02:35Z</time></trkpt>
      <trkpt lat="32.691438" lon="130.258109"><ele>317.6</ele><time>2026-10-03T05:03:31Z</time></trkpt>
      <trkpt lat="32.691484" lon="130.257251"><ele>323.0</ele><time>2026-10-03T05:05:06Z</time></trkpt>
      <trkpt lat="32.692169" lon="130.256705"><ele>329.0</ele><time>2026-10-03T05:06:07Z</time></trkpt>
      <trkpt lat="32.692529" lon="130.256652"><ele>332.2</ele><time>2026-10-03T05:06:37Z</time></trkpt>
      <trkpt lat="32.692996" lon="130.256416"><ele>336.8</ele><time>2026-10-03T05:07:17Z</time></trkpt>
      <trkpt lat="32.693206" lon="130.256050"><ele>340.0</ele><time>2026-10-03T05:07:46Z</time></trkpt>
      <trkpt lat="32.693907" lon="130.255203"><ele>349.6</ele><time>2026-10-03T05:09:20Z</time></trkpt>
      <trkpt lat="32.694732" lon="130.254509"><ele>357.4</ele><time>2026-10-03T05:10:48Z</time></trkpt>
      <trkpt lat="32.695247" lon="130.253597"><ele>368.6</ele><time>2026-10-03T05:12:02Z</time></trkpt>
      <trkpt lat="32.695937" lon="130.253210"><ele>377.2</ele><time>2026-10-03T05:13:10Z</time></trkpt>
      <trkpt lat="32.696273" lon="130.252871"><ele>382.0</ele><time>2026-10-03T05:13:39Z</time></trkpt>
      <trkpt lat="32.696482" lon="130.252535"><ele>385.2</ele><time>2026-10-03T05:14:25Z</time></trkpt>
      <trkpt lat="32.696526" lon="130.252602"><ele>386.0</ele><time>2026-10-03T05:15:41Z</time></trkpt>
      <trkpt lat="32.696480" lon="130.252579"><ele>385.2</ele><time>2026-10-03T05:16:03Z</time></trkpt>
      <trkpt lat="32.696743" lon="130.251876"><ele>392.4</ele><time>2026-10-03T05:16:39Z</time></trkpt>
      <trkpt lat="32.696764" lon="130.251403"><ele>397.0</ele><time>2026-10-03T05:17:14Z</time></trkpt>
      <trkpt lat="32.696978" lon="130.250641"><ele>403.6</ele><time>2026-10-03T05:18:18Z</time></trkpt>
      <trkpt lat="32.697852" lon="130.249009"><ele>420.0</ele><time>2026-10-03T05:20:38Z</time></trkpt>
      <trkpt lat="32.697924" lon="130.248659"><ele>422.8</ele><time>2026-10-03T05:21:01Z</time></trkpt>
      <trkpt lat="32.697915" lon="130.248493"><ele>424.2</ele><time>2026-10-03T05:21:13Z</time></trkpt>
      <trkpt lat="32.697756" lon="130.248227"><ele>426.4</ele><time>2026-10-03T05:21:32Z</time></trkpt>
      <trkpt lat="32.697278" lon="130.247856"><ele>430.0</ele><time>2026-10-03T05:22:21Z</time></trkpt>
      <trkpt lat="32.697203" lon="130.247578"><ele>431.6</ele><time>2026-10-03T05:22:44Z</time></trkpt>
      <trkpt lat="32.697267" lon="130.247478"><ele>432.6</ele><time>2026-10-03T05:22:57Z</time></trkpt>
      <trkpt lat="32.697642" lon="130.247415"><ele>434.8</ele><time>2026-10-03T05:23:27Z</time></trkpt>
      <trkpt lat="32.698718" lon="130.248021"><ele>443.2</ele><time>2026-10-03T05:24:56Z</time></trkpt>
      <trkpt lat="32.699603" lon="130.247983"><ele>446.8</ele><time>2026-10-03T05:25:30Z</time></trkpt>
      <trkpt lat="32.700204" lon="130.248106"><ele>448.4</ele><time>2026-10-03T05:25:54Z</time></trkpt>
      <trkpt lat="32.700500" lon="130.248046"><ele>448.8</ele><time>2026-10-03T05:26:02Z</time></trkpt>
      <trkpt lat="32.701263" lon="130.247550"><ele>451.6</ele><time>2026-10-03T05:26:27Z</time></trkpt>
      <trkpt lat="32.702252" lon="130.246491"><ele>462.8</ele><time>2026-10-03T05:27:32Z</time></trkpt>
      <trkpt lat="32.703382" lon="130.246187"><ele>474.8</ele><time>2026-10-03T05:29:10Z</time></trkpt>
      <trkpt lat="32.703447" lon="130.246070"><ele>475.2</ele><time>2026-10-03T05:31:57Z</time></trkpt>
      <trkpt lat="32.703401" lon="130.246148"><ele>475.2</ele><time>2026-10-03T05:32:18Z</time></trkpt>
      <trkpt lat="32.703515" lon="130.246174"><ele>475.6</ele><time>2026-10-03T05:33:28Z</time></trkpt>
      <trkpt lat="32.704250" lon="130.245929"><ele>484.4</ele><time>2026-10-03T05:34:39Z</time></trkpt>
      <trkpt lat="32.705082" lon="130.245971"><ele>491.4</ele><time>2026-10-03T05:35:45Z</time></trkpt>
      <trkpt lat="32.705645" lon="130.245901"><ele>495.6</ele><time>2026-10-03T05:36:34Z</time></trkpt>
      <trkpt lat="32.707260" lon="130.245259"><ele>511.4</ele><time>2026-10-03T05:38:37Z</time></trkpt>
      <trkpt lat="32.707969" lon="130.245308"><ele>515.2</ele><time>2026-10-03T05:39:20Z</time></trkpt>
      <trkpt lat="32.708957" lon="130.246548"><ele>512.0</ele><time>2026-10-03T05:39:52Z</time></trkpt>
      <trkpt lat="32.709641" lon="130.247758"><ele>511.2</ele><time>2026-10-03T05:40:08Z</time></trkpt>
      <trkpt lat="32.710675" lon="130.248630"><ele>511.6</ele><time>2026-10-03T05:40:25Z</time></trkpt>
      <trkpt lat="32.710943" lon="130.248716"><ele>512.4</ele><time>2026-10-03T05:40:30Z</time></trkpt>
      <trkpt lat="32.712214" lon="130.248509"><ele>515.2</ele><time>2026-10-03T05:41:00Z</time></trkpt>
      <trkpt lat="32.713366" lon="130.247909"><ele>514.2</ele><time>2026-10-03T05:41:20Z</time></trkpt>
      <trkpt lat="32.714862" lon="130.248552"><ele>511.6</ele><time>2026-10-03T05:41:40Z</time></trkpt>
      <trkpt lat="32.716601" lon="130.248122"><ele>513.8</ele><time>2026-10-03T05:42:07Z</time></trkpt>
      <trkpt lat="32.716785" lon="130.247814"><ele>515.2</ele><time>2026-10-03T05:42:16Z</time></trkpt>
      <trkpt lat="32.716851" lon="130.247390"><ele>517.2</ele><time>2026-10-03T05:42:28Z</time></trkpt>
      <trkpt lat="32.716675" lon="130.247009"><ele>519.4</ele><time>2026-10-03T05:42:46Z</time></trkpt>
      <trkpt lat="32.716078" lon="130.246187"><ele>526.0</ele><time>2026-10-03T05:43:42Z</time></trkpt>
      <trkpt lat="32.716063" lon="130.246077"><ele>526.6</ele><time>2026-10-03T05:43:48Z</time></trkpt>
      <trkpt lat="32.716240" lon="130.245974"><ele>527.8</ele><time>2026-10-03T05:44:01Z</time></trkpt>
      <trkpt lat="32.716630" lon="130.246530"><ele>531.4</ele><time>2026-10-03T05:44:39Z</time></trkpt>
      <trkpt lat="32.716842" lon="130.246691"><ele>532.8</ele><time>2026-10-03T05:44:53Z</time></trkpt>
      <trkpt lat="32.717208" lon="130.246807"><ele>535.4</ele><time>2026-10-03T05:45:19Z</time></trkpt>
      <trkpt lat="32.717882" lon="130.248107"><ele>540.6</ele><time>2026-10-03T05:46:23Z</time></trkpt>
      <trkpt lat="32.718175" lon="130.248500"><ele>542.8</ele><time>2026-10-03T05:46:40Z</time></trkpt>
      <trkpt lat="32.718369" lon="130.248597"><ele>544.0</ele><time>2026-10-03T05:46:47Z</time></trkpt>
      <trkpt lat="32.718440" lon="130.248510"><ele>544.6</ele><time>2026-10-03T05:46:51Z</time></trkpt>
      <trkpt lat="32.718140" lon="130.248112"><ele>548.2</ele><time>2026-10-03T05:47:16Z</time></trkpt>
      <trkpt lat="32.717955" lon="130.247188"><ele>553.0</ele><time>2026-10-03T05:47:58Z</time></trkpt>
      <trkpt lat="32.718040" lon="130.247095"><ele>554.2</ele><time>2026-10-03T05:48:06Z</time></trkpt>
      <trkpt lat="32.718186" lon="130.247188"><ele>555.8</ele><time>2026-10-03T05:48:16Z</time></trkpt>
      <trkpt lat="32.718339" lon="130.247817"><ele>560.4</ele><time>2026-10-03T05:48:51Z</time></trkpt>
      <trkpt lat="32.718455" lon="130.247978"><ele>561.8</ele><time>2026-10-03T05:49:01Z</time></trkpt>
      <trkpt lat="32.718584" lon="130.248009"><ele>563.0</ele><time>2026-10-03T05:49:07Z</time></trkpt>
      <trkpt lat="32.718759" lon="130.247875"><ele>564.8</ele><time>2026-10-03T05:49:18Z</time></trkpt>
      <trkpt lat="32.718793" lon="130.247545"><ele>567.0</ele><time>2026-10-03T05:49:33Z</time></trkpt>
      <trkpt lat="32.718425" lon="130.246926"><ele>568.4</ele><time>2026-10-03T05:50:04Z</time></trkpt>
      <trkpt lat="32.718023" lon="130.246635"><ele>569.2</ele><time>2026-10-03T05:50:21Z</time></trkpt>
      <trkpt lat="32.717813" lon="130.246336"><ele>570.0</ele><time>2026-10-03T05:50:35Z</time></trkpt>
      <trkpt lat="32.717749" lon="130.245608"><ele>573.8</ele><time>2026-10-03T05:51:11Z</time></trkpt>
      <trkpt lat="32.717868" lon="130.245432"><ele>576.6</ele><time>2026-10-03T05:51:28Z</time></trkpt>
      <trkpt lat="32.717987" lon="130.245440"><ele>577.4</ele><time>2026-10-03T05:51:35Z</time></trkpt>
      <trkpt lat="32.718077" lon="130.245591"><ele>579.4</ele><time>2026-10-03T05:51:47Z</time></trkpt>
      <trkpt lat="32.717937" lon="130.246043"><ele>581.4</ele><time>2026-10-03T05:52:10Z</time></trkpt>
      <trkpt lat="32.718093" lon="130.246305"><ele>583.0</ele><time>2026-10-03T05:52:21Z</time></trkpt>
      <trkpt lat="32.718845" lon="130.246786"><ele>588.2</ele><time>2026-10-03T05:53:05Z</time></trkpt>
      <trkpt lat="32.719376" lon="130.246756"><ele>590.6</ele><time>2026-10-03T05:53:29Z</time></trkpt>
      <trkpt lat="32.720185" lon="130.247209"><ele>593.4</ele><time>2026-10-03T05:54:09Z</time></trkpt>
      <trkpt lat="32.721036" lon="130.248191"><ele>600.2</ele><time>2026-10-03T05:55:18Z</time></trkpt>
      <trkpt lat="32.721372" lon="130.248886"><ele>605.4</ele><time>2026-10-03T05:56:01Z</time></trkpt>
      <trkpt lat="32.721677" lon="130.249233"><ele>608.8</ele><time>2026-10-03T05:56:20Z</time></trkpt>
      <trkpt lat="32.722436" lon="130.249555"><ele>615.2</ele><time>2026-10-03T05:56:59Z</time></trkpt>
      <trkpt lat="32.722755" lon="130.249558"><ele>617.2</ele><time>2026-10-03T05:58:30Z</time></trkpt>
      <trkpt lat="32.722695" lon="130.249675"><ele>617.4</ele><time>2026-10-03T05:59:09Z</time></trkpt>
      <trkpt lat="32.722745" lon="130.249545"><ele>617.2</ele><time>2026-10-03T05:59:51Z</time></trkpt>
      <trkpt lat="32.723602" lon="130.249821"><ele>624.0</ele><time>2026-10-03T06:01:55Z</time></trkpt>
      <trkpt lat="32.724115" lon="130.250145"><ele>630.2</ele><time>2026-10-03T06:02:47Z</time></trkpt>
      <trkpt lat="32.724593" lon="130.250723"><ele>637.0</ele><time>2026-10-03T06:03:48Z</time></trkpt>
      <trkpt lat="32.724991" lon="130.250874"><ele>640.2</ele><time>2026-10-03T06:04:26Z</time></trkpt>
      <trkpt lat="32.725209" lon="130.251213"><ele>642.8</ele><time>2026-10-03T06:04:59Z</time></trkpt>
      <trkpt lat="32.725243" lon="130.251483"><ele>643.8</ele><time>2026-10-03T06:05:15Z</time></trkpt>
      <trkpt lat="32.725606" lon="130.252477"><ele>648.0</ele><time>2026-10-03T06:06:12Z</time></trkpt>
      <trkpt lat="32.727140" lon="130.253827"><ele>650.0</ele><time>2026-10-03T06:07:13Z</time></trkpt>
      <trkpt lat="32.727739" lon="130.254806"><ele>653.6</ele><time>2026-10-03T06:07:53Z</time></trkpt>
      <trkpt lat="32.728177" lon="130.255304"><ele>656.2</ele><time>2026-10-03T06:08:14Z</time></trkpt>
      <trkpt lat="32.729390" lon="130.256004"><ele>662.0</ele><time>2026-10-03T06:09:03Z</time></trkpt>
      <trkpt lat="32.731960" lon="130.256914"><ele>675.0</ele><time>2026-10-03T06:11:14Z</time></trkpt>
      <trkpt lat="32.733103" lon="130.257779"><ele>680.0</ele><time>2026-10-03T06:12:26Z</time></trkpt>
      <trkpt lat="32.734157" lon="130.257984"><ele>681.6</ele><time>2026-10-03T06:12:59Z</time></trkpt>
      <trkpt lat="32.734407" lon="130.258131"><ele>681.4</ele><time>2026-10-03T06:13:06Z</time></trkpt>
      <trkpt lat="32.734515" lon="130.258256"><ele>681.4</ele><time>2026-10-03T06:13:11Z</time></trkpt>
      <trkpt lat="32.734922" lon="130.259438"><ele>682.6</ele><time>2026-10-03T06:13:43Z</time></trkpt>
      <trkpt lat="32.735340" lon="130.259761"><ele>682.6</ele><time>2026-10-03T06:13:54Z</time></trkpt>
      <trkpt lat="32.736359" lon="130.260003"><ele>682.2</ele><time>2026-10-03T06:14:17Z</time></trkpt>
      <trkpt lat="32.737204" lon="130.259841"><ele>679.2</ele><time>2026-10-03T06:14:29Z</time></trkpt>
      <trkpt lat="32.737462" lon="130.259873"><ele>678.0</ele><time>2026-10-03T06:14:33Z</time></trkpt>
      <trkpt lat="32.737936" lon="130.260500"><ele>677.6</ele><time>2026-10-03T06:14:42Z</time></trkpt>
      <trkpt lat="32.738584" lon="130.262615"><ele>688.2</ele><time>2026-10-03T06:15:36Z</time></trkpt>
      <trkpt lat="32.738713" lon="130.262658"><ele>688.8</ele><time>2026-10-03T06:15:42Z</time></trkpt>
      <trkpt lat="32.739014" lon="130.262541"><ele>688.6</ele><time>2026-10-03T06:15:54Z</time></trkpt>
      <trkpt lat="32.740535" lon="130.261673"><ele>689.2</ele><time>2026-10-03T06:16:31Z</time></trkpt>
      <trkpt lat="32.741293" lon="130.261452"><ele>690.2</ele><time>2026-10-03T06:16:51Z</time></trkpt>
      <trkpt lat="32.741851" lon="130.260967"><ele>687.6</ele><time>2026-10-03T06:17:02Z</time></trkpt>
    </trkseg>
  </trk>
</gpx>
