<?xml version="1.0" encoding="UTF-8"?>
<gpx version="1.1" creator="gpx2reel" xmlns="http://www.topografix.com/GPX/1/1">
  <trk><name>Day 12</name>
    <trkseg>
      <trkpt lat="32.744430" lon="130.261253"><ele>689.6</ele><time>2026-10-04T02:20:30Z</time></trkpt>
      <trkpt lat="32.744076" lon="130.261251"><ele>687.0</ele><time>2026-10-04T02:20:37Z</time></trkpt>
      <trkpt lat="32.743991" lon="130.261199"><ele>686.0</ele><time>2026-10-04T02:20:43Z</time></trkpt>
      <trkpt lat="32.743873" lon="130.260855"><ele>683.8</ele><time>2026-10-04T02:21:06Z</time></trkpt>
      <trkpt lat="32.743379" lon="130.260658"><ele>680.6</ele><time>2026-10-04T02:21:17Z</time></trkpt>
      <trkpt lat="32.743310" lon="130.260088"><ele>679.0</ele><time>2026-10-04T02:21:26Z</time></trkpt>
      <trkpt lat="32.743355" lon="130.258619"><ele>671.0</ele><time>2026-10-04T02:21:39Z</time></trkpt>
      <trkpt lat="32.743757" lon="130.257807"><ele>665.0</ele><time>2026-10-04T02:21:47Z</time></trkpt>
      <trkpt lat="32.744343" lon="130.257114"><ele>665.0</ele><time>2026-10-04T02:21:57Z</time></trkpt>
      <trkpt lat="32.744544" lon="130.256450"><ele>667.0</ele><time>2026-10-04T02:22:07Z</time></trkpt>
      <trkpt lat="32.744472" lon="130.255076"><ele>669.6</ele><time>2026-10-04T02:22:28Z</time></trkpt>
      <trkpt lat="32.744587" lon="130.254192"><ele>669.6</ele><time>2026-10-04T02:22:42Z</time></trkpt>
      <trkpt lat="32.744569" lon="130.253827"><ele>669.2</ele><time>2026-10-04T02:22:47Z</time></trkpt>
      <trkpt lat="32.744225" lon="130.252709"><ele>666.8</ele><time>2026-10-04T02:23:00Z</time></trkpt>
      <trkpt lat="32.744161" lon="130.252141"><ele>667.6</ele><time>2026-10-04T02:23:06Z</time></trkpt>
      <trkpt lat="32.744204" lon="130.251733"><ele>666.4</ele><time>2026-10-04T02:23:10Z</time></trkpt>
      <trkpt lat="32.744711" lon="130.250564"><ele>660.2</ele><time>2026-10-04T02:23:22Z</time></trkpt>
      <trkpt lat="32.745102" lon="130.249858"><ele>663.0</ele><time>2026-10-04T02:23:30Z</time></trkpt>
      <trkpt lat="32.745226" lon="130.248995"><ele>658.4</ele><time>2026-10-04T02:23:38Z</time></trkpt>
      <trkpt lat="32.745368" lon="130.248934"><ele>657.2</ele><time>2026-10-04T02:23:40Z</time></trkpt>
      <trkpt lat="32.745509" lon="130.249038"><ele>656.6</ele><time>2026-10-04T02:23:42Z</time></trkpt>
      <trkpt lat="32.745269" lon="130.249979"><ele>651.4</ele><time>2026-10-04T02:23:52Z</time></trkpt>
      <trkpt lat="32.745254" lon="130.250241"><ele>650.0</ele><time>2026-10-04T02:23:55Z</time></trkpt>
      <trkpt lat="32.745336" lon="130.250334"><ele>648.0</ele><time>2026-10-04T02:23:57Z</time></trkpt>
      <trkpt lat="32.745514" lon="130.250126"><ele>645.8</ele><time>2026-10-04T02:24:02Z</time></trkpt>
      <trkpt lat="32.745532" lon="130.249777"><ele>644.0</ele><time>2026-10-04T02:24:05Z</time></trkpt>
      <trkpt lat="32.745735" lon="130.249247"><ele>639.4</ele><time>2026-10-04T02:24:10Z</time></trkpt>
      <trkpt lat="32.745766" lon="130.248702"><ele>637.8</ele><time>2026-10-04T02:24:15Z</time></trkpt>
      <trkpt lat="32.745930" lon="130.248102"><ele>635.2</ele><time>2026-10-04T02:24:21Z</time></trkpt>
      <trkpt lat="32.745384" lon="130.246582"><ele>624.2</ele><time>2026-10-04T02:24:34Z</time></trkpt>
      <trkpt lat="32.745446" lon="130.246203"><ele>624.4</ele><time>2026-10-04T02:24:39Z</time></trkpt>
      <trkpt lat="32.745565" lon="130.246385"><ele>625.8</ele><time>2026-10-04T02:24:42Z</time></trkpt>
      <trkpt lat="32.745660" lon="130.246961"><ele>620.8</ele><time>2026-10-04T02:24:49Z</time></trkpt>
      <trkpt lat="32.745959" lon="130.247641"><ele>620.0</ele><time>2026-10-04T02:24:58Z</time></trkpt>
      <trkpt lat="32.746088" lon="130.247676"><ele>619.0</ele><time>2026-10-04T02:25:00Z</time></trkpt>
      <trkpt lat="32.746165" lon="130.247572"><ele>617.8</ele><time>2026-10-04T02:25:02Z</time></trkpt>
      <trkpt lat="32.746105" lon="130.247423"><ele>616.6</ele><time>2026-10-04T02:25:04Z</time></trkpt>
      <trkpt lat="32.745801" lon="130.247159"><ele>613.6</ele><time>2026-10-04T02:25:09Z</time></trkpt>
      <trkpt lat="32.745740" lon="130.246990"><ele>613.0</ele><time>2026-10-04T02:25:11Z</time></trkpt>
      <trkpt lat="32.745657" lon="130.246521"><ele>609.4</ele><time>2026-10-04T02:25:16Z</time></trkpt>
      <trkpt lat="32.745789" lon="130.246332"><ele>608.0</ele><time>2026-10-04T02:25:19Z</time></trkpt>
      <trkpt lat="32.745930" lon="130.246321"><ele>606.8</ele><time>2026-10-04T02:25:22Z</time></trkpt>
      <trkpt lat="32.746047" lon="130.246457"><ele>604.4</ele><time>2026-10-04T02:25:31Z</time></trkpt>
      <trkpt lat="32.746046" lon="130.246833"><ele>599.2</ele><time>2026-10-04T02:26:24Z</time></trkpt>
      <trkpt lat="32.746144" lon="130.247110"><ele>597.8</ele><time>2026-10-04T02:26:28Z</time></trkpt>
      <trkpt lat="32.746396" lon="130.247299"><ele>595.8</ele><time>2026-10-04T02:26:35Z</time></trkpt>
      <trkpt lat="32.746490" lon="130.247230"><ele>594.0</ele><time>2026-10-04T02:26:39Z</time></trkpt>
      <trkpt lat="32.746235" lon="130.246722"><ele>590.2</ele><time>2026-10-04T02:26:49Z</time></trkpt>
      <trkpt lat="32.745916" lon="130.245715"><ele>582.6</ele><time>2026-10-04T02:27:07Z</time></trkpt>
      <trkpt lat="32.745764" lon="130.245836"><ele>580.8</ele><time>2026-10-04T02:27:14Z</time></trkpt>
      <trkpt lat="32.745590" lon="130.245834"><ele>580.4</ele><time>2026-10-04T02:27:17Z</time></trkpt>
      <trkpt lat="32.745332" lon="130.245800"><ele>579.8</ele><time>2026-10-04T02:27:21Z</time></trkpt>
      <trkpt lat="32.745214" lon="130.245702"><ele>579.4</ele><time>2026-10-04T02:27:24Z</time></trkpt>
      <trkpt lat="32.745096" lon="130.245094"><ele>577.2</ele><time>2026-10-04T02:27:31Z</time></trkpt>
      <trkpt lat="32.744741" lon="130.244408"><ele>574.2</ele><time>2026-10-04T02:27:40Z</time></trkpt>
      <trkpt lat="32.744783" lon="130.244193"><ele>573.6</ele><time>2026-10-04T02:27:43Z</time></trkpt>
      <trkpt lat="32.744947" lon="130.244310"><ele>572.4</ele><time>2026-10-04T02:27:47Z</time></trkpt>
      <trkpt lat="32.745094" lon="130.244817"><ele>573.2</ele><time>2026-10-04T02:27:53Z</time></trkpt>
      <trkpt lat="32.745355" lon="130.245278"><ele>571.6</ele><time>2026-10-04T02:27:59Z</time></trkpt>
      <trkpt lat="32.745703" lon="130.245505"><ele>568.6</ele><time>2026-10-04T02:28:04Z</time></trkpt>
      <trkpt lat="32.746032" lon="130.245432"><ele>563.2</ele><time>2026-10-04T02:28:08Z</time></trkpt>
      <trkpt lat="32.746212" lon="130.245521"><ele>561.2</ele><time>2026-10-04T02:28:11Z</time></trkpt>
      <trkpt lat="32.746302" lon="130.245653"><ele>559.8</ele><time>2026-10-04T02:28:13Z</time></trkpt>
      <trkpt lat="32.746283" lon="130.245865"><ele>558.0</ele><time>2026-10-04T02:28:15Z</time></trkpt>
      <trkpt lat="32.746450" lon="130.246162"><ele>558.4</ele><time>2026-10-04T02:28:19Z</time></trkpt>
      <trkpt lat="32.746529" lon="130.246237"><ele>558.2</ele><time>2026-10-04T02:28:21Z</time></trkpt>
      <trkpt lat="32.746670" lon="130.246214"><ele>557.4</ele><time>2026-10-04T02:28:23Z</time></trkpt>
      <trkpt lat="32.747052" lon="130.245962"><ele>552.8</ele><time>2026-10-04T02:28:28Z</time></trkpt>
      <trkpt lat="32.747413" lon="130.245537"><ele>541.4</ele><time>2026-10-04T02:28:33Z</time></trkpt>
      <trkpt lat="32.748437" lon="130.244861"><ele>533.6</ele><time>2026-10-04T02:28:45Z</time></trkpt>
      <trkpt lat="32.748900" lon="130.244336"><ele>533.6</ele><time>2026-10-04T02:28:52Z</time></trkpt>
      <trkpt lat="32.750012" lon="130.243503"><ele>526.8</ele><time>2026-10-04T02:29:05Z</time></trkpt>
      <trkpt lat="32.750248" lon="130.243243"><ele>525.4</ele><time>2026-10-04T02:29:08Z</time></trkpt>
      <trkpt lat="32.750482" lon="130.242746"><ele>522.8</ele><time>2026-10-04T02:29:12Z</time></trkpt>
      <trkpt lat="32.750962" lon="130.242041"><ele>511.6</ele><time>2026-10-04T02:29:19Z</time></trkpt>
      <trkpt lat="32.751294" lon="130.242280"><ele>509.8</ele><time>2026-10-04T02:29:23Z</time></trkpt>
      <trkpt lat="32.751367" lon="130.242568"><ele>506.4</ele><time>2026-10-04T02:29:26Z</time></trkpt>
      <trkpt lat="32.751300" lon="130.242730"><ele>503.6</ele><time>2026-10-04T02:29:29Z</time></trkpt>
      <trkpt lat="32.751032" lon="130.242853"><ele>503.2</ele><time>2026-10-04T02:29:30Z</time></trkpt>
      <trkpt lat="32.750745" lon="130.243288"><ele>502.8</ele><time>2026-10-04T02:29:34Z</time></trkpt>
      <trkpt lat="32.750501" lon="130.244067"><ele>494.2</ele><time>2026-10-04T02:29:42Z</time></trkpt>
      <trkpt lat="32.749945" lon="130.244358"><ele>492.4</ele><time>2026-10-04T02:29:52Z</time></trkpt>
      <trkpt lat="32.750023" lon="130.244407"><ele>491.0</ele><time>2026-10-04T02:29:54Z</time></trkpt>
      <trkpt lat="32.750319" lon="130.244333"><ele>488.4</ele><time>2026-10-04T02:29:59Z</time></trkpt>
      <trkpt lat="32.750778" lon="130.243794"><ele>480.8</ele><time>2026-10-04T02:30:08Z</time></trkpt>
      <trkpt lat="32.750951" lon="130.243752"><ele>479.8</ele><time>2026-10-04T02:30:10Z</time></trkpt>
      <trkpt lat="32.751393" lon="130.244298"><ele>474.4</ele><time>2026-10-04T02:30:18Z</time></trkpt>
      <trkpt lat="32.751812" lon="130.244411"><ele>472.4</ele><time>2026-10-04T02:30:23Z</time></trkpt>
      <trkpt lat="32.752480" lon="130.243815"><ele>463.8</ele><time>2026-10-04T02:30:35Z</time></trkpt>
      <trkpt lat="32.752727" lon="130.243983"><ele>462.0</ele><time>2026-10-04T02:30:40Z</time></trkpt>
      <trkpt lat="32.753442" lon="130.244163"><ele>454.8</ele><time>2026-10-04T02:30:47Z</time></trkpt>
      <trkpt lat="32.753661" lon="130.244127"><ele>455.2</ele><time>2026-10-04T02:30:49Z</time></trkpt>
      <trkpt lat="32.754223" lon="130.243828"><ele>451.4</ele><time>2026-10-04T02:30:55Z</time></trkpt>
      <trkpt lat="32.754358" lon="130.243846"><ele>452.6</ele><time>2026-10-04T02:30:57Z</time></trkpt>
      <trkpt lat="32.753909" lon="130.244205"><ele>453.8</ele><time>2026-10-04T02:31:05Z</time></trkpt>
      <trkpt lat="32.753490" lon="130.244314"><ele>452.2</ele><time>2026-10-04T02:31:11Z</time></trkpt>
      <trkpt lat="32.752849" lon="130.244314"><ele>448.0</ele><time>2026-10-04T02:31:19Z</time></trkpt>
      <trkpt lat="32.752678" lon="130.244375"><ele>447.2</ele><time>2026-10-04T02:31:22Z</time></trkpt>
      <trkpt lat="32.752598" lon="130.244534"><ele>446.2</ele><time>2026-10-04T02:31:25Z</time></trkpt>
      <trkpt lat="32.753025" lon="130.244390"><ele>445.2</ele><time>2026-10-04T02:31:33Z</time></trkpt>
      <trkpt lat="32.753503" lon="130.244500"><ele>443.6</ele><time>2026-10-04T02:31:40Z</time></trkpt>
      <trkpt lat="32.753959" lon="130.244446"><ele>440.2</ele><time>2026-10-04T02:31:45Z</time></trkpt>
      <trkpt lat="32.754472" lon="130.244229"><ele>434.4</ele><time>2026-10-04T02:31:51Z</time></trkpt>
      <trkpt lat="32.754630" lon="130.243869"><ele>432.0</ele><time>2026-10-04T02:31:56Z</time></trkpt>
      <trkpt lat="32.754611" lon="130.243543"><ele>430.6</ele><time>2026-10-04T02:32:00Z</time></trkpt>
      <trkpt lat="32.755164" lon="130.242670"><ele>421.6</ele><time>2026-10-04T02:32:11Z</time></trkpt>
      <trkpt lat="32.755991" lon="130.242515"><ele>418.4</ele><time>2026-10-04T02:32:20Z</time></trkpt>
      <trkpt lat="32.756523" lon="130.241976"><ele>416.2</ele><time>2026-10-04T02:32:26Z</time></trkpt>
      <trkpt lat="32.756808" lon="130.241206"><ele>411.0</ele><time>2026-10-04T02:32:32Z</time></trkpt>
      <trkpt lat="32.756880" lon="130.240712"><ele>407.2</ele><time>2026-10-04T02:32:36Z</time></trkpt>
      <trkpt lat="32.756561" lon="130.239972"><ele>403.4</ele><time>2026-10-04T02:32:42Z</time></trkpt>
      <trkpt lat="32.756547" lon="130.239746"><ele>396.8</ele><time>2026-10-04T02:32:44Z</time></trkpt>
      <trkpt lat="32.756195" lon="130.238664"><ele>389.8</ele><time>2026-10-04T02:32:53Z</time></trkpt>
      <trkpt lat="32.755835" lon="130.237874"><ele>393.2</ele><time>2026-10-04T02:33:00Z</time></trkpt>
      <trkpt lat="32.755769" lon="130.237655"><ele>383.2</ele><time>2026-10-04T02:33:02Z</time></trkpt>
      <trkpt lat="32.755718" lon="130.236924"><ele>380.8</ele><time>2026-10-04T02:33:08Z</time></trkpt>
      <trkpt lat="32.755558" lon="130.236148"><ele>380.6</ele><time>2026-10-04T02:33:14Z</time></trkpt>
      <trkpt lat="32.754791" lon="130.234918"><ele>369.8</ele><time>2026-10-04T02:33:24Z</time></trkpt>
      <trkpt lat="32.754565" lon="130.234352"><ele>365.8</ele><time>2026-10-04T02:33:29Z</time></trkpt>
      <trkpt lat="32.754685" lon="130.233478"><ele>363.2</ele><time>2026-10-04T02:33:36Z</time></trkpt>
      <trkpt lat="32.754841" lon="130.233049"><ele>358.4</ele><time>2026-10-04T02:33:40Z</time></trkpt>
      <trkpt lat="32.754944" lon="130.232846"><ele>356.6</ele><time>2026-10-04T02:33:42Z</time></trkpt>
      <trkpt lat="32.755191" lon="130.232797"><ele>355.6</ele><time>2026-10-04T02:33:44Z</time></trkpt>
      <trkpt lat="32.755496" lon="130.232402"><ele>353.6</ele><time>2026-10-04T02:33:48Z</time></trkpt>
      <trkpt lat="32.755574" lon="130.232001"><ele>351.4</ele><time>2026-10-04T02:33:52Z</time></trkpt>
      <trkpt lat="32.755459" lon="130.231509"><ele>344.4</ele><time>2026-10-04T02:33:56Z</time></trkpt>
      <trkpt lat="32.754842" lon="130.230420"><ele>331.4</ele><time>2026-10-04T02:34:05Z</time></trkpt>
      <trkpt lat="32.754211" lon="130.229785"><ele>326.8</ele><time>2026-10-04T02:34:11Z</time></trkpt>
      <trkpt lat="32.753396" lon="130.229176"><ele>318.4</ele><time>2026-10-04T02:34:19Z</time></trkpt>
      <trkpt lat="32.753243" lon="130.228717"><ele>313.6</ele><time>2026-10-04T02:34:25Z</time></trkpt>
      <trkpt lat="32.754141" lon="130.228899"><ele>304.4</ele><time>2026-10-04T02:34:33Z</time></trkpt>
      <trkpt lat="32.755163" lon="130.228814"><ele>295.2</ele><time>2026-10-04T02:34:41Z</time></trkpt>
      <trkpt lat="32.755776" lon="130.228544"><ele>285.6</ele><time>2026-10-04T02:34:46Z</time></trkpt>
      <trkpt lat="32.756934" lon="130.227681"><ele>273.6</ele><time>2026-10-04T02:34:56Z</time></trkpt>
      <trkpt lat="32.758546" lon="130.226907"><ele>269.6</ele><time>2026-10-04T02:35:10Z</time></trkpt>
      <trkpt lat="32.758734" lon="130.225957"><ele>262.4</ele><time>2026-10-04T02:35:18Z</time></trkpt>
      <trkpt lat="32.759032" lon="130.225247"><ele>255.6</ele><time>2026-10-04T02:35:24Z</time></trkpt>
      <trkpt lat="32.759369" lon="130.224006"><ele>248.8</ele><time>2026-10-04T02:35:36Z</time></trkpt>
      <trkpt lat="32.759516" lon="130.223883"><ele>246.4</ele><time>2026-10-04T02:35:38Z</time></trkpt>
      <trkpt lat="32.759831" lon="130.223894"><ele>244.8</ele><time>2026-10-04T02:35:42Z</time></trkpt>
      <trkpt lat="32.760519" lon="130.223358"><ele>237.6</ele><time>2026-10-04T02:35:50Z</time></trkpt>
      <trkpt lat="32.760685" lon="130.223154"><ele>233.0</ele><time>2026-10-04T02:35:52Z</time></trkpt>
      <trkpt lat="32.760693" lon="130.222932"><ele>231.6</ele><time>2026-10-04T02:35:53Z</time></trkpt>
      <trkpt lat="32.761443" lon="130.221831"><ele>220.4</ele><time>2026-10-04T02:36:02Z</time></trkpt>
      <trkpt lat="32.761540" lon="130.221547"><ele>219.4</ele><time>2026-10-04T02:36:04Z</time></trkpt>
      <trkpt lat="32.761600" lon="130.220816"><ele>220.0</ele><time>2026-10-04T02:36:09Z</time></trkpt>
      <trkpt lat="32.761643" lon="130.220399"><ele>209.0</ele><time>2026-10-04T02:36:12Z</time></trkpt>
      <trkpt lat="32.762006" lon="130.219006"><ele>202.2</ele><time>2026-10-04T02:36:21Z</time></trkpt>
      <trkpt lat="32.762689" lon="130.217987"><ele>197.4</ele><time>2026-10-04T02:36:30Z</time></trkpt>
      <trkpt lat="32.762828" lon="130.217526"><ele>196.8</ele><time>2026-10-04T02:36:34Z</time></trkpt>
      <trkpt lat="32.762859" lon="130.217053"><ele>194.2</ele><time>2026-10-04T02:36:38Z</time></trkpt>
      <trkpt lat="32.762668" lon="130.216154"><ele>184.6</ele><time>2026-10-04T02:36:45Z</time></trkpt>
      <trkpt lat="32.762716" lon="130.215965"><ele>183.2</ele><time>2026-10-04T02:36:47Z</time></trkpt>
      <trkpt lat="32.762897" lon="130.215736"><ele>181.4</ele><time>2026-10-04T02:36:51Z</time></trkpt>
      <trkpt lat="32.763258" lon="130.215687"><ele>179.0</ele><time>2026-10-04T02:37:37Z</time></trkpt>
      <trkpt lat="32.764576" lon="130.215171"><ele>172.6</ele><time>2026-10-04T02:37:57Z</time></trkpt>
      <trkpt lat="32.765133" lon="130.214877"><ele>172.6</ele><time>2026-10-04T02:38:08Z</time></trkpt>
      <trkpt lat="32.766169" lon="130.214121"><ele>168.4</ele><time>2026-10-04T02:38:28Z</time></trkpt>
      <trkpt lat="32.766647" lon="130.214086"><ele>164.8</ele><time>2026-10-04T02:38:36Z</time></trkpt>
      <trkpt lat="32.768024" lon="130.213434"><ele>150.6</ele><time>2026-10-04T02:39:26Z</time></trkpt>
      <trkpt lat="32.768371" lon="130.213412"><ele>149.4</ele><time>2026-10-04T02:39:31Z</time></trkpt>
      <trkpt lat="32.768730" lon="130.213513"><ele>149.6</ele><time>2026-10-04T02:39:36Z</time></trkpt>
      <trkpt lat="32.770419" lon="130.214316"><ele>144.2</ele><time>2026-10-04T02:39:59Z</time></trkpt>
      <trkpt lat="32.771185" lon="130.214392"><ele>139.4</ele><time>2026-10-04T02:40:08Z</time></trkpt>
      <trkpt lat="32.771535" lon="130.214319"><ele>143.4</ele><time>2026-10-04T02:40:12Z</time></trkpt>
      <trkpt lat="32.773053" lon="130.213777"><ele>132.2</ele><time>2026-10-04T02:40:28Z</time></trkpt>
      <trkpt lat="32.774818" lon="130.213331"><ele>121.8</ele><time>2026-10-04T02:40:44Z</time></trkpt>
      <trkpt lat="32.775401" lon="130.213110"><ele>117.6</ele><time>2026-10-04T02:40:49Z</time></trkpt>
      <trkpt lat="32.775858" lon="130.212619"><ele>110.6</ele><time>2026-10-04T02:40:54Z</time></trkpt>
      <trkpt lat="32.777056" lon="130.210927"><ele>101.6</ele><time>2026-10-04T02:41:10Z</time></trkpt>
      <trkpt lat="32.777417" lon="130.210585"><ele>100.8</ele><time>2026-10-04T02:41:14Z</time></trkpt>
      <trkpt lat="32.779008" lon="130.209555"><ele>91.6</ele><time>2026-10-04T02:41:30Z</time></trkpt>
      <trkpt lat="32.780062" lon="130.208093"><ele>78.0</ele><time>2026-10-04T02:41:44Z</time></trkpt>
      <trkpt lat="32.780445" lon="130.207560"><ele>80.2</ele><time>2026-10-04T02:41:49Z</time></trkpt>
      <trkpt lat="32.781126" lon="130.206781"><ele>69.2</ele><time>2026-10-04T02:41:57Z</time></trkpt>
      <trkpt lat="32.782116" lon="130.205714"><ele>66.0</ele><time>2026-10-04T02:42:09Z</time></trkpt>
      <trkpt lat="32.782471" lon="130.205468"><ele>65.4</ele><time>2026-10-04T02:42:13Z</time></trkpt>
      <trkpt lat="32.783445" lon="130.205040"><ele>58.4</ele><time>2026-10-04T02:42:23Z</time></trkpt>
      <trkpt lat="32.783881" lon="130.204662"><ele>55.0</ele><time>2026-10-04T02:42:28Z</time></trkpt>
      <trkpt lat="32.784148" lon="130.204259"><ele>50.0</ele><time>2026-10-04T02:42:32Z</time></trkpt>
      <trkpt lat="32.785997" lon="130.197069"><ele>25.6</ele><time>2026-10-04T02:43:49Z</time></trkpt>
      <trkpt lat="32.787168" lon="130.194515"><ele>23.6</ele><time>2026-10-04T02:44:14Z</time></trkpt>
      <trkpt lat="32.787762" lon="130.192583"><ele>13.8</ele><time>2026-10-04T02:44:34Z</time></trkpt>
      <trkpt lat="32.788535" lon="130.190130"><ele>14.4</ele><time>2026-10-04T02:45:03Z</time></trkpt>
      <trkpt lat="32.789839" lon="130.187726"><ele>11.2</ele><time>2026-10-04T02:45:37Z</time></trkpt>
      <trkpt lat="32.793357" lon="130.183144"><ele>10.8</ele><time>2026-10-04T02:47:10Z</time></trkpt>
      <trkpt lat="32.794013" lon="130.181713"><ele>10.0</ele><time>2026-10-04T02:47:32Z</time></trkpt>
      <trkpt lat="32.794603" lon="130.180085"><ele>12.8</ele><time>2026-10-04T02:48:04Z</time></trkpt>
      <trkpt lat="32.794781" lon="130.179265"><ele>13.0</ele><time>2026-10-04T02:48:17Z</time></trkpt>
      <trkpt lat="32.794835" lon="130.178316"><ele>12.2</ele><time>2026-10-04T02:48:33Z</time></trkpt>
      <trkpt lat="32.794756" lon="130.174545"><ele>12.0</ele><time>2026-10-04T02:49:32Z</time></trkpt>
      <trkpt lat="32.794483" lon="130.171007"><ele>12.6</ele><time>2026-10-04T02:50:17Z</time></trkpt>
      <trkpt lat="32.793890" lon="130.167317"><ele>13.6</ele><time>2026-10-04T02:51:04Z</time></trkpt>
      <trkpt lat="32.793827" lon="130.163923"><ele>12.8</ele><time>2026-10-04T02:51:47Z</time></trkpt>
      <trkpt lat="32.794092" lon="130.159329"><ele>13.0</ele><time>2026-10-04T02:53:12Z</time></trkpt>
      <trkpt lat="32.793850" lon="130.154720"><ele>15.0</ele><time>2026-10-04T02:54:30Z</time></trkpt>
      <trkpt lat="32.794096" lon="130.153663"><ele>14.0</ele><time>2026-10-04T02:54:51Z</time></trkpt>
      <trkpt lat="32.795067" lon="130.150730"><ele>12.2</ele><time>2026-10-04T02:55:37Z</time></trkpt>
      <trkpt lat="32.796680" lon="130.146432"><ele>11.4</ele><time>2026-10-04T02:56:40Z</time></trkpt>
      <trkpt lat="32.796846" lon="130.145644"><ele>12.8</ele><time>2026-10-04T02:56:53Z</time></trkpt>
      <trkpt lat="32.796612" lon="130.145302"><ele>11.4</ele><time>2026-10-04T02:57:00Z</time></trkpt>
      <trkpt lat="32.796324" lon="130.144052"><ele>12.6</ele><time>2026-10-04T02:57:21Z</time></trkpt>
      <trkpt lat="32.796468" lon="130.143858"><ele>12.0</ele><time>2026-10-04T02:57:25Z</time></trkpt>
      <trkpt lat="32.796732" lon="130.143720"><ele>12.0</ele><time>2026-10-04T02:57:30Z</time></trkpt>
      <trkpt lat="32.796822" lon="130.141108"><ele>13.6</ele><time>2026-10-04T02:58:05Z</time></trkpt>
      <trkpt lat="32.796083" lon="130.137280"><ele>16.6</ele><time>2026-10-04T02:59:14Z</time></trkpt>
      <trkpt lat="32.796030" lon="130.137328"><ele>16.8</ele><time>2026-10-04T02:59:19Z</time></trkpt>
      <trkpt lat="32.796040" lon="130.137403"><ele>16.6</ele><time>2026-10-04T03:00:23Z</time></trkpt>
      <trkpt lat="32.796397" lon="130.135877"><ele>19.4</ele><time>2026-10-04T03:02:43Z</time></trkpt>
      <trkpt lat="32.796818" lon="130.134781"><ele>22.0</ele><time>2026-10-04T03:03:14Z</time></trkpt>
      <trkpt lat="32.797234" lon="130.134112"><ele>21.8</ele><time>2026-10-04T03:03:29Z</time></trkpt>
      <trkpt lat="32.797861" lon="130.133594"><ele>21.8</ele><time>2026-10-04T03:03:43Z</time></trkpt>
      <trkpt lat="32.799819" lon="130.132333"><ele>28.4</ele><time>2026-10-04T03:04:39Z</time></trkpt>
      <trkpt lat="32.800320" lon="130.131888"><ele>32.0</ele><time>2026-10-04T03:05:07Z</time></trkpt>
      <trkpt lat="32.800765" lon="130.131323"><ele>36.4</ele><time>2026-10-04T03:05:31Z</time></trkpt>
      <trkpt lat="32.801024" lon="130.130466"><ele>39.8</ele><time>2026-10-04T03:06:07Z</time></trkpt>
      <trkpt lat="32.801006" lon="130.129956"><ele>42.2</ele><time>2026-10-04T03:06:26Z</time></trkpt>
      <trkpt lat="32.800836" lon="130.129300"><ele>45.4</ele><time>2026-10-04T03:06:58Z</time></trkpt>
      <trkpt lat="32.798557" lon="130.125096"><ele>70.2</ele><time>2026-10-04T03:10:10Z</time></trkpt>
      <trkpt lat="32.797745" lon="130.124335"><ele>77.2</ele><time>2026-10-04T03:10:53Z</time></trkpt>
      <trkpt lat="32.794983" lon="130.122930"><ele>90.8</ele><time>2026-10-04T03:13:01Z</time></trkpt>
      <trkpt lat="32.794508" lon="130.122464"><ele>94.8</ele><time>2026-10-04T03:13:31Z</time></trkpt>
      <trkpt lat="32.794185" lon="130.121853"><ele>97.8</ele><time>2026-10-04T03:13:58Z</time></trkpt>
      <trkpt lat="32.794091" lon="130.121226"><ele>98.6</ele><time>2026-10-04T03:14:15Z</time></trkpt>
      <trkpt lat="32.794138" lon="130.120359"><ele>99.2</ele><time>2026-10-04T03:14:42Z</time></trkpt>
      <trkpt lat="32.795421" lon="130.117866"><ele>100.2</ele><time>2026-10-04T03:17:33Z</time></trkpt>
      <trkpt lat="32.795509" lon="130.117350"><ele>100.0</ele><time>2026-10-04T03:17:39Z</time></trkpt>
      <trkpt lat="32.795496" lon="130.116828"><ele>99.2</ele><time>2026-10-04T03:17:45Z</time></trkpt>
      <trkpt lat="32.795202" lon="130.115997"><ele>99.4</ele><time>2026-10-04T03:17:56Z</time></trkpt>
      <trkpt lat="32.792983" lon="130.113217"><ele>102.2</ele><time>2026-10-04T03:18:48Z</time></trkpt>
      <trkpt lat="32.792750" lon="130.112793"><ele>103.2</ele><time>2026-10-04T03:18:55Z</time></trkpt>
      <trkpt lat="32.792608" lon="130.112077"><ele>104.8</ele><time>2026-10-04T03:19:06Z</time></trkpt>
      <trkpt lat="32.792717" lon="130.111153"><ele>107.6</ele><time>2026-10-04T03:19:20Z</time></trkpt>
      <trkpt lat="32.793330" lon="130.109417"><ele>111.2</ele><time>2026-10-04T03:19:49Z</time></trkpt>
      <trkpt lat="32.794021" lon="130.107268"><ele>104.2</ele><time>2026-10-04T03:20:13Z</time></trkpt>
      <trkpt lat="32.794836" lon="130.104309"><ele>96.8</ele><time>2026-10-04T03:20:38Z</time></trkpt>
      <trkpt lat="32.794970" lon="130.103546"><ele>93.8</ele><time>2026-10-04T03:20:45Z</time></trkpt>
      <trkpt lat="32.795066" lon="130.100917"><ele>77.2</ele><time>2026-10-04T03:21:05Z</time></trkpt>
      <trkpt lat="32.795003" lon="130.099728"><ele>69.8</ele><time>2026-10-04T03:21:13Z</time></trkpt>
      <trkpt lat="32.794959" lon="130.098839"><ele>75.0</ele><time>2026-10-04T03:21:19Z</time></trkpt>
      <trkpt lat="32.794929" lon="130.097896"><ele>63.4</ele><time>2026-10-04T03:21:26Z</time></trkpt>
      <trkpt lat="32.794862" lon="130.096735"><ele>64.8</ele><time>2026-10-04T03:21:35Z</time></trkpt>
      <trkpt lat="32.794727" lon="130.095143"><ele>54.0</ele><time>2026-10-04T03:21:48Z</time></trkpt>
      <trkpt lat="32.794993" lon="130.094722"><ele>49.8</ele><time>2026-10-04T03:21:52Z</time></trkpt>
      <trkpt lat="32.795891" lon="130.094342"><ele>43.4</ele><time>2026-10-04T03:22:00Z</time></trkpt>
      <trkpt lat="32.796162" lon="130.094120"><ele>40.4</ele><time>2026-10-04T03:22:03Z</time></trkpt>
      <trkpt lat="32.796225" lon="130.093849"><ele>37.4</ele><time>2026-10-04T03:22:05Z</time></trkpt>
      <trkpt lat="32.795943" lon="130.092963"><ele>31.8</ele><time>2026-10-04T03:22:11Z</time></trkpt>
      <trkpt lat="32.795895" lon="130.092564"><ele>27.6</ele><time>2026-10-04T03:22:14Z</time></trkpt>
      <trkpt lat="32.796042" lon="130.092202"><ele>26.4</ele><time>2026-10-04T03:22:17Z</time></trkpt>
      <trkpt lat="32.796563" lon="130.091489"><ele>22.2</ele><time>2026-10-04T03:22:25Z</time></trkpt>
      <trkpt lat="32.796591" lon="130.091279"><ele>20.8</ele><time>2026-10-04T03:22:27Z</time></trkpt>
      <trkpt lat="32.796489" lon="130.090728"><ele>17.6</ele><time>2026-10-04T03:22:32Z</time></trkpt>
      <trkpt lat="32.796528" lon="130.090397"><ele>16.0</ele><time>2026-10-04T03:22:35Z</time></trkpt>
      <trkpt lat="32.796969" lon="130.089716"><ele>15.0</ele><time>2026-10-04T03:22:43Z</time></trkpt>
      <trkpt lat="32.797298" lon="130.089413"><ele>13.2</ele><time>2026-10-04T03:22:48Z</time></trkpt>
      <trkpt lat="32.797529" lon="130.088317"><ele>10.0</ele><time>2026-10-04T03:23:00Z</time></trkpt>
      <trkpt lat="32.797298" lon="130.087652"><ele>10.6</ele><time>2026-10-04T03:23:09Z</time></trkpt>
      <trkpt lat="32.797082" lon="130.087298"><ele>10.6</ele><time>2026-10-04T03:23:15Z</time></trkpt>
      <trkpt lat="32.796603" lon="130.085781"><ele>11.8</ele><time>2026-10-04T03:23:45Z</time></trkpt>
      <trkpt lat="32.796314" lon="130.085731"><ele>11.6</ele><time>2026-10-04T03:23:53Z</time></trkpt>
      <trkpt lat="32.796107" lon="130.085551"><ele>11.8</ele><time>2026-10-04T03:24:00Z</time></trkpt>
      <trkpt lat="32.795468" lon="130.084585"><ele>12.4</ele><time>2026-10-04T03:24:25Z</time></trkpt>
      <trkpt lat="32.795060" lon="130.083747"><ele>11.8</ele><time>2026-10-04T03:24:44Z</time></trkpt>
      <trkpt lat="32.795153" lon="130.083181"><ele>15.0</ele><time>2026-10-04T03:25:00Z</time></trkpt>
      <trkpt lat="32.794684" lon="130.082960"><ele>19.0</ele><time>2026-10-04T03:25:20Z</time></trkpt>
      <trkpt lat="32.794459" lon="130.082642"><ele>21.2</ele><time>2026-10-04T03:25:34Z</time></trkpt>
      <trkpt lat="32.794165" lon="130.082507"><ele>22.6</ele><time>2026-10-04T03:25:46Z</time></trkpt>
      <trkpt lat="32.793609" lon="130.082045"><ele>25.2</ele><time>2026-10-04T03:26:12Z</time></trkpt>
      <trkpt lat="32.791750" lon="130.081287"><ele>28.0</ele><time>2026-10-04T03:27:05Z</time></trkpt>
      <trkpt lat="32.791470" lon="130.080987"><ele>27.8</ele><time>2026-10-04T03:27:13Z</time></trkpt>
      <trkpt lat="32.791396" lon="130.080587"><ele>29.0</ele><time>2026-10-04T03:27:22Z</time></trkpt>
      <trkpt lat="32.791089" lon="130.079778"><ele>32.8</ele><time>2026-10-04T03:27:47Z</time></trkpt>
      <trkpt lat="32.790474" lon="130.076151"><ele>41.4</ele><time>2026-10-04T03:29:23Z</time></trkpt>
      <trkpt lat="32.790436" lon="130.074840"><ele>37.6</ele><time>2026-10-04T03:29:44Z</time></trkpt>
      <trkpt lat="32.790313" lon="130.074132"><ele>37.8</ele><time>2026-10-04T03:29:55Z</time></trkpt>
      <trkpt lat="32.790240" lon="130.072362"><ele>35.0</ele><time>2026-10-04T03:30:21Z</time></trkpt>
      <trkpt lat="32.789928" lon="130.071225"><ele>35.8</ele><time>2026-10-04T03:30:39Z</time></trkpt>
      <trkpt lat="32.789691" lon="130.069766"><ele>35.8</ele><time>2026-10-04T03:31:04Z</time></trkpt>
      <trkpt lat="32.789068" lon="130.069114"><ele>35.2</ele><time>2026-10-04T03:31:22Z</time></trkpt>
      <trkpt lat="32.788952" lon="130.067911"><ele>36.8</ele><time>2026-10-04T03:31:43Z</time></trkpt>
      <trkpt lat="32.788769" lon="130.067376"><ele>38.2</ele><time>2026-10-04T03:31:54Z</time></trkpt>
      <trkpt lat="32.788703" lon="130.066927"><ele>37.6</ele><time>2026-10-04T03:32:01Z</time></trkpt>
      <trkpt lat="32.788772" lon="130.066296"><ele>39.4</ele><time>2026-10-04T03:32:13Z</time></trkpt>
      <trkpt lat="32.789019" lon="130.065496"><ele>36.4</ele><time>2026-10-04T03:32:24Z</time></trkpt>
      <trkpt lat="32.789307" lon="130.064859"><ele>33.4</ele><time>2026-10-04T03:32:33Z</time></trkpt>
      <trkpt lat="32.789680" lon="130.063019"><ele>32.6</ele><time>2026-10-04T03:32:56Z</time></trkpt>
      <trkpt lat="32.789625" lon="130.062506"><ele>32.6</ele><time>2026-10-04T03:33:04Z</time></trkpt>
      <trkpt lat="32.789678" lon="130.062222"><ele>32.8</ele><time>2026-10-04T03:33:09Z</time></trkpt>
      <trkpt lat="32.789622" lon="130.061447"><ele>33.6</ele><time>2026-10-04T03:33:23Z</time></trkpt>
      <trkpt lat="32.789638" lon="130.059330"><ele>37.2</ele><time>2026-10-04T03:34:04Z</time></trkpt>
      <trkpt lat="32.789320" lon="130.058248"><ele>40.6</ele><time>2026-10-04T03:34:30Z</time></trkpt>
      <trkpt lat="32.789310" lon="130.057910"><ele>41.4</ele><time>2026-10-04T03:34:38Z</time></trkpt>
      <trkpt lat="32.789391" lon="130.057030"><ele>43.0</ele><time>2026-10-04T03:35:00Z</time></trkpt>
      <trkpt lat="32.789753" lon="130.056693"><ele>44.2</ele><time>2026-10-04T03:35:13Z</time></trkpt>
      <trkpt lat="32.789773" lon="130.056528"><ele>45.0</ele><time>2026-10-04T03:35:17Z</time></trkpt>
      <trkpt lat="32.789558" lon="130.055991"><ele>48.2</ele><time>2026-10-04T03:35:34Z</time></trkpt>
      <trkpt lat="32.789664" lon="130.055577"><ele>50.4</ele><time>2026-10-04T03:35:49Z</time></trkpt>
      <trkpt lat="32.789444" lon="130.055066"><ele>53.4</ele><time>2026-10-04T03:36:09Z</time></trkpt>
      <trkpt lat="32.789427" lon="130.054457"><ele>56.8</ele><time>2026-10-04T03:36:32Z</time></trkpt>
      <trkpt lat="32.789174" lon="130.053485"><ele>63.2</ele><time>2026-10-04T03:37:11Z</time></trkpt>
      <trkpt lat="32.789280" lon="130.051928"><ele>73.4</ele><time>2026-10-04T03:38:10Z</time></trkpt>
      <trkpt lat="32.789639" lon="130.051228"><ele>77.8</ele><time>2026-10-04T03:38:39Z</time></trkpt>
      <trkpt lat="32.789882" lon="130.050020"><ele>87.0</ele><time>2026-10-04T03:39:31Z</time></trkpt>
      <trkpt lat="32.789976" lon="130.049073"><ele>93.4</ele><time>2026-10-04T03:40:09Z</time></trkpt>
      <trkpt lat="32.789886" lon="130.048868"><ele>94.8</ele><time>2026-10-04T03:40:17Z</time></trkpt>
      <trkpt lat="32.789745" lon="130.048893"><ele>96.0</ele><time>2026-10-04T03:40:23Z</time></trkpt>
      <trkpt lat="32.789221" lon="130.049779"><ele>101.4</ele><time>2026-10-04T03:41:03Z</time></trkpt>
      <trkpt lat="32.788589" lon="130.050303"><ele>106.4</ele><time>2026-10-04T03:41:41Z</time></trkpt>
      <trkpt lat="32.788351" lon="130.050261"><ele>107.8</ele><time>2026-10-04T03:41:52Z</time></trkpt>
      <trkpt lat="32.788014" lon="130.049951"><ele>110.2</ele><time>2026-10-04T03:42:08Z</time></trkpt>
      <trkpt lat="32.787694" lon="130.050094"><ele>112.4</ele><time>2026-10-04T03:42:20Z</time></trkpt>
      <trkpt lat="32.787576" lon="130.050238"><ele>113.6</ele><time>2026-10-04T03:42:26Z</time></trkpt>
      <trkpt lat="32.787816" lon="130.050557"><ele>116.0</ele><time>2026-10-04T03:42:41Z</time></trkpt>
      <trkpt lat="32.787841" lon="130.050737"><ele>116.6</ele><time>2026-10-04T03:42:47Z</time></trkpt>
      <trkpt lat="32.787650" lon="130.051114"><ele>119.2</ele><time>2026-10-04T03:43:04Z</time></trkpt>
      <trkpt lat="32.787477" lon="130.051278"><ele>120.2</ele><time>2026-10-04T03:43:13Z</time></trkpt>
      <trkpt lat="32.787253" lon="130.051318"><ele>121.4</ele><time>2026-10-04T03:43:21Z</time></trkpt>
      <trkpt lat="32.787129" lon="130.051249"><ele>122.0</ele><time>2026-10-04T03:43:26Z</time></trkpt>
      <trkpt lat="32.786632" lon="130.050411"><ele>125.8</ele><time>2026-10-04T03:43:59Z</time></trkpt>
      <trkpt lat="32.786143" lon="130.049065"><ele>131.6</ele><time>2026-10-04T03:44:51Z</time></trkpt>
      <trkpt lat="32.785696" lon="130.046876"><ele>130.2</ele><time>2026-10-04T03:45:41Z</time></trkpt>
      <trkpt lat="32.785686" lon="130.046533"><ele>130.6</ele><time>2026-10-04T03:45:47Z</time></trkpt>
      <trkpt lat="32.785872" lon="130.045771"><ele>131.4</ele><time>2026-10-04T03:46:04Z</time></trkpt>
      <trkpt lat="32.785462" lon="130.045349"><ele>129.2</ele><time>2026-10-04T03:46:14Z</time></trkpt>
      <trkpt lat="32.785057" lon="130.044505"><ele>127.6</ele><time>2026-10-04T03:46:29Z</time></trkpt>
      <trkpt lat="32.784404" lon="130.040604"><ele>117.2</ele><time>2026-10-04T03:47:53Z</time></trkpt>
      <trkpt lat="32.783601" lon="130.035765"><ele>79.8</ele><time>2026-10-04T03:48:22Z</time></trkpt>
      <trkpt lat="32.783231" lon="130.034775"><ele>69.8</ele><time>2026-10-04T03:48:28Z</time></trkpt>
      <trkpt lat="32.782151" lon="130.033006"><ele>54.6</ele><time>2026-10-04T03:48:40Z</time></trkpt>
      <trkpt lat="32.781792" lon="130.032234"><ele>51.0</ele><time>2026-10-04T03:48:45Z</time></trkpt>
      <trkpt lat="32.781596" lon="130.031549"><ele>46.2</ele><time>2026-10-04T03:48:49Z</time></trkpt>
      <trkpt lat="32.781303" lon="130.029978"><ele>42.2</ele><time>2026-10-04T03:48:59Z</time></trkpt>
      <trkpt lat="32.781014" lon="130.029046"><ele>41.2</ele><time>2026-10-04T03:49:06Z</time></trkpt>
      <trkpt lat="32.780445" lon="130.027415"><ele>27.0</ele><time>2026-10-04T03:49:18Z</time></trkpt>
      <trkpt lat="32.780348" lon="130.026459"><ele>22.4</ele><time>2026-10-04T03:49:24Z</time></trkpt>
      <trkpt lat="32.780215" lon="130.023405"><ele>25.2</ele><time>2026-10-04T03:49:49Z</time></trkpt>
      <trkpt lat="32.780069" lon="130.019322"><ele>10.0</ele><time>2026-10-04T03:50:31Z</time></trkpt>
      <trkpt lat="32.780003" lon="130.016264"><ele>12.2</ele><time>2026-10-04T03:51:06Z</time></trkpt>
      <trkpt lat="32.780146" lon="130.015262"><ele>10.6</ele><time>2026-10-04T03:51:41Z</time></trkpt>
      <trkpt lat="32.781029" lon="130.011001"><ele>23.0</ele><time>2026-10-04T03:53:03Z</time></trkpt>
      <trkpt lat="32.782093" lon="130.007845"><ele>44.4</ele><time>2026-10-04T03:55:13Z</time></trkpt>
      <trkpt lat="32.782169" lon="130.007318"><ele>48.2</ele><time>2026-10-04T03:55:40Z</time></trkpt>
      <trkpt lat="32.782096" lon="130.006610"><ele>53.8</ele><time>2026-10-04T03:56:13Z</time></trkpt>
      <trkpt lat="32.781219" lon="130.003514"><ele>74.6</ele><time>2026-10-04T03:58:42Z</time></trkpt>
      <trkpt lat="32.781070" lon="130.001451"><ele>75.2</ele><time>2026-10-04T03:59:24Z</time></trkpt>
      <trkpt lat="32.780536" lon="130.000598"><ele>74.0</ele><time>2026-10-04T03:59:38Z</time></trkpt>
      <trkpt lat="32.779974" lon="130.000084"><ele>69.2</ele><time>2026-10-04T03:59:47Z</time></trkpt>
      <trkpt lat="32.779697" lon="129.999900"><ele>67.0</ele><time>2026-10-04T03:59:50Z</time></trkpt>
      <trkpt lat="32.778715" lon="129.999537"><ele>58.6</ele><time>2026-10-04T03:59:58Z</time></trkpt>
      <trkpt lat="32.777567" lon="129.998948"><ele>55.0</ele><time>2026-10-04T04:00:09Z</time></trkpt>
      <trkpt lat="32.774532" lon="129.996760"><ele>31.4</ele><time>2026-10-04T04:00:37Z</time></trkpt>
      <trkpt lat="32.774266" lon="129.996409"><ele>28.8</ele><time>2026-10-04T04:00:40Z</time></trkpt>
      <trkpt lat="32.774028" lon="129.995891"><ele>26.0</ele><time>2026-10-04T04:00:44Z</time></trkpt>
      <trkpt lat="32.773756" lon="129.994263"><ele>26.0</ele><time>2026-10-04T04:00:58Z</time></trkpt>
      <trkpt lat="32.773647" lon="129.994153"><ele>25.4</ele><time>2026-10-04T04:01:00Z</time></trkpt>
      <trkpt lat="32.772253" lon="129.994377"><ele>20.0</ele><time>2026-10-04T04:01:16Z</time></trkpt>
      <trkpt lat="32.771184" lon="129.994818"><ele>19.4</ele><time>2026-10-04T04:01:30Z</time></trkpt>
      <trkpt lat="32.770733" lon="129.994805"><ele>19.0</ele><time>2026-10-04T04:01:36Z</time></trkpt>
      <trkpt lat="32.770186" lon="129.994402"><ele>19.0</ele><time>2026-10-04T04:01:45Z</time></trkpt>
      <trkpt lat="32.769970" lon="129.994357"><ele>18.0</ele><time>2026-10-04T04:01:48Z</time></trkpt>
      <trkpt lat="32.768596" lon="129.994953"><ele>17.6</ele><time>2026-10-04T04:02:09Z</time></trkpt>
      <trkpt lat="32.767426" lon="129.994913"><ele>15.0</ele><time>2026-10-04T04:02:27Z</time></trkpt>
      <trkpt lat="32.765529" lon="129.994657"><ele>16.8</ele><time>2026-10-04T04:03:00Z</time></trkpt>
      <trkpt lat="32.764791" lon="129.994902"><ele>15.6</ele><time>2026-10-04T04:03:17Z</time></trkpt>
      <trkpt lat="32.764779" lon="129.994807"><ele>15.6</ele><time>2026-10-04T04:03:22Z</time></trkpt>
      <trkpt lat="32.764767" lon="129.994872"><ele>15.6</ele><time>2026-10-04T04:03:55Z</time></trkpt>
      <trkpt lat="32.762220" lon="129.995587"><ele>15.6</ele><time>2026-10-04T04:40:29Z</time></trkpt>
      <trkpt lat="32.761733" lon="129.995626"><ele>15.2</ele><time>2026-10-04T04:41:05Z</time></trkpt>
      <trkpt lat="32.760831" lon="129.994959"><ele>16.6</ele><time>2026-10-04T04:41:29Z</time></trkpt>
      <trkpt lat="32.760334" lon="129.994775"><ele>19.8</ele><time>2026-10-04T04:41:51Z</time></trkpt>
      <trkpt lat="32.759901" lon="129.994785"><ele>24.0</ele><time>2026-10-04T04:42:21Z</time></trkpt>
      <trkpt lat="32.759269" lon="129.994028"><ele>29.6</ele><time>2026-10-04T04:43:22Z</time></trkpt>
      <trkpt lat="32.759106" lon="129.993913"><ele>30.8</ele><time>2026-10-04T04:43:33Z</time></trkpt>
      <trkpt lat="32.758831" lon="129.993952"><ele>32.8</ele><time>2026-10-04T04:43:53Z</time></trkpt>
      <trkpt lat="32.758691" lon="129.993881"><ele>33.4</ele><time>2026-10-04T04:44:01Z</time></trkpt>
      <trkpt lat="32.758233" lon="129.993398"><ele>32.0</ele><time>2026-10-04T04:44:20Z</time></trkpt>
      <trkpt lat="32.757581" lon="129.992914"><ele>31.2</ele><time>2026-10-04T04:44:42Z</time></trkpt>
      <trkpt lat="32.757207" lon="129.992176"><ele>27.8</ele><time>2026-10-04T04:44:59Z</time></trkpt>
      <trkpt lat="32.757230" lon="129.991909"><ele>26.4</ele><time>2026-10-04T04:45:07Z</time></trkpt>
      <trkpt lat="32.758688" lon="129.989771"><ele>18.2</ele><time>2026-10-04T04:45:52Z</time></trkpt>
      <trkpt lat="32.758923" lon="129.989220"><ele>19.8</ele><time>2026-10-04T04:46:05Z</time></trkpt>
      <trkpt lat="32.758976" lon="129.988667"><ele>16.8</ele><time>2026-10-04T04:46:16Z</time></trkpt>
      <trkpt lat="32.759649" lon="129.987412"><ele>14.0</ele><time>2026-10-04T04:46:39Z</time></trkpt>
      <trkpt lat="32.759942" lon="129.987100"><ele>14.4</ele><time>2026-10-04T04:46:48Z</time></trkpt>
      <trkpt lat="32.760170" lon="129.986619"><ele>13.8</ele><time>2026-10-04T04:46:57Z</time></trkpt>
      <trkpt lat="32.760415" lon="129.985745"><ele>14.0</ele><time>2026-10-04T04:47:14Z</time></trkpt>
      <trkpt lat="32.760653" lon="129.985423"><ele>14.0</ele><time>2026-10-04T04:47:21Z</time></trkpt>
      <trkpt lat="32.760832" lon="129.985013"><ele>13.2</ele><time>2026-10-04T04:47:29Z</time></trkpt>
      <trkpt lat="32.761169" lon="129.984635"><ele>14.0</ele><time>2026-10-04T04:47:41Z</time></trkpt>
      <trkpt lat="32.761762" lon="129.983191"><ele>14.0</ele><time>2026-10-04T04:48:11Z</time></trkpt>
      <trkpt lat="32.763598" lon="129.981543"><ele>14.4</ele><time>2026-10-04T04:49:06Z</time></trkpt>
      <trkpt lat="32.764140" lon="129.980466"><ele>13.8</ele><time>2026-10-04T04:49:32Z</time></trkpt>
      <trkpt lat="32.764193" lon="129.979803"><ele>13.8</ele><time>2026-10-04T04:49:45Z</time></trkpt>
      <trkpt lat="32.763877" lon="129.978093"><ele>13.8</ele><time>2026-10-04T04:50:19Z</time></trkpt>
      <trkpt lat="32.764025" lon="129.977390"><ele>14.2</ele><time>2026-10-04T04:50:33Z</time></trkpt>
      <trkpt lat="32.763944" lon="129.976562"><ele>14.0</ele><time>2026-10-04T04:50:50Z</time></trkpt>
      <trkpt lat="32.764136" lon="129.975297"><ele>13.8</ele><time>2026-10-04T04:51:14Z</time></trkpt>
      <trkpt lat="32.764353" lon="129.974671"><ele>13.8</ele><time>2026-10-04T04:51:27Z</time></trkpt>
      <trkpt lat="32.764386" lon="129.974346"><ele>13.6</ele><time>2026-10-04T04:51:34Z</time></trkpt>
      <trkpt lat="32.764327" lon="129.971115"><ele>20.0</ele><time>2026-10-04T04:52:56Z</time></trkpt>
      <trkpt lat="32.764432" lon="129.970239"><ele>24.6</ele><time>2026-10-04T04:53:37Z</time></trkpt>
      <trkpt lat="32.764824" lon="129.968346"><ele>25.6</ele><time>2026-10-04T04:54:33Z</time></trkpt>
      <trkpt lat="32.765183" lon="129.966228"><ele>15.8</ele><time>2026-10-04T04:54:57Z</time></trkpt>
      <trkpt lat="32.764905" lon="129.960832"><ele>17.4</ele><time>2026-10-04T04:56:06Z</time></trkpt>
      <trkpt lat="32.764927" lon="129.960077"><ele>17.2</ele><time>2026-10-04T04:56:18Z</time></trkpt>
      <trkpt lat="32.765164" lon="129.958917"><ele>16.6</ele><time>2026-10-04T04:56:38Z</time></trkpt>
      <trkpt lat="32.765217" lon="129.958110"><ele>16.8</ele><time>2026-10-04T04:56:53Z</time></trkpt>
      <trkpt lat="32.765012" lon="129.956966"><ele>19.2</ele><time>2026-10-04T04:57:20Z</time></trkpt>
      <trkpt lat="32.763362" lon="129.952814"><ele>16.4</ele><time>2026-10-04T04:58:49Z</time></trkpt>
      <trkpt lat="32.763271" lon="129.952325"><ele>16.2</ele><time>2026-10-04T04:58:57Z</time></trkpt>
      <trkpt lat="32.763223" lon="129.951320"><ele>15.8</ele><time>2026-10-04T04:59:13Z</time></trkpt>
      <trkpt lat="32.762160" lon="129.950747"><ele>16.2</ele><time>2026-10-04T04:59:39Z</time></trkpt>
      <trkpt lat="32.761409" lon="129.949996"><ele>14.6</ele><time>2026-10-04T04:59:59Z</time></trkpt>
      <trkpt lat="32.761003" lon="129.949137"><ele>15.6</ele><time>2026-10-04T05:00:18Z</time></trkpt>
      <trkpt lat="32.760824" lon="129.948142"><ele>14.6</ele><time>2026-10-04T05:00:35Z</time></trkpt>
      <trkpt lat="32.760529" lon="129.947644"><ele>15.4</ele><time>2026-10-04T05:00:45Z</time></trkpt>
      <trkpt lat="32.760228" lon="129.946875"><ele>17.2</ele><time>2026-10-04T05:01:05Z</time></trkpt>
      <trkpt lat="32.760103" lon="129.945859"><ele>20.4</ele><time>2026-10-04T05:01:33Z</time></trkpt>
      <trkpt lat="32.760236" lon="129.943494"><ele>28.4</ele><time>2026-10-04T05:03:03Z</time></trkpt>
      <trkpt lat="32.760046" lon="129.943356"><ele>28.8</ele><time>2026-10-04T05:03:12Z</time></trkpt>
      <trkpt lat="32.759996" lon="129.943188"><ele>27.8</ele><time>2026-10-04T05:03:16Z</time></trkpt>
      <trkpt lat="32.759761" lon="129.941522"><ele>20.6</ele><time>2026-10-04T05:03:40Z</time></trkpt>
      <trkpt lat="32.760311" lon="129.939371"><ele>24.8</ele><time>2026-10-04T05:04:31Z</time></trkpt>
      <trkpt lat="32.760319" lon="129.938775"><ele>26.0</ele><time>2026-10-04T05:04:48Z</time></trkpt>
      <trkpt lat="32.759824" lon="129.936293"><ele>31.4</ele><time>2026-10-04T05:06:02Z</time></trkpt>
      <trkpt lat="32.759577" lon="129.935658"><ele>31.8</ele><time>2026-10-04T05:06:19Z</time></trkpt>
      <trkpt lat="32.759147" lon="129.934990"><ele>35.0</ele><time>2026-10-04T05:06:46Z</time></trkpt>
      <trkpt lat="32.758978" lon="129.934466"><ele>36.8</ele><time>2026-10-04T05:07:11Z</time></trkpt>
      <trkpt lat="32.758602" lon="129.933800"><ele>40.2</ele><time>2026-10-04T05:07:44Z</time></trkpt>
      <trkpt lat="32.757959" lon="129.933448"><ele>43.8</ele><time>2026-10-04T05:08:23Z</time></trkpt>
      <trkpt lat="32.757785" lon="129.933293"><ele>44.4</ele><time>2026-10-04T05:08:35Z</time></trkpt>
      <trkpt lat="32.757668" lon="129.933023"><ele>45.4</ele><time>2026-10-04T05:08:49Z</time></trkpt>
      <trkpt lat="32.757673" lon="129.932227"><ele>49.2</ele><time>2026-10-04T05:09:31Z</time></trkpt>
      <trkpt lat="32.757875" lon="129.931788"><ele>51.8</ele><time>2026-10-04T05:09:56Z</time></trkpt>
      <trkpt lat="32.757863" lon="129.930984"><ele>56.0</ele><time>2026-10-04T05:10:33Z</time></trkpt>
      <trkpt lat="32.757946" lon="129.930496"><ele>59.8</ele><time>2026-10-04T05:11:00Z</time></trkpt>
      <trkpt lat="32.757644" lon="129.929773"><ele>66.6</ele><time>2026-10-04T05:11:43Z</time></trkpt>
      <trkpt lat="32.757694" lon="129.929377"><ele>72.0</ele><time>2026-10-04T05:12:08Z</time></trkpt>
      <trkpt lat="32.758360" lon="129.929408"><ele>84.6</ele><time>2026-10-04T05:15:19Z</time></trkpt>
      <trkpt lat="32.758367" lon="129.929527"><ele>84.8</ele><time>2026-10-04T05:16:43Z</time></trkpt>
      <trkpt lat="32.758361" lon="129.929409"><ele>84.8</ele><time>2026-10-04T05:17:13Z</time></trkpt>
      <trkpt lat="32.758353" lon="129.929463"><ele>84.4</ele><time>2026-10-04T05:17:35Z</time></trkpt>
      <trkpt lat="32.758473" lon="129.929452"><ele>89.8</ele><time>2026-10-04T05:18:06Z</time></trkpt>
      <trkpt lat="32.758504" lon="129.929294"><ele>95.4</ele><time>2026-10-04T05:18:50Z</time></trkpt>
      <trkpt lat="32.758606" lon="129.929449"><ele>102.0</ele><time>2026-10-04T05:19:51Z</time></trkpt>
      <trkpt lat="32.758682" lon="129.929388"><ele>104.4</ele><time>2026-10-04T05:21:00Z</time></trkpt>
      <trkpt lat="32.758722" lon="129.927489"><ele>113.2</ele><time>2026-10-04T05:22:36Z</time></trkpt>
      <trkpt lat="32.758888" lon="129.916319"><ele>130.6</ele><time>2026-10-04T05:28:14Z</time></trkpt>
      <trkpt lat="32.758403" lon="129.915439"><ele>131.4</ele><time>2026-10-04T05:28:44Z</time></trkpt>
      <trkpt lat="32.757530" lon="129.914408"><ele>129.2</ele><time>2026-10-04T05:29:08Z</time></trkpt>
      <trkpt lat="32.757477" lon="129.914457"><ele>128.8</ele><time>2026-10-04T05:29:48Z</time></trkpt>
      <trkpt lat="32.757330" lon="129.914210"><ele>128.4</ele><time>2026-10-04T05:30:57Z</time></trkpt>
      <trkpt lat="32.756960" lon="129.913914"><ele>127.6</ele><time>2026-10-04T05:31:50Z</time></trkpt>
      <trkpt lat="32.757015" lon="129.913788"><ele>126.4</ele><time>2026-10-04T05:37:06Z</time></trkpt>
      <trkpt lat="32.756960" lon="129.913844"><ele>126.2</ele><time>2026-10-04T05:37:20Z</time></trkpt>
      <trkpt lat="32.756551" lon="129.913039"><ele>123.8</ele><time>2026-10-04T05:39:09Z</time></trkpt>
      <trkpt lat="32.756146" lon="129.912070"><ele>119.8</ele><time>2026-10-04T05:39:23Z</time></trkpt>
      <trkpt lat="32.755665" lon="129.909914"><ele>111.6</ele><time>2026-10-04T05:40:28Z</time></trkpt>
      <trkpt lat="32.754552" lon="129.907826"><ele>105.2</ele><time>2026-10-04T05:41:09Z</time></trkpt>
      <trkpt lat="32.753545" lon="129.906638"><ele>99.2</ele><time>2026-10-04T05:41:31Z</time></trkpt>
      <trkpt lat="32.753129" lon="129.905832"><ele>94.8</ele><time>2026-10-04T05:41:45Z</time></trkpt>
      <trkpt lat="32.752815" lon="129.904578"><ele>90.0</ele><time>2026-10-04T05:42:06Z</time></trkpt>
      <trkpt lat="32.752648" lon="129.903159"><ele>83.8</ele><time>2026-10-04T05:43:19Z</time></trkpt>
      <trkpt lat="32.752175" lon="129.900615"><ele>81.8</ele><time>2026-10-04T05:45:28Z</time></trkpt>
      <trkpt lat="32.751283" lon="129.897804"><ele>67.8</ele><time>2026-10-04T05:46:17Z</time></trkpt>
      <trkpt lat="32.750918" lon="129.896945"><ele>61.4</ele><time>2026-10-04T05:46:31Z</time></trkpt>
      <trkpt lat="32.750414" lon="129.896074"><ele>58.0</ele><time>2026-10-04T05:46:49Z</time></trkpt>
      <trkpt lat="32.750314" lon="129.895334"><ele>54.0</ele><time>2026-10-04T05:47:04Z</time></trkpt>
      <trkpt lat="32.750362" lon="129.894901"><ele>52.4</ele><time>2026-10-04T05:47:11Z</time></trkpt>
      <trkpt lat="32.750799" lon="129.894199"><ele>49.4</ele><time>2026-10-04T05:47:26Z</time></trkpt>
      <trkpt lat="32.751262" lon="129.893732"><ele>45.2</ele><time>2026-10-04T05:47:38Z</time></trkpt>
      <trkpt lat="32.751746" lon="129.892682"><ele>40.4</ele><time>2026-10-04T05:50:37Z</time></trkpt>
      <trkpt lat="32.751976" lon="129.891814"><ele>37.4</ele><time>2026-10-04T05:50:55Z</time></trkpt>
      <trkpt lat="32.752054" lon="129.890945"><ele>35.2</ele><time>2026-10-04T05:51:12Z</time></trkpt>
      <trkpt lat="32.752226" lon="129.890098"><ele>33.4</ele><time>2026-10-04T05:51:30Z</time></trkpt>
      <trkpt lat="32.752263" lon="129.889387"><ele>31.8</ele><time>2026-10-04T05:51:44Z</time></trkpt>
      <trkpt lat="32.751849" lon="129.888365"><ele>29.0</ele><time>2026-10-04T05:52:05Z</time></trkpt>
      <trkpt lat="32.751899" lon="129.888096"><ele>29.4</ele><time>2026-10-04T05:52:18Z</time></trkpt>
      <trkpt lat="32.751728" lon="129.887404"><ele>27.2</ele><time>2026-10-04T05:52:36Z</time></trkpt>
      <trkpt lat="32.751699" lon="129.886105"><ele>25.0</ele><time>2026-10-04T05:53:20Z</time></trkpt>
      <trkpt lat="32.751360" lon="129.884778"><ele>23.0</ele><time>2026-10-04T05:55:47Z</time></trkpt>
      <trkpt lat="32.750796" lon="129.884381"><ele>22.6</ele><time>2026-10-04T05:56:47Z</time></trkpt>
      <trkpt lat="32.749967" lon="129.883988"><ele>22.2</ele><time>2026-10-04T05:57:56Z</time></trkpt>
      <trkpt lat="32.749852" lon="129.883836"><ele>22.4</ele><time>2026-10-04T05:58:12Z</time></trkpt>
      <trkpt lat="32.749157" lon="129.883541"><ele>20.6</ele><time>2026-10-04T05:59:16Z</time></trkpt>
      <trkpt lat="32.748820" lon="129.883180"><ele>19.8</ele><time>2026-10-04T05:59:59Z</time></trkpt>
      <trkpt lat="32.748087" lon="129.882618"><ele>19.8</ele><time>2026-10-04T06:01:10Z</time></trkpt>
      <trkpt lat="32.747830" lon="129.882221"><ele>19.2</ele><time>2026-10-04T06:01:49Z</time></trkpt>
      <trkpt lat="32.747199" lon="129.881514"><ele>18.0</ele><time>2026-10-04T06:03:05Z</time></trkpt>
    </trkseg>
  </trk>
</gpx>
